<?xml version="1.0" encoding="UTF-8"?>
<gpx xmlns="http://www.topografix.com/GPX/1/1" xmlns:gpxtpx="http://www.garmin.com/xmlschemas/TrackPointExtension/v1" xmlns:xsi="http://www.w3.org/2001/XMLSchema-instance" xsi:schemaLocation="http://www.topografix.com/GPX/1/1 http://www.topografix.com/GPX/1/1/gpx.xsd" version="1.1" creator="gpx.py -- https://github.com/tkrajina/gpxpy">
  <trk>
    <name>gpx from keep</name>
    <type>Run</type>
    <trkseg>
      <trkpt lat="52.269863" lon="10.52271">
        <time>2026-09-20T09:16:25.280000Z</time>
      </trkpt>
      <trkpt lat="52.269857" lon="10.52288">
        <time>2026-09-20T09:16:25.280000Z</time>
      </trkpt>
      <trkpt lat="52.269884" lon="10.523005">
        <time>2026-09-20T09:16:25.380000Z</time>
      </trkpt>
      <trkpt lat="52.26996" lon="10.52309">
        <time>2026-09-20T09:16:25.380000Z</time>
      </trkpt>
      <trkpt lat="52.270058" lon="10.523096">
        <time>2026-09-20T09:16:25.380000Z</time>
      </trkpt>
      <trkpt lat="52.270377" lon="10.522985">
        <time>2026-09-20T09:16:25.580000Z</time>
      </trkpt>
      <trkpt lat="52.270459" lon="10.52283">
        <time>2026-09-20T09:16:25.580000Z</time>
      </trkpt>
      <trkpt lat="52.270703" lon="10.52267">
        <time>2026-09-20T09:16:25.680000Z</time>
      </trkpt>
      <trkpt lat="52.270878" lon="10.522511">
        <time>2026-09-20T09:16:25.780000Z</time>
      </trkpt>
      <trkpt lat="52.271159" lon="10.522416">
        <time>2026-09-20T09:16:25.880000Z</time>
      </trkpt>
      <trkpt lat="52.271237" lon="10.522357">
        <time>2026-09-20T09:16:25.880000Z</time>
      </trkpt>
      <trkpt lat="52.271436" lon="10.522075">
        <time>2026-09-20T09:16:26.080000Z</time>
      </trkpt>
      <trkpt lat="52.271495" lon="10.522036">
        <time>2026-09-20T09:16:26.080000Z</time>
      </trkpt>
      <trkpt lat="52.271561" lon="10.522025">
        <time>2026-09-20T09:16:26.080000Z</time>
      </trkpt>
      <trkpt lat="52.271673" lon="10.522109">
        <time>2026-09-20T09:16:26.180000Z</time>
      </trkpt>
      <trkpt lat="52.271791" lon="10.522276">
        <time>2026-09-20T09:16:26.280000Z</time>
      </trkpt>
      <trkpt lat="52.271977" lon="10.522315">
        <time>2026-09-20T09:16:26.380000Z</time>
      </trkpt>
      <trkpt lat="52.272035" lon="10.52227">
        <time>2026-09-20T09:16:26.380000Z</time>
      </trkpt>
      <trkpt lat="52.272141" lon="10.522079">
        <time>2026-09-20T09:16:26.380000Z</time>
      </trkpt>
      <trkpt lat="52.272289" lon="10.521653">
        <time>2026-09-20T09:16:26.580000Z</time>
      </trkpt>
      <trkpt lat="52.272423" lon="10.521367">
        <time>2026-09-20T09:16:26.680000Z</time>
      </trkpt>
      <trkpt lat="52.272557" lon="10.520965">
        <time>2026-09-20T09:16:26.780000Z</time>
      </trkpt>
      <trkpt lat="52.272735" lon="10.520523">
        <time>2026-09-20T09:16:26.980000Z</time>
      </trkpt>
      <trkpt lat="52.272889" lon="10.520131">
        <time>2026-09-20T09:16:27.080000Z</time>
      </trkpt>
      <trkpt lat="52.272993" lon="10.519734">
        <time>2026-09-20T09:16:27.180000Z</time>
      </trkpt>
      <trkpt lat="52.272986" lon="10.519644">
        <time>2026-09-20T09:16:27.180000Z</time>
      </trkpt>
      <trkpt lat="52.273089" lon="10.519439">
        <time>2026-09-20T09:16:27.280000Z</time>
      </trkpt>
      <trkpt lat="52.273109" lon="10.519356">
        <time>2026-09-20T09:16:27.280000Z</time>
      </trkpt>
      <trkpt lat="52.273095" lon="10.519239">
        <time>2026-09-20T09:16:27.280000Z</time>
      </trkpt>
      <trkpt lat="52.273033" lon="10.519078">
        <time>2026-09-20T09:16:27.380000Z</time>
      </trkpt>
      <trkpt lat="52.273" lon="10.518934">
        <time>2026-09-20T09:16:27.380000Z</time>
      </trkpt>
      <trkpt lat="52.272991" lon="10.518784">
        <time>2026-09-20T09:16:27.480000Z</time>
      </trkpt>
      <trkpt lat="52.27303" lon="10.518296">
        <time>2026-09-20T09:16:27.580000Z</time>
      </trkpt>
      <trkpt lat="52.273103" lon="10.517769">
        <time>2026-09-20T09:16:27.680000Z</time>
      </trkpt>
      <trkpt lat="52.273128" lon="10.517664">
        <time>2026-09-20T09:16:27.780000Z</time>
      </trkpt>
      <trkpt lat="52.273147" lon="10.517138">
        <time>2026-09-20T09:16:27.880000Z</time>
      </trkpt>
      <trkpt lat="52.273171" lon="10.516599">
        <time>2026-09-20T09:16:28.080000Z</time>
      </trkpt>
      <trkpt lat="52.273232" lon="10.516137">
        <time>2026-09-20T09:16:28.180000Z</time>
      </trkpt>
      <trkpt lat="52.273226" lon="10.515877">
        <time>2026-09-20T09:16:28.280000Z</time>
      </trkpt>
      <trkpt lat="52.273129" lon="10.515717">
        <time>2026-09-20T09:16:28.280000Z</time>
      </trkpt>
      <trkpt lat="52.273139" lon="10.51563">
        <time>2026-09-20T09:16:28.380000Z</time>
      </trkpt>
      <trkpt lat="52.273168" lon="10.515562">
        <time>2026-09-20T09:16:28.380000Z</time>
      </trkpt>
      <trkpt lat="52.273231" lon="10.515173">
        <time>2026-09-20T09:16:28.480000Z</time>
      </trkpt>
      <trkpt lat="52.273338" lon="10.514768">
        <time>2026-09-20T09:16:28.580000Z</time>
      </trkpt>
      <trkpt lat="52.273457" lon="10.514498">
        <time>2026-09-20T09:16:28.680000Z</time>
      </trkpt>
      <trkpt lat="52.273623" lon="10.514239">
        <time>2026-09-20T09:16:28.780000Z</time>
      </trkpt>
      <trkpt lat="52.27381" lon="10.514072">
        <time>2026-09-20T09:16:28.880000Z</time>
      </trkpt>
      <trkpt lat="52.273878" lon="10.514036">
        <time>2026-09-20T09:16:28.880000Z</time>
      </trkpt>
      <trkpt lat="52.27394451888218" lon="10.51402754407392">
        <time>2026-09-20T09:16:28.980000Z</time>
      </trkpt>
      <trkpt lat="52.273975" lon="10.513937">
        <time>2026-09-20T09:16:28.980000Z</time>
      </trkpt>
      <trkpt lat="52.274097" lon="10.513845">
        <time>2026-09-20T09:16:29.080000Z</time>
      </trkpt>
      <trkpt lat="52.274415" lon="10.51374">
        <time>2026-09-20T09:16:29.180000Z</time>
      </trkpt>
      <trkpt lat="52.274475" lon="10.513746">
        <time>2026-09-20T09:16:29.180000Z</time>
      </trkpt>
      <trkpt lat="52.274632" lon="10.513863">
        <time>2026-09-20T09:16:29.280000Z</time>
      </trkpt>
      <trkpt lat="52.274968" lon="10.513702">
        <time>2026-09-20T09:16:29.480000Z</time>
      </trkpt>
      <trkpt lat="52.275253" lon="10.513557">
        <time>2026-09-20T09:16:29.580000Z</time>
      </trkpt>
      <trkpt lat="52.27554" lon="10.513389">
        <time>2026-09-20T09:16:29.680000Z</time>
      </trkpt>
      <trkpt lat="52.275652" lon="10.513317">
        <time>2026-09-20T09:16:29.780000Z</time>
      </trkpt>
      <trkpt lat="52.275963" lon="10.513263">
        <time>2026-09-20T09:16:29.880000Z</time>
      </trkpt>
      <trkpt lat="52.276271" lon="10.513227">
        <time>2026-09-20T09:16:30.080000Z</time>
      </trkpt>
      <trkpt lat="52.276577" lon="10.513217">
        <time>2026-09-20T09:16:30.180000Z</time>
      </trkpt>
      <trkpt lat="52.276851" lon="10.513222">
        <time>2026-09-20T09:16:30.280000Z</time>
      </trkpt>
      <trkpt lat="52.277181" lon="10.513214">
        <time>2026-09-20T09:16:30.480000Z</time>
      </trkpt>
      <trkpt lat="52.27737" lon="10.513155">
        <time>2026-09-20T09:16:30.580000Z</time>
      </trkpt>
      <trkpt lat="52.277619" lon="10.513178">
        <time>2026-09-20T09:16:30.680000Z</time>
      </trkpt>
      <trkpt lat="52.277744" lon="10.513158">
        <time>2026-09-20T09:16:30.780000Z</time>
      </trkpt>
      <trkpt lat="52.278023" lon="10.513181">
        <time>2026-09-20T09:16:30.880000Z</time>
      </trkpt>
      <trkpt lat="52.278221" lon="10.513152">
        <time>2026-09-20T09:16:30.980000Z</time>
      </trkpt>
      <trkpt lat="52.278555" lon="10.513208">
        <time>2026-09-20T09:16:31.080000Z</time>
      </trkpt>
      <trkpt lat="52.278852" lon="10.513155">
        <time>2026-09-20T09:16:31.180000Z</time>
      </trkpt>
      <trkpt lat="52.278919" lon="10.513125">
        <time>2026-09-20T09:16:31.280000Z</time>
      </trkpt>
      <trkpt lat="52.279247" lon="10.513126">
        <time>2026-09-20T09:16:31.380000Z</time>
      </trkpt>
      <trkpt lat="52.279539" lon="10.513131">
        <time>2026-09-20T09:16:31.580000Z</time>
      </trkpt>
      <trkpt lat="52.279862" lon="10.513126">
        <time>2026-09-20T09:16:31.680000Z</time>
      </trkpt>
      <trkpt lat="52.280056" lon="10.51313">
        <time>2026-09-20T09:16:31.780000Z</time>
      </trkpt>
      <trkpt lat="52.280326" lon="10.513128">
        <time>2026-09-20T09:16:31.880000Z</time>
      </trkpt>
      <trkpt lat="52.280651" lon="10.513128">
        <time>2026-09-20T09:16:32.080000Z</time>
      </trkpt>
      <trkpt lat="52.280955" lon="10.513121">
        <time>2026-09-20T09:16:32.180000Z</time>
      </trkpt>
      <trkpt lat="52.281259" lon="10.513126">
        <time>2026-09-20T09:16:32.380000Z</time>
      </trkpt>
      <trkpt lat="52.281564" lon="10.513149">
        <time>2026-09-20T09:16:32.480000Z</time>
      </trkpt>
      <trkpt lat="52.28162397787115" lon="10.513152116532655">
        <time>2026-09-20T09:16:32.580000Z</time>
      </trkpt>
      <trkpt lat="52.28191" lon="10.513102">
        <time>2026-09-20T09:16:32.680000Z</time>
      </trkpt>
      <trkpt lat="52.282225" lon="10.5131">
        <time>2026-09-20T09:16:32.780000Z</time>
      </trkpt>
      <trkpt lat="52.282503" lon="10.513103">
        <time>2026-09-20T09:16:32.980000Z</time>
      </trkpt>
      <trkpt lat="52.282823" lon="10.513105">
        <time>2026-09-20T09:16:33.080000Z</time>
      </trkpt>
      <trkpt lat="52.28311" lon="10.51309">
        <time>2026-09-20T09:16:33.280000Z</time>
      </trkpt>
      <trkpt lat="52.283442" lon="10.513082">
        <time>2026-09-20T09:16:33.380000Z</time>
      </trkpt>
      <trkpt lat="52.283717" lon="10.513084">
        <time>2026-09-20T09:16:33.480000Z</time>
      </trkpt>
      <trkpt lat="52.28404" lon="10.513077">
        <time>2026-09-20T09:16:33.680000Z</time>
      </trkpt>
      <trkpt lat="52.284321" lon="10.513059">
        <time>2026-09-20T09:30:40.180000Z</time>
      </trkpt>
      <trkpt lat="52.284615" lon="10.513066">
        <time>2026-09-20T09:16:33.880000Z</time>
      </trkpt>
      <trkpt lat="52.284908" lon="10.513054">
        <time>2026-09-20T09:16:33.980000Z</time>
      </trkpt>
      <trkpt lat="52.28524" lon="10.513065">
        <time>2026-09-20T09:16:34.180000Z</time>
      </trkpt>
      <trkpt lat="52.285571" lon="10.513051">
        <time>2026-09-20T09:16:34.380000Z</time>
      </trkpt>
      <trkpt lat="52.285922" lon="10.513035">
        <time>2026-09-20T09:16:34.580000Z</time>
      </trkpt>
      <trkpt lat="52.286209" lon="10.513042">
        <time>2026-09-20T09:16:34.680000Z</time>
      </trkpt>
      <trkpt lat="52.286539" lon="10.513021">
        <time>2026-09-20T09:16:34.780000Z</time>
      </trkpt>
      <trkpt lat="52.286889" lon="10.513025">
        <time>2026-09-20T09:16:34.980000Z</time>
      </trkpt>
      <trkpt lat="52.287145" lon="10.513097">
        <time>2026-09-20T09:16:35.180000Z</time>
      </trkpt>
      <trkpt lat="52.287416" lon="10.513098">
        <time>2026-09-20T09:16:35.280000Z</time>
      </trkpt>
      <trkpt lat="52.287698" lon="10.513109">
        <time>2026-09-20T09:16:35.380000Z</time>
      </trkpt>
      <trkpt lat="52.287903" lon="10.513106">
        <time>2026-09-20T09:16:35.480000Z</time>
      </trkpt>
      <trkpt lat="52.288192" lon="10.513169">
        <time>2026-09-20T09:16:35.580000Z</time>
      </trkpt>
      <trkpt lat="52.288484" lon="10.513178">
        <time>2026-09-20T09:16:35.680000Z</time>
      </trkpt>
      <trkpt lat="52.288698" lon="10.513136">
        <time>2026-09-20T09:16:35.780000Z</time>
      </trkpt>
      <trkpt lat="52.288886" lon="10.512942">
        <time>2026-09-20T09:16:35.880000Z</time>
      </trkpt>
      <trkpt lat="52.28896" lon="10.512741">
        <time>2026-09-20T09:16:35.980000Z</time>
      </trkpt>
      <trkpt lat="52.289034" lon="10.512205">
        <time>2026-09-20T09:16:36.080000Z</time>
      </trkpt>
      <trkpt lat="52.289066" lon="10.511756">
        <time>2026-09-20T09:16:36.180000Z</time>
      </trkpt>
      <trkpt lat="52.289069" lon="10.511249">
        <time>2026-09-20T09:16:36.380000Z</time>
      </trkpt>
      <trkpt lat="52.289063" lon="10.511044">
        <time>2026-09-20T09:16:36.380000Z</time>
      </trkpt>
      <trkpt lat="52.289128" lon="10.510792">
        <time>2026-09-20T09:16:36.480000Z</time>
      </trkpt>
      <trkpt lat="52.289135" lon="10.510578">
        <time>2026-09-20T09:16:36.580000Z</time>
      </trkpt>
      <trkpt lat="52.2891" lon="10.510054">
        <time>2026-09-20T09:16:36.680000Z</time>
      </trkpt>
      <trkpt lat="52.28908" lon="10.509611">
        <time>2026-09-20T09:16:36.880000Z</time>
      </trkpt>
      <trkpt lat="52.28906" lon="10.509136">
        <time>2026-09-20T09:16:36.980000Z</time>
      </trkpt>
      <trkpt lat="52.289071" lon="10.509027">
        <time>2026-09-20T09:16:36.980000Z</time>
      </trkpt>
      <trkpt lat="52.289074" lon="10.508601">
        <time>2026-09-20T09:16:37.080000Z</time>
      </trkpt>
      <trkpt lat="52.28915" lon="10.508097">
        <time>2026-09-20T09:16:37.280000Z</time>
      </trkpt>
      <trkpt lat="52.289231" lon="10.507598">
        <time>2026-09-20T09:16:37.380000Z</time>
      </trkpt>
      <trkpt lat="52.289308" lon="10.507098">
        <time>2026-09-20T09:16:37.580000Z</time>
      </trkpt>
      <trkpt lat="52.289398" lon="10.506599">
        <time>2026-09-20T09:16:37.680000Z</time>
      </trkpt>
      <trkpt lat="52.289518" lon="10.506127">
        <time>2026-09-20T09:16:37.880000Z</time>
      </trkpt>
      <trkpt lat="52.289648" lon="10.505645">
        <time>2026-09-20T09:16:37.980000Z</time>
      </trkpt>
      <trkpt lat="52.289746" lon="10.505386">
        <time>2026-09-20T09:16:38.080000Z</time>
      </trkpt>
      <trkpt lat="52.28984" lon="10.505261">
        <time>2026-09-20T09:16:38.180000Z</time>
      </trkpt>
      <trkpt lat="52.290124" lon="10.505083">
        <time>2026-09-20T09:16:38.280000Z</time>
      </trkpt>
      <trkpt lat="52.290329" lon="10.50485">
        <time>2026-09-20T09:16:38.480000Z</time>
      </trkpt>
      <trkpt lat="52.290527" lon="10.504479">
        <time>2026-09-20T09:16:38.580000Z</time>
      </trkpt>
      <trkpt lat="52.290642" lon="10.50425">
        <time>2026-09-20T09:16:38.680000Z</time>
      </trkpt>
      <trkpt lat="52.290663" lon="10.504026">
        <time>2026-09-20T09:16:38.780000Z</time>
      </trkpt>
      <trkpt lat="52.290639" lon="10.503669">
        <time>2026-09-20T09:16:38.780000Z</time>
      </trkpt>
      <trkpt lat="52.290618" lon="10.503563">
        <time>2026-09-20T09:16:38.880000Z</time>
      </trkpt>
      <trkpt lat="52.29049" lon="10.50333">
        <time>2026-09-20T09:16:38.980000Z</time>
      </trkpt>
      <trkpt lat="52.290223" lon="10.503044">
        <time>2026-09-20T09:16:39.080000Z</time>
      </trkpt>
      <trkpt lat="52.289945" lon="10.502775">
        <time>2026-09-20T09:16:39.280000Z</time>
      </trkpt>
      <trkpt lat="52.289731" lon="10.502514">
        <time>2026-09-20T09:16:39.380000Z</time>
      </trkpt>
      <trkpt lat="52.289656" lon="10.502537">
        <time>2026-09-20T09:16:39.380000Z</time>
      </trkpt>
      <trkpt lat="52.289519" lon="10.502668">
        <time>2026-09-20T09:16:39.480000Z</time>
      </trkpt>
      <trkpt lat="52.289241" lon="10.502723">
        <time>2026-09-20T09:16:39.580000Z</time>
      </trkpt>
      <trkpt lat="52.289171" lon="10.502669">
        <time>2026-09-20T09:16:39.580000Z</time>
      </trkpt>
      <trkpt lat="52.289126" lon="10.502575">
        <time>2026-09-20T09:16:39.680000Z</time>
      </trkpt>
      <trkpt lat="52.289038" lon="10.502266">
        <time>2026-09-20T09:16:39.680000Z</time>
      </trkpt>
      <trkpt lat="52.288986" lon="10.502203">
        <time>2026-09-20T09:16:39.780000Z</time>
      </trkpt>
      <trkpt lat="52.288825" lon="10.501753">
        <time>2026-09-20T09:16:39.880000Z</time>
      </trkpt>
      <trkpt lat="52.288661" lon="10.501423">
        <time>2026-09-20T09:16:39.980000Z</time>
      </trkpt>
      <trkpt lat="52.288521" lon="10.501224">
        <time>2026-09-20T09:16:40.080000Z</time>
      </trkpt>
      <trkpt lat="52.288258" lon="10.501046">
        <time>2026-09-20T09:16:40.280000Z</time>
      </trkpt>
      <trkpt lat="52.287992" lon="10.500959">
        <time>2026-09-20T09:16:40.380000Z</time>
      </trkpt>
      <trkpt lat="52.287922" lon="10.500936">
        <time>2026-09-20T09:16:40.380000Z</time>
      </trkpt>
      <trkpt lat="52.287802" lon="10.500987">
        <time>2026-09-20T09:16:40.480000Z</time>
      </trkpt>
      <trkpt lat="52.287567" lon="10.501291">
        <time>2026-09-20T09:16:40.580000Z</time>
      </trkpt>
      <trkpt lat="52.287381" lon="10.501617">
        <time>2026-09-20T09:16:40.680000Z</time>
      </trkpt>
      <trkpt lat="52.287223" lon="10.502024">
        <time>2026-09-20T09:16:40.880000Z</time>
      </trkpt>
      <trkpt lat="52.287106" lon="10.502424">
        <time>2026-09-20T09:16:40.980000Z</time>
      </trkpt>
      <trkpt lat="52.287018" lon="10.502855">
        <time>2026-09-20T09:16:41.080000Z</time>
      </trkpt>
      <trkpt lat="52.286933" lon="10.503394">
        <time>2026-09-20T09:16:41.180000Z</time>
      </trkpt>
      <trkpt lat="52.286816" lon="10.503836">
        <time>2026-09-20T09:16:41.380000Z</time>
      </trkpt>
      <trkpt lat="52.286712" lon="10.504263">
        <time>2026-09-20T09:16:41.480000Z</time>
      </trkpt>
      <trkpt lat="52.286647" lon="10.504644">
        <time>2026-09-20T09:16:41.580000Z</time>
      </trkpt>
      <trkpt lat="52.286708" lon="10.505215">
        <time>2026-09-20T09:16:41.780000Z</time>
      </trkpt>
      <trkpt lat="52.286765" lon="10.505766">
        <time>2026-09-20T09:16:41.880000Z</time>
      </trkpt>
      <trkpt lat="52.286776" lon="10.506243">
        <time>2026-09-20T09:16:41.980000Z</time>
      </trkpt>
      <trkpt lat="52.286785" lon="10.506712">
        <time>2026-09-20T09:16:42.080000Z</time>
      </trkpt>
      <trkpt lat="52.28676" lon="10.507155">
        <time>2026-09-20T09:16:42.280000Z</time>
      </trkpt>
      <trkpt lat="52.286758" lon="10.507564">
        <time>2026-09-20T09:16:42.380000Z</time>
      </trkpt>
      <trkpt lat="52.28663" lon="10.507987">
        <time>2026-09-20T09:16:42.480000Z</time>
      </trkpt>
      <trkpt lat="52.286524" lon="10.508348">
        <time>2026-09-20T09:16:42.580000Z</time>
      </trkpt>
      <trkpt lat="52.286488" lon="10.508809">
        <time>2026-09-20T09:16:42.680000Z</time>
      </trkpt>
      <trkpt lat="52.286503" lon="10.509261">
        <time>2026-09-20T09:16:42.880000Z</time>
      </trkpt>
      <trkpt lat="52.28654" lon="10.509699">
        <time>2026-09-20T09:16:42.980000Z</time>
      </trkpt>
      <trkpt lat="52.286573" lon="10.510246">
        <time>2026-09-20T09:16:43.080000Z</time>
      </trkpt>
      <trkpt lat="52.286607" lon="10.510461">
        <time>2026-09-20T09:16:43.180000Z</time>
      </trkpt>
      <trkpt lat="52.286608" lon="10.510573">
        <time>2026-09-20T09:16:43.180000Z</time>
      </trkpt>
      <trkpt lat="52.286717" lon="10.511016">
        <time>2026-09-20T09:16:43.380000Z</time>
      </trkpt>
      <trkpt lat="52.28687" lon="10.511474">
        <time>2026-09-20T09:16:43.480000Z</time>
      </trkpt>
      <trkpt lat="52.287059" lon="10.511905">
        <time>2026-09-20T09:16:43.580000Z</time>
      </trkpt>
      <trkpt lat="52.287253" lon="10.51228">
        <time>2026-09-20T09:16:43.780000Z</time>
      </trkpt>
      <trkpt lat="52.287494" lon="10.512568">
        <time>2026-09-20T09:16:43.880000Z</time>
      </trkpt>
      <trkpt lat="52.287785" lon="10.512816">
        <time>2026-09-20T09:16:43.980000Z</time>
      </trkpt>
      <trkpt lat="52.288033" lon="10.512908">
        <time>2026-09-20T09:16:44.180000Z</time>
      </trkpt>
      <trkpt lat="52.288209" lon="10.51293">
        <time>2026-09-20T09:16:44.180000Z</time>
      </trkpt>
      <trkpt lat="52.288479" lon="10.513058">
        <time>2026-09-20T09:16:44.380000Z</time>
      </trkpt>
      <trkpt lat="52.288698" lon="10.51314">
        <time>2026-09-20T09:16:44.480000Z</time>
      </trkpt>
      <trkpt lat="52.288774" lon="10.513091">
        <time>2026-09-20T09:16:44.480000Z</time>
      </trkpt>
      <trkpt lat="52.288884" lon="10.512949">
        <time>2026-09-20T09:16:44.580000Z</time>
      </trkpt>
      <trkpt lat="52.288993" lon="10.512675">
        <time>2026-09-20T09:16:44.680000Z</time>
      </trkpt>
      <trkpt lat="52.289063" lon="10.512282">
        <time>2026-09-20T09:16:44.780000Z</time>
      </trkpt>
      <trkpt lat="52.289095" lon="10.511815">
        <time>2026-09-20T09:16:44.880000Z</time>
      </trkpt>
      <trkpt lat="52.2891" lon="10.511316">
        <time>2026-09-20T09:16:45.080000Z</time>
      </trkpt>
      <trkpt lat="52.289098" lon="10.511006">
        <time>2026-09-20T09:16:45.080000Z</time>
      </trkpt>
      <trkpt lat="52.289139" lon="10.510712">
        <time>2026-09-20T09:16:45.180000Z</time>
      </trkpt>
      <trkpt lat="52.289114" lon="10.5102">
        <time>2026-09-20T09:16:45.380000Z</time>
      </trkpt>
      <trkpt lat="52.289084" lon="10.50971">
        <time>2026-09-20T09:16:45.480000Z</time>
      </trkpt>
      <trkpt lat="52.289072" lon="10.509226">
        <time>2026-09-20T09:16:45.680000Z</time>
      </trkpt>
      <trkpt lat="52.289056" lon="10.508738">
        <time>2026-09-20T09:16:45.780000Z</time>
      </trkpt>
      <trkpt lat="52.289129" lon="10.50823">
        <time>2026-09-20T09:16:45.980000Z</time>
      </trkpt>
      <trkpt lat="52.289209" lon="10.507735">
        <time>2026-09-20T09:16:46.080000Z</time>
      </trkpt>
      <trkpt lat="52.289285" lon="10.507242">
        <time>2026-09-20T09:16:46.280000Z</time>
      </trkpt>
      <trkpt lat="52.289357" lon="10.506782">
        <time>2026-09-20T09:51:43.880000Z</time>
      </trkpt>
      <trkpt lat="52.289463" lon="10.506316">
        <time>2026-09-20T09:51:58.880000Z</time>
      </trkpt>
      <trkpt lat="52.28959" lon="10.505877">
        <time>2026-09-20T09:52:13.980000Z</time>
      </trkpt>
      <trkpt lat="52.28973" lon="10.505435">
        <time>2026-09-20T09:52:28.980000Z</time>
      </trkpt>
      <trkpt lat="52.28982" lon="10.505294">
        <time>2026-09-20T09:52:34.980000Z</time>
      </trkpt>
      <trkpt lat="52.290129" lon="10.505079">
        <time>2026-09-20T09:52:49.980000Z</time>
      </trkpt>
      <trkpt lat="52.290248" lon="10.504977">
        <time>2026-09-20T09:52:55.980000Z</time>
      </trkpt>
      <trkpt lat="52.290443" lon="10.504666">
        <time>2026-09-20T09:53:07.980000Z</time>
      </trkpt>
      <trkpt lat="52.290617" lon="10.504312">
        <time>2026-09-20T09:53:19.980000Z</time>
      </trkpt>
      <trkpt lat="52.290664" lon="10.504115">
        <time>2026-09-20T09:53:25.980000Z</time>
      </trkpt>
      <trkpt lat="52.290642" lon="10.503667">
        <time>2026-09-20T09:53:37.980000Z</time>
      </trkpt>
      <trkpt lat="52.290474" lon="10.503302">
        <time>2026-09-20T09:53:49.980000Z</time>
      </trkpt>
      <trkpt lat="52.290191" lon="10.503012">
        <time>2026-09-20T09:54:04.980000Z</time>
      </trkpt>
      <trkpt lat="52.289918" lon="10.502746">
        <time>2026-09-20T09:54:19.980000Z</time>
      </trkpt>
      <trkpt lat="52.289758" lon="10.502548">
        <time>2026-09-20T09:54:29.080000Z</time>
      </trkpt>
      <trkpt lat="52.289691" lon="10.502519">
        <time>2026-09-20T09:54:32.080000Z</time>
      </trkpt>
      <trkpt lat="52.289401" lon="10.502672">
        <time>2026-09-20T09:54:47.080000Z</time>
      </trkpt>
      <trkpt lat="52.289266" lon="10.502678">
        <time>2026-09-20T09:54:53.080000Z</time>
      </trkpt>
      <trkpt lat="52.289201" lon="10.502645">
        <time>2026-09-20T09:54:56.080000Z</time>
      </trkpt>
      <trkpt lat="52.289104" lon="10.502485">
        <time>2026-09-20T09:55:02.080000Z</time>
      </trkpt>
      <trkpt lat="52.288942" lon="10.502053">
        <time>2026-09-20T09:55:17.080000Z</time>
      </trkpt>
      <trkpt lat="52.288825" lon="10.501716">
        <time>2026-09-20T09:55:26.080000Z</time>
      </trkpt>
      <trkpt lat="52.288629" lon="10.501371">
        <time>2026-09-20T09:55:38.080000Z</time>
      </trkpt>
      <trkpt lat="52.288395" lon="10.501107">
        <time>2026-09-20T09:55:53.080000Z</time>
      </trkpt>
      <trkpt lat="52.288106" lon="10.500987">
        <time>2026-09-20T09:56:08.080000Z</time>
      </trkpt>
      <trkpt lat="52.287955" lon="10.500934">
        <time>2026-09-20T09:56:14.080000Z</time>
      </trkpt>
      <trkpt lat="52.287817" lon="10.500961">
        <time>2026-09-20T09:56:20.080000Z</time>
      </trkpt>
      <trkpt lat="52.287573" lon="10.501267">
        <time>2026-09-20T09:56:35.180000Z</time>
      </trkpt>
      <trkpt lat="52.287495" lon="10.501399">
        <time>2026-09-20T09:56:41.180000Z</time>
      </trkpt>
      <trkpt lat="52.287326" lon="10.501791">
        <time>2026-09-20T09:56:56.180000Z</time>
      </trkpt>
      <trkpt lat="52.28719" lon="10.502176">
        <time>2026-09-20T09:57:08.180000Z</time>
      </trkpt>
      <trkpt lat="52.287086" lon="10.502612">
        <time>2026-09-20T09:57:20.180000Z</time>
      </trkpt>
      <trkpt lat="52.286986" lon="10.50307">
        <time>2026-09-20T09:57:35.180000Z</time>
      </trkpt>
      <trkpt lat="52.286889" lon="10.503555">
        <time>2026-09-20T09:57:50.180000Z</time>
      </trkpt>
      <trkpt lat="52.286782" lon="10.504051">
        <time>2026-09-20T09:58:05.180000Z</time>
      </trkpt>
      <trkpt lat="52.286689" lon="10.504552">
        <time>2026-09-20T09:58:20.180000Z</time>
      </trkpt>
      <trkpt lat="52.286675" lon="10.505069">
        <time>2026-09-20T09:58:32.180000Z</time>
      </trkpt>
      <trkpt lat="52.286696" lon="10.505575">
        <time>2026-09-20T09:58:47.180000Z</time>
      </trkpt>
      <trkpt lat="52.286716" lon="10.506105">
        <time>2026-09-20T09:59:02.180000Z</time>
      </trkpt>
      <trkpt lat="52.28673" lon="10.506564">
        <time>2026-09-20T09:59:14.180000Z</time>
      </trkpt>
      <trkpt lat="52.28672" lon="10.507064">
        <time>2026-09-20T09:59:26.280000Z</time>
      </trkpt>
      <trkpt lat="52.286714" lon="10.507544">
        <time>2026-09-20T09:59:38.280000Z</time>
      </trkpt>
      <trkpt lat="52.2867" lon="10.507668">
        <time>2026-09-20T09:59:41.280000Z</time>
      </trkpt>
      <trkpt lat="52.286577" lon="10.508131">
        <time>2026-09-20T09:59:53.280000Z</time>
      </trkpt>
      <trkpt lat="52.286519" lon="10.508364">
        <time>2026-09-20T09:59:59.280000Z</time>
      </trkpt>
      <trkpt lat="52.286474" lon="10.508849">
        <time>2026-09-20T10:00:11.280000Z</time>
      </trkpt>
      <trkpt lat="52.286513" lon="10.509354">
        <time>2026-09-20T10:00:23.280000Z</time>
      </trkpt>
      <trkpt lat="52.286565" lon="10.509897">
        <time>2026-09-20T10:00:38.280000Z</time>
      </trkpt>
      <trkpt lat="52.286588" lon="10.510428">
        <time>2026-09-20T10:00:53.280000Z</time>
      </trkpt>
      <trkpt lat="52.286606" lon="10.510652">
        <time>2026-09-20T10:00:59.280000Z</time>
      </trkpt>
      <trkpt lat="52.286481" lon="10.511151">
        <time>2026-09-20T10:01:20.280000Z</time>
      </trkpt>
      <trkpt lat="52.286346" lon="10.511663">
        <time>2026-09-20T10:01:35.280000Z</time>
      </trkpt>
      <trkpt lat="52.286269" lon="10.511906">
        <time>2026-09-20T10:01:41.280000Z</time>
      </trkpt>
      <trkpt lat="52.286071" lon="10.512261">
        <time>2026-09-20T10:01:56.380000Z</time>
      </trkpt>
      <trkpt lat="52.285847" lon="10.512631">
        <time>2026-09-20T10:02:11.380000Z</time>
      </trkpt>
      <trkpt lat="52.285641" lon="10.512932">
        <time>2026-09-20T10:02:20.380000Z</time>
      </trkpt>
      <trkpt lat="52.28557" lon="10.512977">
        <time>2026-09-20T10:02:23.380000Z</time>
      </trkpt>
      <trkpt lat="52.285296" lon="10.512998">
        <time>2026-09-20T10:02:35.380000Z</time>
      </trkpt>
      <trkpt lat="52.285016" lon="10.513003">
        <time>2026-09-20T10:02:47.380000Z</time>
      </trkpt>
      <trkpt lat="52.284727" lon="10.513018">
        <time>2026-09-20T10:02:59.380000Z</time>
      </trkpt>
      <trkpt lat="52.284444" lon="10.513033">
        <time>2026-09-20T10:03:11.380000Z</time>
      </trkpt>
      <trkpt lat="52.284114" lon="10.513045">
        <time>2026-09-20T10:03:26.380000Z</time>
      </trkpt>
      <trkpt lat="52.283808" lon="10.513046">
        <time>2026-09-20T10:03:41.380000Z</time>
      </trkpt>
      <trkpt lat="52.283496" lon="10.513053">
        <time>2026-09-20T10:03:56.480000Z</time>
      </trkpt>
      <trkpt lat="52.283195" lon="10.513061">
        <time>2026-09-20T10:04:11.480000Z</time>
      </trkpt>
      <trkpt lat="52.282895" lon="10.513059">
        <time>2026-09-20T10:04:26.480000Z</time>
      </trkpt>
      <trkpt lat="52.282595" lon="10.513078">
        <time>2026-09-20T10:04:41.480000Z</time>
      </trkpt>
      <trkpt lat="52.28232" lon="10.513092">
        <time>2026-09-20T10:04:53.480000Z</time>
      </trkpt>
      <trkpt lat="52.282005" lon="10.513084">
        <time>2026-09-20T10:05:08.480000Z</time>
      </trkpt>
      <trkpt lat="52.281813" lon="10.5131">
        <time>2026-09-20T10:05:17.480000Z</time>
      </trkpt>
      <trkpt lat="52.281494" lon="10.513084">
        <time>2026-09-20T10:05:32.580000Z</time>
      </trkpt>
      <trkpt lat="52.281217" lon="10.513132">
        <time>2026-09-20T10:05:44.580000Z</time>
      </trkpt>
      <trkpt lat="52.280912" lon="10.51311">
        <time>2026-09-20T10:05:59.580000Z</time>
      </trkpt>
      <trkpt lat="52.280627" lon="10.51311">
        <time>2026-09-20T10:06:14.580000Z</time>
      </trkpt>
      <trkpt lat="52.2803" lon="10.513129">
        <time>2026-09-20T10:06:29.580000Z</time>
      </trkpt>
      <trkpt lat="52.280048" lon="10.51313">
        <time>2026-09-20T10:06:44.580000Z</time>
      </trkpt>
      <trkpt lat="52.279981" lon="10.513166">
        <time>2026-09-20T10:06:47.580000Z</time>
      </trkpt>
      <trkpt lat="52.279667" lon="10.513164">
        <time>2026-09-20T10:07:02.580000Z</time>
      </trkpt>
      <trkpt lat="52.27939" lon="10.513143">
        <time>2026-09-20T10:07:17.580000Z</time>
      </trkpt>
      <trkpt lat="52.279097" lon="10.513133">
        <time>2026-09-20T10:07:32.580000Z</time>
      </trkpt>
      <trkpt lat="52.278811" lon="10.513138">
        <time>2026-09-20T10:07:47.680000Z</time>
      </trkpt>
      <trkpt lat="52.278499" lon="10.513166">
        <time>2026-09-20T10:08:02.680000Z</time>
      </trkpt>
      <trkpt lat="52.278206" lon="10.513156">
        <time>2026-09-20T10:08:17.680000Z</time>
      </trkpt>
      <trkpt lat="52.277901" lon="10.513162">
        <time>2026-09-20T10:08:32.680000Z</time>
      </trkpt>
      <trkpt lat="52.277577" lon="10.513127">
        <time>2026-09-20T10:08:50.680000Z</time>
      </trkpt>
      <trkpt lat="52.277253" lon="10.513138">
        <time>2026-09-20T10:09:05.680000Z</time>
      </trkpt>
      <trkpt lat="52.276945" lon="10.513175">
        <time>2026-09-20T10:09:20.680000Z</time>
      </trkpt>
      <trkpt lat="52.276624" lon="10.513165">
        <time>2026-09-20T10:09:35.680000Z</time>
      </trkpt>
      <trkpt lat="52.276288" lon="10.513175">
        <time>2026-09-20T10:09:50.680000Z</time>
      </trkpt>
      <trkpt lat="52.275963" lon="10.513214">
        <time>2026-09-20T10:10:05.680000Z</time>
      </trkpt>
      <trkpt lat="52.275846" lon="10.513202">
        <time>2026-09-20T10:10:11.680000Z</time>
      </trkpt>
      <trkpt lat="52.275574" lon="10.513316">
        <time>2026-09-20T10:10:23.780000Z</time>
      </trkpt>
      <trkpt lat="52.275285" lon="10.513467">
        <time>2026-09-20T10:10:35.780000Z</time>
      </trkpt>
      <trkpt lat="52.274968" lon="10.513637">
        <time>2026-09-20T10:10:47.780000Z</time>
      </trkpt>
      <trkpt lat="52.274643" lon="10.513806">
        <time>2026-09-20T10:10:59.780000Z</time>
      </trkpt>
      <trkpt lat="52.274435" lon="10.513723">
        <time>2026-09-20T10:11:08.780000Z</time>
      </trkpt>
      <trkpt lat="52.274132" lon="10.513875">
        <time>2026-09-20T10:11:20.780000Z</time>
      </trkpt>
      <trkpt lat="52.273755" lon="10.51416">
        <time>2026-09-20T10:11:32.780000Z</time>
      </trkpt>
      <trkpt lat="52.273671" lon="10.514168">
        <time>2026-09-20T10:11:41.780000Z</time>
      </trkpt>
      <trkpt lat="52.273465" lon="10.514433">
        <time>2026-09-20T10:11:53.780000Z</time>
      </trkpt>
      <trkpt lat="52.273319" lon="10.514786">
        <time>2026-09-20T10:12:05.780000Z</time>
      </trkpt>
      <trkpt lat="52.273203" lon="10.515253">
        <time>2026-09-20T10:12:20.780000Z</time>
      </trkpt>
      <trkpt lat="52.273159" lon="10.515614">
        <time>2026-09-20T10:12:32.780000Z</time>
      </trkpt>
      <trkpt lat="52.273179" lon="10.515989">
        <time>2026-09-20T10:12:44.780000Z</time>
      </trkpt>
      <trkpt lat="52.273234" lon="10.516361">
        <time>2026-09-20T10:12:56.780000Z</time>
      </trkpt>
      <trkpt lat="52.273189" lon="10.516612">
        <time>2026-09-20T10:13:02.780000Z</time>
      </trkpt>
      <trkpt lat="52.273158" lon="10.516978">
        <time>2026-09-20T10:13:11.780000Z</time>
      </trkpt>
      <trkpt lat="52.273132" lon="10.517093">
        <time>2026-09-20T10:13:14.780000Z</time>
      </trkpt>
      <trkpt lat="52.273123" lon="10.517239">
        <time>2026-09-20T10:13:17.780000Z</time>
      </trkpt>
      <trkpt lat="52.273081" lon="10.517359">
        <time>2026-09-20T10:13:20.780000Z</time>
      </trkpt>
      <trkpt lat="52.273057" lon="10.517496">
        <time>2026-09-20T10:13:23.880000Z</time>
      </trkpt>
      <trkpt lat="52.273071514924546" lon="10.51803789829932">
        <time>2026-09-20T10:13:35.880000Z</time>
      </trkpt>
      <trkpt lat="52.27301434461158" lon="10.518362212299962">
        <time>2026-09-20T10:13:41.880000Z</time>
      </trkpt>
      <trkpt lat="52.273003" lon="10.518864">
        <time>2026-09-20T10:13:53.880000Z</time>
      </trkpt>
      <trkpt lat="52.27314" lon="10.519182">
        <time>2026-09-20T10:14:02.880000Z</time>
      </trkpt>
      <trkpt lat="52.273275" lon="10.519654">
        <time>2026-09-20T10:14:17.880000Z</time>
      </trkpt>
      <trkpt lat="52.273389" lon="10.519975">
        <time>2026-09-20T10:14:26.880000Z</time>
      </trkpt>
      <trkpt lat="52.273435" lon="10.520206">
        <time>2026-09-20T10:14:32.880000Z</time>
      </trkpt>
      <trkpt lat="52.273543" lon="10.520538">
        <time>2026-09-20T10:14:41.880000Z</time>
      </trkpt>
      <trkpt lat="52.273591" lon="10.520618">
        <time>2026-09-20T10:14:44.880000Z</time>
      </trkpt>
      <trkpt lat="52.273635" lon="10.520873">
        <time>2026-09-20T10:14:50.880000Z</time>
      </trkpt>
      <trkpt lat="52.27372" lon="10.521094">
        <time>2026-09-20T10:14:56.880000Z</time>
      </trkpt>
      <trkpt lat="52.273753" lon="10.521328">
        <time>2026-09-20T10:15:02.880000Z</time>
      </trkpt>
      <trkpt lat="52.273922" lon="10.52179">
        <time>2026-09-20T10:15:14.880000Z</time>
      </trkpt>
      <trkpt lat="52.273985" lon="10.521893">
        <time>2026-09-20T10:15:17.880000Z</time>
      </trkpt>
      <trkpt lat="52.274041" lon="10.522106">
        <time>2026-09-20T10:15:23.880000Z</time>
      </trkpt>
      <trkpt lat="52.274039" lon="10.522222">
        <time>2026-09-20T10:15:26.880000Z</time>
      </trkpt>
      <trkpt lat="52.274087" lon="10.522288">
        <time>2026-09-20T10:15:29.880000Z</time>
      </trkpt>
      <trkpt lat="52.274121" lon="10.522375">
        <time>2026-09-20T10:15:32.880000Z</time>
      </trkpt>
      <trkpt lat="52.274167" lon="10.52258">
        <time>2026-09-20T10:15:38.880000Z</time>
      </trkpt>
      <trkpt lat="52.274313" lon="10.522821">
        <time>2026-09-20T10:15:47.880000Z</time>
      </trkpt>
      <trkpt lat="52.274366" lon="10.523011">
        <time>2026-09-20T10:15:53.980000Z</time>
      </trkpt>
      <trkpt lat="52.274421" lon="10.523118">
        <time>2026-09-20T10:15:59.980000Z</time>
      </trkpt>
      <trkpt lat="52.274492" lon="10.523344">
        <time>2026-09-20T10:16:05.980000Z</time>
      </trkpt>
      <trkpt lat="52.274575" lon="10.523536">
        <time>2026-09-20T10:16:11.980000Z</time>
      </trkpt>
      <trkpt lat="52.274624" lon="10.523986">
        <time>2026-09-20T10:16:23.980000Z</time>
      </trkpt>
      <trkpt lat="52.274621" lon="10.524164">
        <time>2026-09-20T10:16:29.980000Z</time>
      </trkpt>
      <trkpt lat="52.2746373242775" lon="10.524269206452024">
        <time>2026-09-20T10:16:32.980000Z</time>
      </trkpt>
      <trkpt lat="52.274591" lon="10.524315">
        <time>2026-09-20T10:16:39.080000Z</time>
      </trkpt>
      <trkpt lat="52.274532" lon="10.524322">
        <time>2026-09-20T10:16:41.980000Z</time>
      </trkpt>
    </trkseg>
  </trk>
</gpx>