<?xml version="1.0" encoding="UTF-8"?>
<gpx xmlns="http://www.topografix.com/GPX/1/1" xmlns:gpxtpx="http://www.garmin.com/xmlschemas/TrackPointExtension/v1" xmlns:xsi="http://www.w3.org/2001/XMLSchema-instance" xsi:schemaLocation="http://www.topografix.com/GPX/1/1 http://www.topografix.com/GPX/1/1/gpx.xsd" version="1.1" creator="gpx.py -- https://github.com/tkrajina/gpxpy">
  <trk>
    <name>gpx from keep</name>
    <type>Run</type>
    <trkseg>
      <trkpt lat="50.003559" lon="8.267962">
        <time>2026-09-03T16:36:53.623000Z</time>
      </trkpt>
      <trkpt lat="50.003289" lon="8.267652">
        <time>2026-09-03T16:36:53.623000Z</time>
      </trkpt>
      <trkpt lat="50.002999" lon="8.267411">
        <time>2026-09-03T16:36:53.623000Z</time>
      </trkpt>
      <trkpt lat="50.002709" lon="8.267149">
        <time>2026-09-03T16:36:53.623000Z</time>
      </trkpt>
      <trkpt lat="50.002532" lon="8.266975">
        <time>2026-09-03T16:36:53.623000Z</time>
      </trkpt>
      <trkpt lat="50.002496" lon="8.26689">
        <time>2026-09-03T16:36:53.623000Z</time>
      </trkpt>
      <trkpt lat="50.002246" lon="8.266594">
        <time>2026-09-03T16:36:53.623000Z</time>
      </trkpt>
      <trkpt lat="50.00202" lon="8.266228">
        <time>2026-09-03T16:36:53.623000Z</time>
      </trkpt>
      <trkpt lat="50.001892" lon="8.266003">
        <time>2026-09-03T16:36:53.623000Z</time>
      </trkpt>
      <trkpt lat="50.001615" lon="8.265692">
        <time>2026-09-03T16:36:53.623000Z</time>
      </trkpt>
      <trkpt lat="50.001354" lon="8.265423">
        <time>2026-09-03T16:36:53.623000Z</time>
      </trkpt>
      <trkpt lat="50.001189" lon="8.265252">
        <time>2026-09-03T16:36:53.623000Z</time>
      </trkpt>
      <trkpt lat="50.000963" lon="8.264982">
        <time>2026-09-03T16:36:53.623000Z</time>
      </trkpt>
      <trkpt lat="50.000889" lon="8.264943">
        <time>2026-09-03T16:36:53.623000Z</time>
      </trkpt>
      <trkpt lat="50.000812" lon="8.264947">
        <time>2026-09-03T16:36:53.623000Z</time>
      </trkpt>
      <trkpt lat="50.000756" lon="8.265006">
        <time>2026-09-03T16:36:53.623000Z</time>
      </trkpt>
      <trkpt lat="50.000679" lon="8.265422">
        <time>2026-09-03T16:36:53.623000Z</time>
      </trkpt>
      <trkpt lat="50.000676" lon="8.265652">
        <time>2026-09-03T16:36:53.623000Z</time>
      </trkpt>
      <trkpt lat="50.000822" lon="8.266113">
        <time>2026-09-03T16:36:53.623000Z</time>
      </trkpt>
      <trkpt lat="50.000899" lon="8.266548">
        <time>2026-09-03T16:36:53.623000Z</time>
      </trkpt>
      <trkpt lat="50.000962" lon="8.266974">
        <time>2026-09-03T16:36:53.623000Z</time>
      </trkpt>
      <trkpt lat="50.000999" lon="8.267435">
        <time>2026-09-03T16:36:53.623000Z</time>
      </trkpt>
      <trkpt lat="50.000972" lon="8.267627">
        <time>2026-09-03T16:36:53.623000Z</time>
      </trkpt>
      <trkpt lat="50.000844" lon="8.268041">
        <time>2026-09-03T16:36:53.623000Z</time>
      </trkpt>
      <trkpt lat="50.000827" lon="8.268143">
        <time>2026-09-03T16:36:53.623000Z</time>
      </trkpt>
      <trkpt lat="50.000833" lon="8.268272">
        <time>2026-09-03T16:36:53.623000Z</time>
      </trkpt>
      <trkpt lat="50.000908" lon="8.268694">
        <time>2026-09-03T16:36:53.623000Z</time>
      </trkpt>
      <trkpt lat="50.000982" lon="8.268824">
        <time>2026-09-03T16:36:53.623000Z</time>
      </trkpt>
      <trkpt lat="50.001004" lon="8.268993">
        <time>2026-09-03T16:36:53.623000Z</time>
      </trkpt>
      <trkpt lat="50.000987" lon="8.269231">
        <time>2026-09-03T16:36:53.623000Z</time>
      </trkpt>
      <trkpt lat="50.000997" lon="8.269345">
        <time>2026-09-03T16:36:53.623000Z</time>
      </trkpt>
      <trkpt lat="50.000984" lon="8.269434">
        <time>2026-09-03T16:36:53.623000Z</time>
      </trkpt>
      <trkpt lat="50.000777" lon="8.269722">
        <time>2026-09-03T16:36:53.623000Z</time>
      </trkpt>
      <trkpt lat="50.000511" lon="8.269994">
        <time>2026-09-03T16:36:53.623000Z</time>
      </trkpt>
      <trkpt lat="50.000327" lon="8.270318">
        <time>2026-09-03T16:36:53.623000Z</time>
      </trkpt>
      <trkpt lat="50.00023" lon="8.270444">
        <time>2026-09-03T16:36:53.623000Z</time>
      </trkpt>
      <trkpt lat="50.000163" lon="8.270378">
        <time>2026-09-03T16:36:53.623000Z</time>
      </trkpt>
      <trkpt lat="50.000008" lon="8.270035">
        <time>2026-09-03T16:36:53.623000Z</time>
      </trkpt>
      <trkpt lat="49.999783" lon="8.269737">
        <time>2026-09-03T16:36:53.623000Z</time>
      </trkpt>
      <trkpt lat="49.999649" lon="8.269505">
        <time>2026-09-03T16:36:53.623000Z</time>
      </trkpt>
      <trkpt lat="49.999386" lon="8.269242">
        <time>2026-09-03T16:36:53.623000Z</time>
      </trkpt>
      <trkpt lat="49.999176" lon="8.268972">
        <time>2026-09-03T16:36:53.623000Z</time>
      </trkpt>
      <trkpt lat="49.998993" lon="8.268746">
        <time>2026-09-03T16:36:53.623000Z</time>
      </trkpt>
      <trkpt lat="49.998935" lon="8.268722">
        <time>2026-09-03T16:36:53.623000Z</time>
      </trkpt>
      <trkpt lat="49.998891" lon="8.268755">
        <time>2026-09-03T16:36:53.623000Z</time>
      </trkpt>
      <trkpt lat="49.998746" lon="8.268991">
        <time>2026-09-03T16:36:53.623000Z</time>
      </trkpt>
      <trkpt lat="49.998475" lon="8.269287">
        <time>2026-09-03T16:36:53.623000Z</time>
      </trkpt>
      <trkpt lat="49.99845" lon="8.26938">
        <time>2026-09-03T16:36:53.623000Z</time>
      </trkpt>
      <trkpt lat="49.998444" lon="8.269481">
        <time>2026-09-03T16:36:53.623000Z</time>
      </trkpt>
      <trkpt lat="49.998577" lon="8.26992">
        <time>2026-09-03T16:36:53.623000Z</time>
      </trkpt>
      <trkpt lat="49.998697" lon="8.270341">
        <time>2026-09-03T16:36:53.623000Z</time>
      </trkpt>
      <trkpt lat="49.998796" lon="8.270609">
        <time>2026-09-03T16:36:53.623000Z</time>
      </trkpt>
      <trkpt lat="49.998885" lon="8.270962">
        <time>2026-09-03T16:36:53.623000Z</time>
      </trkpt>
      <trkpt lat="49.998936" lon="8.271001">
        <time>2026-09-03T16:36:53.623000Z</time>
      </trkpt>
      <trkpt lat="49.999216" lon="8.270779">
        <time>2026-09-03T16:36:53.623000Z</time>
      </trkpt>
      <trkpt lat="49.999353" lon="8.270674">
        <time>2026-09-03T16:36:53.623000Z</time>
      </trkpt>
      <trkpt lat="49.999464" lon="8.27046">
        <time>2026-09-03T16:36:53.623000Z</time>
      </trkpt>
      <trkpt lat="49.999525" lon="8.270461">
        <time>2026-09-03T16:36:53.623000Z</time>
      </trkpt>
      <trkpt lat="49.999632" lon="8.270602">
        <time>2026-09-03T16:36:53.623000Z</time>
      </trkpt>
      <trkpt lat="49.999688" lon="8.270742">
        <time>2026-09-03T16:36:53.623000Z</time>
      </trkpt>
      <trkpt lat="49.999767" lon="8.271235">
        <time>2026-09-03T16:36:53.623000Z</time>
      </trkpt>
      <trkpt lat="49.999782" lon="8.271325">
        <time>2026-09-03T16:36:53.623000Z</time>
      </trkpt>
      <trkpt lat="49.999763" lon="8.271402">
        <time>2026-09-03T16:36:53.623000Z</time>
      </trkpt>
      <trkpt lat="49.99971" lon="8.271423">
        <time>2026-09-03T16:36:53.623000Z</time>
      </trkpt>
      <trkpt lat="49.999647" lon="8.271406">
        <time>2026-09-03T16:36:53.623000Z</time>
      </trkpt>
      <trkpt lat="49.999369" lon="8.271451">
        <time>2026-09-03T16:36:53.623000Z</time>
      </trkpt>
      <trkpt lat="49.999136" lon="8.271621">
        <time>2026-09-03T16:36:53.623000Z</time>
      </trkpt>
      <trkpt lat="49.999074" lon="8.271614">
        <time>2026-09-03T16:36:53.623000Z</time>
      </trkpt>
      <trkpt lat="49.998937" lon="8.271335">
        <time>2026-09-03T16:36:53.623000Z</time>
      </trkpt>
      <trkpt lat="49.998793" lon="8.27092">
        <time>2026-09-03T16:36:53.623000Z</time>
      </trkpt>
      <trkpt lat="49.998662" lon="8.270529">
        <time>2026-09-03T16:36:53.623000Z</time>
      </trkpt>
      <trkpt lat="49.998527" lon="8.270052">
        <time>2026-09-03T16:36:53.623000Z</time>
      </trkpt>
      <trkpt lat="49.998428" lon="8.26973">
        <time>2026-09-03T16:36:53.623000Z</time>
      </trkpt>
      <trkpt lat="49.998274" lon="8.269484">
        <time>2026-09-03T16:36:53.623000Z</time>
      </trkpt>
      <trkpt lat="49.998203" lon="8.269476">
        <time>2026-09-03T16:36:53.623000Z</time>
      </trkpt>
      <trkpt lat="49.998029" lon="8.269639">
        <time>2026-09-03T16:36:53.623000Z</time>
      </trkpt>
      <trkpt lat="49.997817" lon="8.270029">
        <time>2026-09-03T16:36:53.623000Z</time>
      </trkpt>
      <trkpt lat="49.9976" lon="8.270434">
        <time>2026-09-03T16:36:53.623000Z</time>
      </trkpt>
      <trkpt lat="49.997465" lon="8.270705">
        <time>2026-09-03T16:36:53.623000Z</time>
      </trkpt>
      <trkpt lat="49.997343" lon="8.270799">
        <time>2026-09-03T16:36:53.623000Z</time>
      </trkpt>
      <trkpt lat="49.997031" lon="8.27095">
        <time>2026-09-03T16:36:53.623000Z</time>
      </trkpt>
      <trkpt lat="49.996898" lon="8.27102">
        <time>2026-09-03T16:36:53.623000Z</time>
      </trkpt>
      <trkpt lat="49.996618" lon="8.271117">
        <time>2026-09-03T16:36:53.623000Z</time>
      </trkpt>
      <trkpt lat="49.996362" lon="8.271258">
        <time>2026-09-03T16:36:53.623000Z</time>
      </trkpt>
      <trkpt lat="49.996236" lon="8.271325">
        <time>2026-09-03T16:36:53.623000Z</time>
      </trkpt>
      <trkpt lat="49.996056" lon="8.271527">
        <time>2026-09-03T16:36:53.623000Z</time>
      </trkpt>
      <trkpt lat="49.995872" lon="8.271902">
        <time>2026-09-03T16:36:53.623000Z</time>
      </trkpt>
      <trkpt lat="49.995802" lon="8.272112">
        <time>2026-09-03T16:36:53.623000Z</time>
      </trkpt>
      <trkpt lat="49.995702" lon="8.272273">
        <time>2026-09-03T16:36:53.623000Z</time>
      </trkpt>
      <trkpt lat="49.995552" lon="8.272728">
        <time>2026-09-03T16:36:53.623000Z</time>
      </trkpt>
      <trkpt lat="49.995425" lon="8.273131">
        <time>2026-09-03T16:36:53.623000Z</time>
      </trkpt>
      <trkpt lat="49.995377" lon="8.273446">
        <time>2026-09-03T16:36:53.623000Z</time>
      </trkpt>
      <trkpt lat="49.995428" lon="8.273861">
        <time>2026-09-03T16:36:53.623000Z</time>
      </trkpt>
      <trkpt lat="49.995464" lon="8.274156">
        <time>2026-09-03T16:36:53.623000Z</time>
      </trkpt>
      <trkpt lat="49.995529" lon="8.274393">
        <time>2026-09-03T16:36:53.623000Z</time>
      </trkpt>
      <trkpt lat="49.995547" lon="8.274772">
        <time>2026-09-03T16:36:53.623000Z</time>
      </trkpt>
      <trkpt lat="49.995482" lon="8.275188">
        <time>2026-09-03T16:36:53.623000Z</time>
      </trkpt>
      <trkpt lat="49.99544" lon="8.275492">
        <time>2026-09-03T16:36:53.623000Z</time>
      </trkpt>
      <trkpt lat="49.995307" lon="8.27572">
        <time>2026-09-03T16:36:53.623000Z</time>
      </trkpt>
      <trkpt lat="49.995062" lon="8.276027">
        <time>2026-09-03T16:36:53.623000Z</time>
      </trkpt>
      <trkpt lat="49.994837" lon="8.276322">
        <time>2026-09-03T16:36:53.623000Z</time>
      </trkpt>
      <trkpt lat="49.994651" lon="8.276647">
        <time>2026-09-03T16:36:53.623000Z</time>
      </trkpt>
      <trkpt lat="49.994467" lon="8.276963">
        <time>2026-09-03T16:36:53.623000Z</time>
      </trkpt>
      <trkpt lat="49.994243" lon="8.277339">
        <time>2026-09-03T16:36:53.723000Z</time>
      </trkpt>
      <trkpt lat="49.994178" lon="8.277493">
        <time>2026-09-03T16:36:53.723000Z</time>
      </trkpt>
      <trkpt lat="49.994175" lon="8.277595">
        <time>2026-09-03T16:36:53.723000Z</time>
      </trkpt>
      <trkpt lat="49.994253" lon="8.277952">
        <time>2026-09-03T16:36:53.723000Z</time>
      </trkpt>
      <trkpt lat="49.994408" lon="8.27832">
        <time>2026-09-03T16:36:53.723000Z</time>
      </trkpt>
      <trkpt lat="49.994511" lon="8.278454">
        <time>2026-09-03T16:36:53.723000Z</time>
      </trkpt>
      <trkpt lat="49.994743" lon="8.27817">
        <time>2026-09-03T16:36:53.723000Z</time>
      </trkpt>
      <trkpt lat="49.995001" lon="8.277888">
        <time>2026-09-03T16:36:53.723000Z</time>
      </trkpt>
      <trkpt lat="49.995149" lon="8.277728">
        <time>2026-09-03T16:36:53.723000Z</time>
      </trkpt>
      <trkpt lat="49.995299" lon="8.277371">
        <time>2026-09-03T16:36:53.723000Z</time>
      </trkpt>
      <trkpt lat="49.995484" lon="8.277033">
        <time>2026-09-03T16:36:53.723000Z</time>
      </trkpt>
      <trkpt lat="49.995657" lon="8.27666">
        <time>2026-09-03T16:36:53.723000Z</time>
      </trkpt>
      <trkpt lat="49.995862" lon="8.276359">
        <time>2026-09-03T16:36:53.723000Z</time>
      </trkpt>
      <trkpt lat="49.995917" lon="8.276291">
        <time>2026-09-03T16:36:53.723000Z</time>
      </trkpt>
      <trkpt lat="49.995982" lon="8.27632">
        <time>2026-09-03T16:36:53.723000Z</time>
      </trkpt>
      <trkpt lat="49.996226" lon="8.276645">
        <time>2026-09-03T16:36:53.723000Z</time>
      </trkpt>
      <trkpt lat="49.996459" lon="8.276924">
        <time>2026-09-03T16:36:53.723000Z</time>
      </trkpt>
      <trkpt lat="49.996683" lon="8.277239">
        <time>2026-09-03T16:36:53.723000Z</time>
      </trkpt>
      <trkpt lat="49.996886" lon="8.27757">
        <time>2026-09-03T16:36:53.723000Z</time>
      </trkpt>
      <trkpt lat="49.996958" lon="8.277748">
        <time>2026-09-03T16:36:53.723000Z</time>
      </trkpt>
      <trkpt lat="49.997018" lon="8.277776">
        <time>2026-09-03T16:36:53.723000Z</time>
      </trkpt>
      <trkpt lat="49.99728" lon="8.277611">
        <time>2026-09-03T16:36:53.723000Z</time>
      </trkpt>
      <trkpt lat="49.997566" lon="8.277413">
        <time>2026-09-03T16:36:53.723000Z</time>
      </trkpt>
      <trkpt lat="49.997814" lon="8.277188">
        <time>2026-09-03T16:36:53.723000Z</time>
      </trkpt>
      <trkpt lat="49.998045" lon="8.277007">
        <time>2026-09-03T16:36:53.723000Z</time>
      </trkpt>
      <trkpt lat="49.998168" lon="8.276885">
        <time>2026-09-03T16:36:53.723000Z</time>
      </trkpt>
      <trkpt lat="49.998432" lon="8.276659">
        <time>2026-09-03T16:36:53.723000Z</time>
      </trkpt>
      <trkpt lat="49.998528" lon="8.276567">
        <time>2026-09-03T16:36:53.723000Z</time>
      </trkpt>
      <trkpt lat="49.998569" lon="8.276491">
        <time>2026-09-03T16:36:53.723000Z</time>
      </trkpt>
      <trkpt lat="49.998585" lon="8.276391">
        <time>2026-09-03T16:36:53.723000Z</time>
      </trkpt>
      <trkpt lat="49.998511" lon="8.27611">
        <time>2026-09-03T16:36:53.723000Z</time>
      </trkpt>
      <trkpt lat="49.998353" lon="8.275748">
        <time>2026-09-03T16:36:53.723000Z</time>
      </trkpt>
      <trkpt lat="49.99822" lon="8.275382">
        <time>2026-09-03T16:36:53.723000Z</time>
      </trkpt>
      <trkpt lat="49.998081" lon="8.274984">
        <time>2026-09-03T16:36:53.723000Z</time>
      </trkpt>
      <trkpt lat="49.997927" lon="8.274506">
        <time>2026-09-03T16:36:53.723000Z</time>
      </trkpt>
      <trkpt lat="49.997776" lon="8.274076">
        <time>2026-09-03T16:37:06.923000Z</time>
      </trkpt>
      <trkpt lat="49.997696" lon="8.273912">
        <time>2026-09-03T16:37:07.023000Z</time>
      </trkpt>
      <trkpt lat="49.99765" lon="8.273741">
        <time>2026-09-03T16:37:07.123000Z</time>
      </trkpt>
      <trkpt lat="49.997653" lon="8.273662">
        <time>2026-09-03T16:37:07.123000Z</time>
      </trkpt>
      <trkpt lat="49.997797" lon="8.273501">
        <time>2026-09-03T16:37:07.223000Z</time>
      </trkpt>
      <trkpt lat="49.997911" lon="8.273444">
        <time>2026-09-03T16:37:07.223000Z</time>
      </trkpt>
      <trkpt lat="49.998034" lon="8.273415">
        <time>2026-09-03T16:37:07.323000Z</time>
      </trkpt>
      <trkpt lat="49.998091" lon="8.273355">
        <time>2026-09-03T16:37:07.323000Z</time>
      </trkpt>
      <trkpt lat="49.998308" lon="8.272974">
        <time>2026-09-03T16:37:07.423000Z</time>
      </trkpt>
      <trkpt lat="49.998351" lon="8.272891">
        <time>2026-09-03T16:37:07.523000Z</time>
      </trkpt>
      <trkpt lat="49.998603" lon="8.272659">
        <time>2026-09-03T16:37:07.623000Z</time>
      </trkpt>
      <trkpt lat="49.998892" lon="8.272434">
        <time>2026-09-03T16:37:07.723000Z</time>
      </trkpt>
      <trkpt lat="49.999174" lon="8.2722">
        <time>2026-09-03T16:37:07.923000Z</time>
      </trkpt>
      <trkpt lat="49.999316" lon="8.27209">
        <time>2026-09-03T16:37:07.923000Z</time>
      </trkpt>
      <trkpt lat="49.99957" lon="8.27183">
        <time>2026-09-03T16:37:08.023000Z</time>
      </trkpt>
      <trkpt lat="49.999687" lon="8.271755">
        <time>2026-09-03T16:37:08.123000Z</time>
      </trkpt>
      <trkpt lat="49.999808" lon="8.271732">
        <time>2026-09-03T16:37:08.223000Z</time>
      </trkpt>
      <trkpt lat="50.0001" lon="8.27184">
        <time>2026-09-03T16:37:08.323000Z</time>
      </trkpt>
      <trkpt lat="50.000385" lon="8.271947">
        <time>2026-09-03T16:37:08.423000Z</time>
      </trkpt>
      <trkpt lat="50.000497" lon="8.272105">
        <time>2026-09-03T16:37:08.523000Z</time>
      </trkpt>
      <trkpt lat="50.000609" lon="8.272603">
        <time>2026-09-03T16:37:08.623000Z</time>
      </trkpt>
      <trkpt lat="50.000697" lon="8.272957">
        <time>2026-09-03T16:37:08.723000Z</time>
      </trkpt>
      <trkpt lat="50.000763" lon="8.273306">
        <time>2026-09-03T16:37:08.823000Z</time>
      </trkpt>
      <trkpt lat="50.000891" lon="8.273768">
        <time>2026-09-03T16:37:08.923000Z</time>
      </trkpt>
      <trkpt lat="50.001029" lon="8.274262">
        <time>2026-09-03T16:37:09.023000Z</time>
      </trkpt>
      <trkpt lat="50.001167" lon="8.274716">
        <time>2026-09-03T16:37:09.223000Z</time>
      </trkpt>
      <trkpt lat="50.001249" lon="8.274898">
        <time>2026-09-03T16:37:09.223000Z</time>
      </trkpt>
      <trkpt lat="50.001306" lon="8.274905">
        <time>2026-09-03T16:37:09.323000Z</time>
      </trkpt>
      <trkpt lat="50.001588" lon="8.274672">
        <time>2026-09-03T16:37:09.423000Z</time>
      </trkpt>
      <trkpt lat="50.001743" lon="8.274546">
        <time>2026-09-03T16:37:09.523000Z</time>
      </trkpt>
      <trkpt lat="50.001807" lon="8.274459">
        <time>2026-09-03T16:37:09.523000Z</time>
      </trkpt>
      <trkpt lat="50.001841" lon="8.274352">
        <time>2026-09-03T16:37:09.623000Z</time>
      </trkpt>
      <trkpt lat="50.001849" lon="8.274165">
        <time>2026-09-03T16:37:09.623000Z</time>
      </trkpt>
      <trkpt lat="50.001839" lon="8.274055">
        <time>2026-09-03T16:37:09.723000Z</time>
      </trkpt>
      <trkpt lat="50.001778" lon="8.273731">
        <time>2026-09-03T16:37:09.823000Z</time>
      </trkpt>
      <trkpt lat="50.001784" lon="8.273522">
        <time>2026-09-03T16:37:09.823000Z</time>
      </trkpt>
      <trkpt lat="50.001869" lon="8.273032">
        <time>2026-09-03T16:37:10.023000Z</time>
      </trkpt>
      <trkpt lat="50.001894" lon="8.272767">
        <time>2026-09-03T16:37:10.123000Z</time>
      </trkpt>
      <trkpt lat="50.001836" lon="8.272401">
        <time>2026-09-03T16:37:10.223000Z</time>
      </trkpt>
      <trkpt lat="50.001803" lon="8.272279">
        <time>2026-09-03T16:37:10.223000Z</time>
      </trkpt>
      <trkpt lat="50.001744" lon="8.27218">
        <time>2026-09-03T16:37:10.223000Z</time>
      </trkpt>
      <trkpt lat="50.001523" lon="8.272039">
        <time>2026-09-03T16:37:10.423000Z</time>
      </trkpt>
      <trkpt lat="50.001419" lon="8.271903">
        <time>2026-09-03T16:37:10.423000Z</time>
      </trkpt>
      <trkpt lat="50.001351587446614" lon="8.271738729527359">
        <time>2026-09-03T16:37:10.523000Z</time>
      </trkpt>
      <trkpt lat="50.001384" lon="8.271616">
        <time>2026-09-03T16:37:10.523000Z</time>
      </trkpt>
      <trkpt lat="50.001518" lon="8.271406">
        <time>2026-09-03T16:37:10.623000Z</time>
      </trkpt>
      <trkpt lat="50.001645" lon="8.271286">
        <time>2026-09-03T16:37:10.723000Z</time>
      </trkpt>
      <trkpt lat="50.001863" lon="8.271129">
        <time>2026-09-03T16:37:10.823000Z</time>
      </trkpt>
      <trkpt lat="50.001991" lon="8.270979">
        <time>2026-09-03T16:37:10.823000Z</time>
      </trkpt>
      <trkpt lat="50.002282" lon="8.270659">
        <time>2026-09-03T16:37:11.023000Z</time>
      </trkpt>
      <trkpt lat="50.002567" lon="8.270458">
        <time>2026-09-03T16:37:11.123000Z</time>
      </trkpt>
      <trkpt lat="50.002764" lon="8.270363">
        <time>2026-09-03T16:37:11.223000Z</time>
      </trkpt>
      <trkpt lat="50.003045" lon="8.270061">
        <time>2026-09-03T16:37:11.323000Z</time>
      </trkpt>
      <trkpt lat="50.003262" lon="8.269811">
        <time>2026-09-03T16:37:11.423000Z</time>
      </trkpt>
      <trkpt lat="50.003404" lon="8.269619">
        <time>2026-09-03T16:37:11.423000Z</time>
      </trkpt>
      <trkpt lat="50.00364" lon="8.269381">
        <time>2026-09-03T16:37:11.523000Z</time>
      </trkpt>
      <trkpt lat="50.003842" lon="8.269069">
        <time>2026-09-03T16:37:11.623000Z</time>
      </trkpt>
      <trkpt lat="50.004037" lon="8.268793">
        <time>2026-09-03T16:37:11.723000Z</time>
      </trkpt>
      <trkpt lat="50.004126" lon="8.26876">
        <time>2026-09-03T16:37:11.723000Z</time>
      </trkpt>
      <trkpt lat="50.004218" lon="8.268835">
        <time>2026-09-03T16:37:11.823000Z</time>
      </trkpt>
      <trkpt lat="50.004452" lon="8.269098">
        <time>2026-09-03T16:37:11.923000Z</time>
      </trkpt>
      <trkpt lat="50.004708" lon="8.269287">
        <time>2026-09-03T16:37:11.923000Z</time>
      </trkpt>
      <trkpt lat="50.00493" lon="8.26962">
        <time>2026-09-03T16:37:12.023000Z</time>
      </trkpt>
      <trkpt lat="50.005059" lon="8.269858">
        <time>2026-09-03T16:37:12.123000Z</time>
      </trkpt>
      <trkpt lat="50.005132" lon="8.269955">
        <time>2026-09-03T16:37:12.123000Z</time>
      </trkpt>
      <trkpt lat="50.005192" lon="8.269994">
        <time>2026-09-03T16:37:12.223000Z</time>
      </trkpt>
      <trkpt lat="50.005282" lon="8.270109">
        <time>2026-09-03T16:37:12.323000Z</time>
      </trkpt>
      <trkpt lat="50.005386" lon="8.270192">
        <time>2026-09-03T16:37:12.423000Z</time>
      </trkpt>
      <trkpt lat="50.005418" lon="8.270249">
        <time>2026-09-03T16:37:12.523000Z</time>
      </trkpt>
      <trkpt lat="50.005361" lon="8.270476">
        <time>2026-09-03T16:37:12.623000Z</time>
      </trkpt>
      <trkpt lat="50.005316" lon="8.270452">
        <time>2026-09-03T16:37:12.723000Z</time>
      </trkpt>
      <trkpt lat="50.005298" lon="8.270517">
        <time>2026-09-03T16:37:12.823000Z</time>
      </trkpt>
      <trkpt lat="50.005305" lon="8.270596">
        <time>2026-09-03T16:37:12.923000Z</time>
      </trkpt>
      <trkpt lat="50.005227" lon="8.270754">
        <time>2026-09-03T16:37:13.023000Z</time>
      </trkpt>
      <trkpt lat="50.005185" lon="8.270802">
        <time>2026-09-03T16:37:13.123000Z</time>
      </trkpt>
      <trkpt lat="50.005163" lon="8.270875">
        <time>2026-09-03T16:37:13.223000Z</time>
      </trkpt>
      <trkpt lat="50.00517" lon="8.271">
        <time>2026-09-03T16:37:13.223000Z</time>
      </trkpt>
      <trkpt lat="50.00519" lon="8.270839">
        <time>2026-09-03T16:37:13.423000Z</time>
      </trkpt>
      <trkpt lat="50.005137" lon="8.270895">
        <time>2026-09-03T16:37:13.623000Z</time>
      </trkpt>
      <trkpt lat="50.00509" lon="8.270991">
        <time>2026-09-03T16:37:13.823000Z</time>
      </trkpt>
      <trkpt lat="50.005064" lon="8.271096">
        <time>2026-09-03T16:37:13.923000Z</time>
      </trkpt>
      <trkpt lat="50.005058" lon="8.271198">
        <time>2026-09-03T16:37:13.923000Z</time>
      </trkpt>
      <trkpt lat="50.005026" lon="8.271258">
        <time>2026-09-03T16:37:14.023000Z</time>
      </trkpt>
      <trkpt lat="50.005123" lon="8.271152">
        <time>2026-09-03T16:37:14.623000Z</time>
      </trkpt>
      <trkpt lat="50.00516" lon="8.27111">
        <time>2026-09-03T16:37:15.223000Z</time>
      </trkpt>
      <trkpt lat="50.005179" lon="8.271041">
        <time>2026-09-03T16:37:15.523000Z</time>
      </trkpt>
      <trkpt lat="50.005183" lon="8.27097">
        <time>2026-09-03T16:37:15.723000Z</time>
      </trkpt>
      <trkpt lat="50.005228" lon="8.270938">
        <time>2026-09-03T16:37:15.823000Z</time>
      </trkpt>
      <trkpt lat="50.005267" lon="8.270886">
        <time>2026-09-03T16:37:16.023000Z</time>
      </trkpt>
      <trkpt lat="50.005346" lon="8.270875">
        <time>2026-09-03T16:37:16.223000Z</time>
      </trkpt>
      <trkpt lat="50.005278" lon="8.270882">
        <time>2026-09-03T16:37:16.223000Z</time>
      </trkpt>
      <trkpt lat="50.005322" lon="8.270952">
        <time>2026-09-03T16:37:16.423000Z</time>
      </trkpt>
      <trkpt lat="50.005387" lon="8.270898">
        <time>2026-09-03T16:37:16.523000Z</time>
      </trkpt>
      <trkpt lat="50.00556" lon="8.270625">
        <time>2026-09-03T16:37:16.623000Z</time>
      </trkpt>
      <trkpt lat="50.005562" lon="8.270451">
        <time>2026-09-03T16:37:16.823000Z</time>
      </trkpt>
      <trkpt lat="50.005499" lon="8.270317">
        <time>2026-09-03T16:37:16.923000Z</time>
      </trkpt>
      <trkpt lat="50.005484" lon="8.270231">
        <time>2026-09-03T16:37:17.023000Z</time>
      </trkpt>
      <trkpt lat="50.005518" lon="8.270161">
        <time>2026-09-03T16:37:17.023000Z</time>
      </trkpt>
      <trkpt lat="50.005577" lon="8.27019">
        <time>2026-09-03T16:37:17.123000Z</time>
      </trkpt>
      <trkpt lat="50.00562" lon="8.270266">
        <time>2026-09-03T16:37:17.123000Z</time>
      </trkpt>
      <trkpt lat="50.005624" lon="8.27036">
        <time>2026-09-03T16:37:17.223000Z</time>
      </trkpt>
      <trkpt lat="50.005581" lon="8.270396">
        <time>2026-09-03T16:37:17.323000Z</time>
      </trkpt>
      <trkpt lat="50.005615" lon="8.270384">
        <time>2026-09-03T17:25:34.923000Z</time>
      </trkpt>
    </trkseg>
  </trk>
</gpx>