<?xml version="1.0" encoding="UTF-8"?>
<gpx xmlns="http://www.topografix.com/GPX/1/1" xmlns:gpxtpx="http://www.garmin.com/xmlschemas/TrackPointExtension/v1" xmlns:xsi="http://www.w3.org/2001/XMLSchema-instance" xsi:schemaLocation="http://www.topografix.com/GPX/1/1 http://www.topografix.com/GPX/1/1/gpx.xsd" version="1.1" creator="gpx.py -- https://github.com/tkrajina/gpxpy">
  <trk>
    <name>gpx from keep</name>
    <type>Run</type>
    <trkseg>
      <trkpt lat="52.269878" lon="10.523048">
        <time>2026-07-26T09:31:50.169000Z</time>
      </trkpt>
      <trkpt lat="52.269968" lon="10.523188">
        <time>2026-07-26T09:31:56.169000Z</time>
      </trkpt>
      <trkpt lat="52.270027" lon="10.523204">
        <time>2026-07-26T09:31:59.169000Z</time>
      </trkpt>
      <trkpt lat="52.270337" lon="10.523064">
        <time>2026-07-26T09:32:11.169000Z</time>
      </trkpt>
      <trkpt lat="52.270564" lon="10.522798">
        <time>2026-07-26T09:32:23.169000Z</time>
      </trkpt>
      <trkpt lat="52.270742" lon="10.522626">
        <time>2026-07-26T09:32:35.169000Z</time>
      </trkpt>
      <trkpt lat="52.27082" lon="10.52252">
        <time>2026-07-26T09:32:41.169000Z</time>
      </trkpt>
      <trkpt lat="52.270905" lon="10.522468">
        <time>2026-07-26T09:32:44.169000Z</time>
      </trkpt>
      <trkpt lat="52.271208" lon="10.522384">
        <time>2026-07-26T09:32:56.169000Z</time>
      </trkpt>
      <trkpt lat="52.271389" lon="10.522215">
        <time>2026-07-26T09:33:05.169000Z</time>
      </trkpt>
      <trkpt lat="52.271487" lon="10.522051">
        <time>2026-07-26T09:33:11.169000Z</time>
      </trkpt>
      <trkpt lat="52.27168" lon="10.522121">
        <time>2026-07-26T09:33:20.169000Z</time>
      </trkpt>
      <trkpt lat="52.271767" lon="10.522222">
        <time>2026-07-26T09:33:26.169000Z</time>
      </trkpt>
      <trkpt lat="52.271839" lon="10.522253">
        <time>2026-07-26T09:33:32.169000Z</time>
      </trkpt>
      <trkpt lat="52.272086" lon="10.522222">
        <time>2026-07-26T09:33:41.169000Z</time>
      </trkpt>
      <trkpt lat="52.272182" lon="10.522071">
        <time>2026-07-26T09:33:47.169000Z</time>
      </trkpt>
      <trkpt lat="52.272327" lon="10.521667">
        <time>2026-07-26T09:33:56.169000Z</time>
      </trkpt>
      <trkpt lat="52.272502" lon="10.521311">
        <time>2026-07-26T09:34:08.169000Z</time>
      </trkpt>
      <trkpt lat="52.27265" lon="10.520881">
        <time>2026-07-26T09:34:20.269000Z</time>
      </trkpt>
      <trkpt lat="52.27277098389187" lon="10.52049910186289">
        <time>2026-07-26T09:34:29.269000Z</time>
      </trkpt>
      <trkpt lat="52.272846" lon="10.520319">
        <time>2026-07-26T09:34:35.269000Z</time>
      </trkpt>
      <trkpt lat="52.272978" lon="10.519893">
        <time>2026-07-26T09:34:47.269000Z</time>
      </trkpt>
      <trkpt lat="52.273078" lon="10.519466">
        <time>2026-07-26T09:35:02.269000Z</time>
      </trkpt>
      <trkpt lat="52.273109944276776" lon="10.519405863154624">
        <time>2026-07-26T09:35:05.269000Z</time>
      </trkpt>
      <trkpt lat="52.2731443015974" lon="10.51918058514666">
        <time>2026-07-26T09:35:14.269000Z</time>
      </trkpt>
      <trkpt lat="52.27311908787002" lon="10.519047818323115">
        <time>2026-07-26T09:35:20.269000Z</time>
      </trkpt>
      <trkpt lat="52.273147" lon="10.518956">
        <time>2026-07-26T09:35:23.269000Z</time>
      </trkpt>
      <trkpt lat="52.273145" lon="10.518502">
        <time>2026-07-26T09:35:35.269000Z</time>
      </trkpt>
      <trkpt lat="52.27316159467484" lon="10.518265549493401">
        <time>2026-07-26T09:35:41.269000Z</time>
      </trkpt>
      <trkpt lat="52.273141" lon="10.517928">
        <time>2026-07-26T09:35:47.269000Z</time>
      </trkpt>
      <trkpt lat="52.273212" lon="10.517428">
        <time>2026-07-26T09:35:59.269000Z</time>
      </trkpt>
      <trkpt lat="52.27323" lon="10.517095">
        <time>2026-07-26T09:36:08.269000Z</time>
      </trkpt>
      <trkpt lat="52.273276" lon="10.51689">
        <time>2026-07-26T09:36:14.269000Z</time>
      </trkpt>
      <trkpt lat="52.273311" lon="10.516418">
        <time>2026-07-26T09:36:26.269000Z</time>
      </trkpt>
      <trkpt lat="52.273313" lon="10.516159">
        <time>2026-07-26T09:36:32.269000Z</time>
      </trkpt>
      <trkpt lat="52.273283" lon="10.516002">
        <time>2026-07-26T09:36:35.269000Z</time>
      </trkpt>
      <trkpt lat="52.273142" lon="10.515735">
        <time>2026-07-26T09:36:41.269000Z</time>
      </trkpt>
      <trkpt lat="52.273242" lon="10.515225">
        <time>2026-07-26T09:36:56.269000Z</time>
      </trkpt>
      <trkpt lat="52.273283" lon="10.514976">
        <time>2026-07-26T09:37:02.269000Z</time>
      </trkpt>
      <trkpt lat="52.273353" lon="10.514768">
        <time>2026-07-26T09:37:08.269000Z</time>
      </trkpt>
      <trkpt lat="52.273581" lon="10.514423">
        <time>2026-07-26T09:37:23.269000Z</time>
      </trkpt>
      <trkpt lat="52.273778" lon="10.514225">
        <time>2026-07-26T09:37:35.269000Z</time>
      </trkpt>
      <trkpt lat="52.273942" lon="10.514188">
        <time>2026-07-26T09:37:44.269000Z</time>
      </trkpt>
      <trkpt lat="52.274183" lon="10.513957">
        <time>2026-07-26T09:37:53.269000Z</time>
      </trkpt>
      <trkpt lat="52.274331" lon="10.513841">
        <time>2026-07-26T09:37:59.269000Z</time>
      </trkpt>
      <trkpt lat="52.274576" lon="10.513872">
        <time>2026-07-26T09:38:11.269000Z</time>
      </trkpt>
      <trkpt lat="52.274902" lon="10.513707">
        <time>2026-07-26T09:38:26.269000Z</time>
      </trkpt>
      <trkpt lat="52.275206" lon="10.513549">
        <time>2026-07-26T09:38:41.269000Z</time>
      </trkpt>
      <trkpt lat="52.275512" lon="10.513373">
        <time>2026-07-26T09:38:56.269000Z</time>
      </trkpt>
      <trkpt lat="52.275795" lon="10.513271">
        <time>2026-07-26T09:39:08.269000Z</time>
      </trkpt>
      <trkpt lat="52.276089" lon="10.513226">
        <time>2026-07-26T09:39:20.269000Z</time>
      </trkpt>
      <trkpt lat="52.27636" lon="10.513198">
        <time>2026-07-26T09:39:32.269000Z</time>
      </trkpt>
      <trkpt lat="52.276624" lon="10.513179">
        <time>2026-07-26T09:39:44.269000Z</time>
      </trkpt>
      <trkpt lat="52.276867" lon="10.513237">
        <time>2026-07-26T09:39:53.269000Z</time>
      </trkpt>
      <trkpt lat="52.277191" lon="10.513202">
        <time>2026-07-26T09:40:05.269000Z</time>
      </trkpt>
      <trkpt lat="52.277465" lon="10.513158">
        <time>2026-07-26T09:40:17.269000Z</time>
      </trkpt>
      <trkpt lat="52.277754" lon="10.513164">
        <time>2026-07-26T09:40:32.369000Z</time>
      </trkpt>
      <trkpt lat="52.278058" lon="10.513181">
        <time>2026-07-26T09:40:47.369000Z</time>
      </trkpt>
      <trkpt lat="52.278365" lon="10.513192">
        <time>2026-07-26T09:41:02.369000Z</time>
      </trkpt>
      <trkpt lat="52.278678" lon="10.513194">
        <time>2026-07-26T09:41:14.369000Z</time>
      </trkpt>
      <trkpt lat="52.27896" lon="10.51316">
        <time>2026-07-26T09:41:26.369000Z</time>
      </trkpt>
      <trkpt lat="52.279248" lon="10.513164">
        <time>2026-07-26T09:41:38.369000Z</time>
      </trkpt>
      <trkpt lat="52.279443" lon="10.513198">
        <time>2026-07-26T09:41:47.369000Z</time>
      </trkpt>
      <trkpt lat="52.279716" lon="10.513161">
        <time>2026-07-26T09:42:02.369000Z</time>
      </trkpt>
      <trkpt lat="52.280006" lon="10.513137">
        <time>2026-07-26T09:42:14.369000Z</time>
      </trkpt>
      <trkpt lat="52.280319" lon="10.513118">
        <time>2026-07-26T09:42:26.369000Z</time>
      </trkpt>
      <trkpt lat="52.280603" lon="10.513127">
        <time>2026-07-26T09:42:38.469000Z</time>
      </trkpt>
      <trkpt lat="52.280903" lon="10.513123">
        <time>2026-07-26T09:42:50.469000Z</time>
      </trkpt>
      <trkpt lat="52.281198" lon="10.513119">
        <time>2026-07-26T09:43:02.469000Z</time>
      </trkpt>
      <trkpt lat="52.281509" lon="10.513101">
        <time>2026-07-26T09:43:17.469000Z</time>
      </trkpt>
      <trkpt lat="52.281851" lon="10.513113">
        <time>2026-07-26T09:43:32.469000Z</time>
      </trkpt>
      <trkpt lat="52.282125" lon="10.513093">
        <time>2026-07-26T09:43:44.469000Z</time>
      </trkpt>
      <trkpt lat="52.282407" lon="10.513098">
        <time>2026-07-26T09:43:59.469000Z</time>
      </trkpt>
      <trkpt lat="52.282705" lon="10.513084">
        <time>2026-07-26T09:44:14.469000Z</time>
      </trkpt>
      <trkpt lat="52.283006" lon="10.513085">
        <time>2026-07-26T09:44:26.469000Z</time>
      </trkpt>
      <trkpt lat="52.283332" lon="10.513074">
        <time>2026-07-26T09:44:41.469000Z</time>
      </trkpt>
      <trkpt lat="52.283635" lon="10.513073">
        <time>2026-07-26T09:44:56.569000Z</time>
      </trkpt>
      <trkpt lat="52.283965" lon="10.513044">
        <time>2026-07-26T09:45:11.569000Z</time>
      </trkpt>
      <trkpt lat="52.284294" lon="10.513047">
        <time>2026-07-26T09:45:26.569000Z</time>
      </trkpt>
      <trkpt lat="52.284608" lon="10.51306">
        <time>2026-07-26T09:45:41.569000Z</time>
      </trkpt>
      <trkpt lat="52.284942" lon="10.513064">
        <time>2026-07-26T09:45:56.569000Z</time>
      </trkpt>
      <trkpt lat="52.285227" lon="10.513059">
        <time>2026-07-26T09:46:08.569000Z</time>
      </trkpt>
      <trkpt lat="52.285561" lon="10.513031">
        <time>2026-07-26T09:46:23.569000Z</time>
      </trkpt>
      <trkpt lat="52.285892" lon="10.513026">
        <time>2026-07-26T09:46:41.569000Z</time>
      </trkpt>
      <trkpt lat="52.286212" lon="10.513027">
        <time>2026-07-26T09:46:56.669000Z</time>
      </trkpt>
      <trkpt lat="52.286523" lon="10.513046">
        <time>2026-07-26T09:47:08.669000Z</time>
      </trkpt>
      <trkpt lat="52.286846" lon="10.513039">
        <time>2026-07-26T09:47:23.669000Z</time>
      </trkpt>
      <trkpt lat="52.287176" lon="10.513089">
        <time>2026-07-26T09:47:38.669000Z</time>
      </trkpt>
      <trkpt lat="52.287499" lon="10.513103">
        <time>2026-07-26T09:47:50.669000Z</time>
      </trkpt>
      <trkpt lat="52.28783" lon="10.51313">
        <time>2026-07-26T09:48:05.669000Z</time>
      </trkpt>
      <trkpt lat="52.288142" lon="10.513173">
        <time>2026-07-26T09:48:20.669000Z</time>
      </trkpt>
      <trkpt lat="52.288475" lon="10.513166">
        <time>2026-07-26T09:48:35.669000Z</time>
      </trkpt>
      <trkpt lat="52.288693" lon="10.513117">
        <time>2026-07-26T09:48:44.669000Z</time>
      </trkpt>
      <trkpt lat="52.288755" lon="10.513074">
        <time>2026-07-26T09:48:47.669000Z</time>
      </trkpt>
      <trkpt lat="52.288902" lon="10.512861">
        <time>2026-07-26T09:48:56.669000Z</time>
      </trkpt>
      <trkpt lat="52.288991" lon="10.512582">
        <time>2026-07-26T09:49:05.769000Z</time>
      </trkpt>
      <trkpt lat="52.289051" lon="10.512128">
        <time>2026-07-26T09:49:17.769000Z</time>
      </trkpt>
      <trkpt lat="52.289082" lon="10.511676">
        <time>2026-07-26T09:49:29.769000Z</time>
      </trkpt>
      <trkpt lat="52.289076" lon="10.51122">
        <time>2026-07-26T09:49:41.769000Z</time>
      </trkpt>
      <trkpt lat="52.289078" lon="10.510998">
        <time>2026-07-26T09:49:47.769000Z</time>
      </trkpt>
      <trkpt lat="52.289122" lon="10.510788">
        <time>2026-07-26T09:49:53.769000Z</time>
      </trkpt>
      <trkpt lat="52.289108" lon="10.510343">
        <time>2026-07-26T09:50:05.769000Z</time>
      </trkpt>
      <trkpt lat="52.289072" lon="10.509815">
        <time>2026-07-26T09:50:20.769000Z</time>
      </trkpt>
      <trkpt lat="52.289047" lon="10.509281">
        <time>2026-07-26T09:50:35.769000Z</time>
      </trkpt>
      <trkpt lat="52.289031" lon="10.508762">
        <time>2026-07-26T09:50:50.769000Z</time>
      </trkpt>
      <trkpt lat="52.289087" lon="10.508264">
        <time>2026-07-26T09:51:05.769000Z</time>
      </trkpt>
      <trkpt lat="52.289171" lon="10.50778">
        <time>2026-07-26T09:51:20.769000Z</time>
      </trkpt>
      <trkpt lat="52.289256" lon="10.507291">
        <time>2026-07-26T09:51:35.769000Z</time>
      </trkpt>
      <trkpt lat="52.289344" lon="10.506817">
        <time>2026-07-26T09:51:50.769000Z</time>
      </trkpt>
      <trkpt lat="52.289456" lon="10.506307">
        <time>2026-07-26T09:52:05.769000Z</time>
      </trkpt>
      <trkpt lat="52.289577" lon="10.505875">
        <time>2026-07-26T09:52:17.769000Z</time>
      </trkpt>
      <trkpt lat="52.289701" lon="10.505467">
        <time>2026-07-26T09:52:29.769000Z</time>
      </trkpt>
      <trkpt lat="52.28993" lon="10.505199">
        <time>2026-07-26T09:52:44.869000Z</time>
      </trkpt>
      <trkpt lat="52.290181" lon="10.504985">
        <time>2026-07-26T09:52:56.869000Z</time>
      </trkpt>
      <trkpt lat="52.290397" lon="10.504651">
        <time>2026-07-26T09:53:08.869000Z</time>
      </trkpt>
      <trkpt lat="52.2906" lon="10.5043">
        <time>2026-07-26T09:53:20.869000Z</time>
      </trkpt>
      <trkpt lat="52.290648" lon="10.504196">
        <time>2026-07-26T09:53:23.869000Z</time>
      </trkpt>
      <trkpt lat="52.290675" lon="10.504072">
        <time>2026-07-26T09:53:26.869000Z</time>
      </trkpt>
      <trkpt lat="52.290676" lon="10.503777">
        <time>2026-07-26T09:53:35.869000Z</time>
      </trkpt>
      <trkpt lat="52.290552" lon="10.503383">
        <time>2026-07-26T09:53:47.869000Z</time>
      </trkpt>
      <trkpt lat="52.29033" lon="10.503126">
        <time>2026-07-26T09:53:59.869000Z</time>
      </trkpt>
      <trkpt lat="52.290061" lon="10.502839">
        <time>2026-07-26T09:54:14.869000Z</time>
      </trkpt>
      <trkpt lat="52.289843" lon="10.50257">
        <time>2026-07-26T09:54:26.869000Z</time>
      </trkpt>
      <trkpt lat="52.289788" lon="10.502523">
        <time>2026-07-26T09:54:29.869000Z</time>
      </trkpt>
      <trkpt lat="52.289723" lon="10.50251">
        <time>2026-07-26T09:54:32.869000Z</time>
      </trkpt>
      <trkpt lat="52.289546" lon="10.502619">
        <time>2026-07-26T09:54:41.869000Z</time>
      </trkpt>
      <trkpt lat="52.289327" lon="10.502651">
        <time>2026-07-26T09:54:50.869000Z</time>
      </trkpt>
      <trkpt lat="52.289252" lon="10.502639">
        <time>2026-07-26T09:54:53.869000Z</time>
      </trkpt>
      <trkpt lat="52.289198" lon="10.502577">
        <time>2026-07-26T09:54:56.869000Z</time>
      </trkpt>
      <trkpt lat="52.289032" lon="10.502131">
        <time>2026-07-26T09:55:11.869000Z</time>
      </trkpt>
      <trkpt lat="52.288913" lon="10.501876">
        <time>2026-07-26T09:55:20.869000Z</time>
      </trkpt>
      <trkpt lat="52.288825" lon="10.501638">
        <time>2026-07-26T09:55:26.869000Z</time>
      </trkpt>
      <trkpt lat="52.288615" lon="10.501277">
        <time>2026-07-26T09:55:41.869000Z</time>
      </trkpt>
      <trkpt lat="52.288401" lon="10.501059">
        <time>2026-07-26T09:55:53.869000Z</time>
      </trkpt>
      <trkpt lat="52.288105" lon="10.500937">
        <time>2026-07-26T09:56:08.969000Z</time>
      </trkpt>
      <trkpt lat="52.287989" lon="10.500909">
        <time>2026-07-26T09:56:14.969000Z</time>
      </trkpt>
      <trkpt lat="52.287926" lon="10.500918">
        <time>2026-07-26T09:56:17.969000Z</time>
      </trkpt>
      <trkpt lat="52.287656" lon="10.501205">
        <time>2026-07-26T09:56:32.969000Z</time>
      </trkpt>
      <trkpt lat="52.287452" lon="10.501462">
        <time>2026-07-26T09:56:44.969000Z</time>
      </trkpt>
      <trkpt lat="52.287271" lon="10.501865">
        <time>2026-07-26T09:56:59.969000Z</time>
      </trkpt>
      <trkpt lat="52.287149" lon="10.502302">
        <time>2026-07-26T09:57:11.969000Z</time>
      </trkpt>
      <trkpt lat="52.287056" lon="10.502729">
        <time>2026-07-26T09:57:23.969000Z</time>
      </trkpt>
      <trkpt lat="52.286987" lon="10.503161">
        <time>2026-07-26T09:57:35.969000Z</time>
      </trkpt>
      <trkpt lat="52.286886" lon="10.503572">
        <time>2026-07-26T09:57:50.969000Z</time>
      </trkpt>
      <trkpt lat="52.286789" lon="10.504045">
        <time>2026-07-26T09:58:05.969000Z</time>
      </trkpt>
      <trkpt lat="52.286746" lon="10.504594">
        <time>2026-07-26T09:58:21.069000Z</time>
      </trkpt>
      <trkpt lat="52.286771" lon="10.505125">
        <time>2026-07-26T09:58:45.069000Z</time>
      </trkpt>
      <trkpt lat="52.286752" lon="10.505261">
        <time>2026-07-26T09:58:51.069000Z</time>
      </trkpt>
      <trkpt lat="52.286803" lon="10.505745">
        <time>2026-07-26T09:59:06.069000Z</time>
      </trkpt>
      <trkpt lat="52.286794" lon="10.506229">
        <time>2026-07-26T09:59:18.069000Z</time>
      </trkpt>
      <trkpt lat="52.286774" lon="10.506685">
        <time>2026-07-26T09:59:30.069000Z</time>
      </trkpt>
      <trkpt lat="52.286753" lon="10.507092">
        <time>2026-07-26T09:59:39.069000Z</time>
      </trkpt>
      <trkpt lat="52.286756" lon="10.507478">
        <time>2026-07-26T09:59:48.069000Z</time>
      </trkpt>
      <trkpt lat="52.286676" lon="10.507822">
        <time>2026-07-26T10:00:00.069000Z</time>
      </trkpt>
      <trkpt lat="52.28657" lon="10.508124">
        <time>2026-07-26T10:00:09.069000Z</time>
      </trkpt>
      <trkpt lat="52.286485" lon="10.508579">
        <time>2026-07-26T10:00:21.069000Z</time>
      </trkpt>
      <trkpt lat="52.286487" lon="10.509066">
        <time>2026-07-26T10:00:33.069000Z</time>
      </trkpt>
      <trkpt lat="52.286526" lon="10.509601">
        <time>2026-07-26T10:00:45.169000Z</time>
      </trkpt>
      <trkpt lat="52.286566" lon="10.510052">
        <time>2026-07-26T10:00:57.169000Z</time>
      </trkpt>
      <trkpt lat="52.28662" lon="10.510569">
        <time>2026-07-26T10:01:12.169000Z</time>
      </trkpt>
      <trkpt lat="52.286628" lon="10.510667">
        <time>2026-07-26T10:01:15.169000Z</time>
      </trkpt>
      <trkpt lat="52.28651" lon="10.511085">
        <time>2026-07-26T10:01:33.169000Z</time>
      </trkpt>
      <trkpt lat="52.28638" lon="10.511502">
        <time>2026-07-26T10:01:48.169000Z</time>
      </trkpt>
      <trkpt lat="52.286245" lon="10.51192">
        <time>2026-07-26T10:02:00.169000Z</time>
      </trkpt>
      <trkpt lat="52.286062" lon="10.512247">
        <time>2026-07-26T10:02:12.169000Z</time>
      </trkpt>
      <trkpt lat="52.285819" lon="10.512656">
        <time>2026-07-26T10:02:30.169000Z</time>
      </trkpt>
      <trkpt lat="52.285628" lon="10.512965">
        <time>2026-07-26T10:02:42.169000Z</time>
      </trkpt>
      <trkpt lat="52.285295" lon="10.512979">
        <time>2026-07-26T10:02:57.169000Z</time>
      </trkpt>
      <trkpt lat="52.285024" lon="10.513015">
        <time>2026-07-26T10:03:09.169000Z</time>
      </trkpt>
      <trkpt lat="52.284699" lon="10.513032">
        <time>2026-07-26T10:03:24.169000Z</time>
      </trkpt>
      <trkpt lat="52.284379" lon="10.51302">
        <time>2026-07-26T10:03:39.169000Z</time>
      </trkpt>
      <trkpt lat="52.284089" lon="10.513014">
        <time>2026-07-26T10:03:51.169000Z</time>
      </trkpt>
      <trkpt lat="52.283807" lon="10.513024">
        <time>2026-07-26T10:04:03.169000Z</time>
      </trkpt>
      <trkpt lat="52.283483" lon="10.51305">
        <time>2026-07-26T10:04:18.169000Z</time>
      </trkpt>
      <trkpt lat="52.283166" lon="10.513069">
        <time>2026-07-26T10:04:33.169000Z</time>
      </trkpt>
      <trkpt lat="52.282844" lon="10.513042">
        <time>2026-07-26T10:04:54.169000Z</time>
      </trkpt>
      <trkpt lat="52.282557" lon="10.513051">
        <time>2026-07-26T10:05:09.169000Z</time>
      </trkpt>
      <trkpt lat="52.282225" lon="10.513062">
        <time>2026-07-26T10:05:24.269000Z</time>
      </trkpt>
      <trkpt lat="52.28189" lon="10.513061">
        <time>2026-07-26T10:05:39.269000Z</time>
      </trkpt>
      <trkpt lat="52.281547" lon="10.513038">
        <time>2026-07-26T10:05:54.269000Z</time>
      </trkpt>
      <trkpt lat="52.28125" lon="10.513077">
        <time>2026-07-26T10:06:06.269000Z</time>
      </trkpt>
      <trkpt lat="52.280956" lon="10.513094">
        <time>2026-07-26T10:06:18.269000Z</time>
      </trkpt>
      <trkpt lat="52.280675" lon="10.513082">
        <time>2026-07-26T10:06:30.269000Z</time>
      </trkpt>
      <trkpt lat="52.280374" lon="10.513083">
        <time>2026-07-26T10:06:42.269000Z</time>
      </trkpt>
      <trkpt lat="52.280053" lon="10.51313">
        <time>2026-07-26T10:06:54.269000Z</time>
      </trkpt>
      <trkpt lat="52.279777" lon="10.513149">
        <time>2026-07-26T10:07:06.269000Z</time>
      </trkpt>
      <trkpt lat="52.279494" lon="10.513166">
        <time>2026-07-26T10:07:21.269000Z</time>
      </trkpt>
      <trkpt lat="52.279176" lon="10.513154">
        <time>2026-07-26T10:07:36.269000Z</time>
      </trkpt>
      <trkpt lat="52.278863" lon="10.513131">
        <time>2026-07-26T10:07:51.269000Z</time>
      </trkpt>
      <trkpt lat="52.278547" lon="10.513161">
        <time>2026-07-26T10:08:06.269000Z</time>
      </trkpt>
      <trkpt lat="52.278234" lon="10.513143">
        <time>2026-07-26T10:08:21.269000Z</time>
      </trkpt>
      <trkpt lat="52.27796" lon="10.51316">
        <time>2026-07-26T10:08:33.269000Z</time>
      </trkpt>
      <trkpt lat="52.277688" lon="10.513166">
        <time>2026-07-26T10:08:45.269000Z</time>
      </trkpt>
      <trkpt lat="52.277371" lon="10.51314">
        <time>2026-07-26T10:09:00.269000Z</time>
      </trkpt>
      <trkpt lat="52.277188" lon="10.513139">
        <time>2026-07-26T10:09:09.269000Z</time>
      </trkpt>
      <trkpt lat="52.276871" lon="10.51317">
        <time>2026-07-26T10:09:24.269000Z</time>
      </trkpt>
      <trkpt lat="52.276546" lon="10.513152">
        <time>2026-07-26T10:09:39.269000Z</time>
      </trkpt>
      <trkpt lat="52.276218" lon="10.513204">
        <time>2026-07-26T10:09:54.269000Z</time>
      </trkpt>
      <trkpt lat="52.275897" lon="10.513205">
        <time>2026-07-26T10:10:09.269000Z</time>
      </trkpt>
      <trkpt lat="52.275788" lon="10.51321">
        <time>2026-07-26T10:10:15.269000Z</time>
      </trkpt>
      <trkpt lat="52.27552" lon="10.513349">
        <time>2026-07-26T10:10:27.269000Z</time>
      </trkpt>
      <trkpt lat="52.27523" lon="10.513485">
        <time>2026-07-26T10:10:42.269000Z</time>
      </trkpt>
      <trkpt lat="52.274956" lon="10.513636">
        <time>2026-07-26T10:10:54.269000Z</time>
      </trkpt>
      <trkpt lat="52.274646" lon="10.513782">
        <time>2026-07-26T10:11:09.269000Z</time>
      </trkpt>
      <trkpt lat="52.274418" lon="10.513701">
        <time>2026-07-26T10:11:21.269000Z</time>
      </trkpt>
      <trkpt lat="52.274133" lon="10.51384">
        <time>2026-07-26T10:11:36.269000Z</time>
      </trkpt>
      <trkpt lat="52.273912" lon="10.513885">
        <time>2026-07-26T10:11:48.269000Z</time>
      </trkpt>
      <trkpt lat="52.273852" lon="10.513917">
        <time>2026-07-26T10:11:51.269000Z</time>
      </trkpt>
      <trkpt lat="52.27361" lon="10.514234">
        <time>2026-07-26T10:12:03.269000Z</time>
      </trkpt>
      <trkpt lat="52.273409" lon="10.514517">
        <time>2026-07-26T10:12:15.269000Z</time>
      </trkpt>
      <trkpt lat="52.27327" lon="10.51493">
        <time>2026-07-26T10:12:30.269000Z</time>
      </trkpt>
      <trkpt lat="52.273212" lon="10.51512">
        <time>2026-07-26T10:12:36.269000Z</time>
      </trkpt>
      <trkpt lat="52.27316" lon="10.515443">
        <time>2026-07-26T10:12:45.269000Z</time>
      </trkpt>
      <trkpt lat="52.273158" lon="10.515551">
        <time>2026-07-26T10:12:48.269000Z</time>
      </trkpt>
      <trkpt lat="52.273208" lon="10.515734">
        <time>2026-07-26T10:12:54.269000Z</time>
      </trkpt>
      <trkpt lat="52.273163" lon="10.516241">
        <time>2026-07-26T10:13:06.269000Z</time>
      </trkpt>
      <trkpt lat="52.273159" lon="10.516712">
        <time>2026-07-26T10:13:18.369000Z</time>
      </trkpt>
      <trkpt lat="52.273133" lon="10.517095">
        <time>2026-07-26T10:13:30.369000Z</time>
      </trkpt>
      <trkpt lat="52.273135" lon="10.517444">
        <time>2026-07-26T10:13:39.369000Z</time>
      </trkpt>
      <trkpt lat="52.273112" lon="10.517943">
        <time>2026-07-26T10:13:57.369000Z</time>
      </trkpt>
      <trkpt lat="52.273073" lon="10.518452">
        <time>2026-07-26T10:14:12.369000Z</time>
      </trkpt>
      <trkpt lat="52.273054" lon="10.518699">
        <time>2026-07-26T10:14:18.369000Z</time>
      </trkpt>
      <trkpt lat="52.273123" lon="10.519095">
        <time>2026-07-26T10:14:30.369000Z</time>
      </trkpt>
      <trkpt lat="52.273176" lon="10.519298">
        <time>2026-07-26T10:14:36.369000Z</time>
      </trkpt>
      <trkpt lat="52.273163" lon="10.519375">
        <time>2026-07-26T10:14:39.369000Z</time>
      </trkpt>
      <trkpt lat="52.272981" lon="10.519828">
        <time>2026-07-26T10:14:57.369000Z</time>
      </trkpt>
      <trkpt lat="52.27283" lon="10.520275">
        <time>2026-07-26T10:15:12.369000Z</time>
      </trkpt>
      <trkpt lat="52.272647" lon="10.520723">
        <time>2026-07-26T10:15:30.369000Z</time>
      </trkpt>
      <trkpt lat="52.272521" lon="10.521129">
        <time>2026-07-26T10:15:42.369000Z</time>
      </trkpt>
      <trkpt lat="52.272367" lon="10.521554">
        <time>2026-07-26T10:15:57.369000Z</time>
      </trkpt>
      <trkpt lat="52.272244" lon="10.521818">
        <time>2026-07-26T10:16:06.369000Z</time>
      </trkpt>
      <trkpt lat="52.272133" lon="10.522155">
        <time>2026-07-26T10:16:15.369000Z</time>
      </trkpt>
      <trkpt lat="52.272028" lon="10.522251">
        <time>2026-07-26T10:16:21.369000Z</time>
      </trkpt>
      <trkpt lat="52.271851" lon="10.522248">
        <time>2026-07-26T10:16:30.369000Z</time>
      </trkpt>
      <trkpt lat="52.271733" lon="10.522166">
        <time>2026-07-26T10:16:36.369000Z</time>
      </trkpt>
      <trkpt lat="52.271633" lon="10.522041">
        <time>2026-07-26T10:16:42.369000Z</time>
      </trkpt>
      <trkpt lat="52.271579" lon="10.522027">
        <time>2026-07-26T10:16:45.369000Z</time>
      </trkpt>
      <trkpt lat="52.271301" lon="10.522259">
        <time>2026-07-26T10:16:57.369000Z</time>
      </trkpt>
      <trkpt lat="52.271144" lon="10.522387">
        <time>2026-07-26T10:17:03.369000Z</time>
      </trkpt>
      <trkpt lat="52.270992" lon="10.522409">
        <time>2026-07-26T10:17:09.369000Z</time>
      </trkpt>
      <trkpt lat="52.270914" lon="10.52239">
        <time>2026-07-26T10:17:12.369000Z</time>
      </trkpt>
      <trkpt lat="52.270683" lon="10.522536">
        <time>2026-07-26T10:17:21.369000Z</time>
      </trkpt>
      <trkpt lat="52.270434" lon="10.522816">
        <time>2026-07-26T10:17:33.369000Z</time>
      </trkpt>
      <trkpt lat="52.270193" lon="10.523021">
        <time>2026-07-26T10:17:48.369000Z</time>
      </trkpt>
      <trkpt lat="52.270167" lon="10.523023">
        <time>2026-07-26T10:17:51.369000Z</time>
      </trkpt>
    </trkseg>
  </trk>
</gpx>