<?xml version="1.0" encoding="UTF-8"?>
<gpx xmlns="http://www.topografix.com/GPX/1/1" xmlns:gpxtpx="http://www.garmin.com/xmlschemas/TrackPointExtension/v1" xmlns:xsi="http://www.w3.org/2001/XMLSchema-instance" xsi:schemaLocation="http://www.topografix.com/GPX/1/1 http://www.topografix.com/GPX/1/1/gpx.xsd" version="1.1" creator="gpx.py -- https://github.com/tkrajina/gpxpy">
  <trk>
    <name>gpx from keep</name>
    <type>Run</type>
    <trkseg>
      <trkpt lat="52.269887" lon="10.522873">
        <time>2026-07-28T13:50:14.774000Z</time>
      </trkpt>
      <trkpt lat="52.269889" lon="10.523002">
        <time>2026-07-28T13:50:17.874000Z</time>
      </trkpt>
      <trkpt lat="52.269913" lon="10.523094">
        <time>2026-07-28T13:50:20.774000Z</time>
      </trkpt>
      <trkpt lat="52.270044" lon="10.523109">
        <time>2026-07-28T13:50:26.774000Z</time>
      </trkpt>
      <trkpt lat="52.270372" lon="10.522979">
        <time>2026-07-28T13:50:44.774000Z</time>
      </trkpt>
      <trkpt lat="52.270523" lon="10.522891">
        <time>2026-07-28T13:50:56.774000Z</time>
      </trkpt>
      <trkpt lat="52.27075" lon="10.522722">
        <time>2026-07-28T13:51:05.774000Z</time>
      </trkpt>
      <trkpt lat="52.27081" lon="10.522606">
        <time>2026-07-28T13:51:08.774000Z</time>
      </trkpt>
      <trkpt lat="52.27096" lon="10.522479">
        <time>2026-07-28T13:51:14.774000Z</time>
      </trkpt>
      <trkpt lat="52.271174" lon="10.522399">
        <time>2026-07-28T13:51:23.774000Z</time>
      </trkpt>
      <trkpt lat="52.271238" lon="10.522347">
        <time>2026-07-28T13:51:26.774000Z</time>
      </trkpt>
      <trkpt lat="52.271375" lon="10.522124">
        <time>2026-07-28T13:51:41.774000Z</time>
      </trkpt>
      <trkpt lat="52.271434" lon="10.522059">
        <time>2026-07-28T13:51:47.774000Z</time>
      </trkpt>
      <trkpt lat="52.271464" lon="10.52198">
        <time>2026-07-28T13:51:53.774000Z</time>
      </trkpt>
      <trkpt lat="52.271526" lon="10.52193">
        <time>2026-07-28T13:51:59.774000Z</time>
      </trkpt>
      <trkpt lat="52.27159" lon="10.521944">
        <time>2026-07-28T13:52:05.774000Z</time>
      </trkpt>
      <trkpt lat="52.271717" lon="10.522229">
        <time>2026-07-28T13:52:23.874000Z</time>
      </trkpt>
      <trkpt lat="52.271842" lon="10.522282">
        <time>2026-07-28T13:52:32.874000Z</time>
      </trkpt>
      <trkpt lat="52.271881" lon="10.522338">
        <time>2026-07-28T13:52:35.874000Z</time>
      </trkpt>
      <trkpt lat="52.272081" lon="10.522264">
        <time>2026-07-28T13:52:53.874000Z</time>
      </trkpt>
      <trkpt lat="52.272192" lon="10.521993">
        <time>2026-07-28T13:53:05.874000Z</time>
      </trkpt>
      <trkpt lat="52.272256" lon="10.521772">
        <time>2026-07-28T13:53:11.874000Z</time>
      </trkpt>
      <trkpt lat="52.272432" lon="10.521355">
        <time>2026-07-28T13:53:23.874000Z</time>
      </trkpt>
      <trkpt lat="52.272599" lon="10.520921">
        <time>2026-07-28T13:53:41.874000Z</time>
      </trkpt>
      <trkpt lat="52.272752" lon="10.520454">
        <time>2026-07-28T13:53:59.874000Z</time>
      </trkpt>
      <trkpt lat="52.272949" lon="10.520018">
        <time>2026-07-28T13:54:11.874000Z</time>
      </trkpt>
      <trkpt lat="52.273001" lon="10.519906">
        <time>2026-07-28T13:54:14.874000Z</time>
      </trkpt>
      <trkpt lat="52.273126" lon="10.519444">
        <time>2026-07-28T13:54:23.874000Z</time>
      </trkpt>
      <trkpt lat="52.273149" lon="10.519323">
        <time>2026-07-28T13:54:26.874000Z</time>
      </trkpt>
      <trkpt lat="52.27304" lon="10.519034">
        <time>2026-07-28T13:54:35.874000Z</time>
      </trkpt>
      <trkpt lat="52.273012" lon="10.518918">
        <time>2026-07-28T13:54:38.874000Z</time>
      </trkpt>
      <trkpt lat="52.273" lon="10.518779">
        <time>2026-07-28T13:54:41.874000Z</time>
      </trkpt>
      <trkpt lat="52.27303" lon="10.518602">
        <time>2026-07-28T13:54:44.874000Z</time>
      </trkpt>
      <trkpt lat="52.273026" lon="10.518476">
        <time>2026-07-28T13:54:47.874000Z</time>
      </trkpt>
      <trkpt lat="52.27307" lon="10.517994">
        <time>2026-07-28T13:54:56.874000Z</time>
      </trkpt>
      <trkpt lat="52.2731" lon="10.517477">
        <time>2026-07-28T13:55:08.874000Z</time>
      </trkpt>
      <trkpt lat="52.273142" lon="10.516952">
        <time>2026-07-28T13:55:23.874000Z</time>
      </trkpt>
      <trkpt lat="52.2732" lon="10.516421">
        <time>2026-07-28T13:55:35.874000Z</time>
      </trkpt>
      <trkpt lat="52.273239" lon="10.515882">
        <time>2026-07-28T13:55:47.874000Z</time>
      </trkpt>
      <trkpt lat="52.273146" lon="10.515755">
        <time>2026-07-28T13:55:53.874000Z</time>
      </trkpt>
      <trkpt lat="52.273145" lon="10.515633">
        <time>2026-07-28T13:55:56.874000Z</time>
      </trkpt>
      <trkpt lat="52.273245" lon="10.515177">
        <time>2026-07-28T13:56:08.874000Z</time>
      </trkpt>
      <trkpt lat="52.273362" lon="10.514701">
        <time>2026-07-28T13:56:17.874000Z</time>
      </trkpt>
      <trkpt lat="52.273522" lon="10.514353">
        <time>2026-07-28T13:56:26.874000Z</time>
      </trkpt>
      <trkpt lat="52.273745" lon="10.514067">
        <time>2026-07-28T13:56:38.874000Z</time>
      </trkpt>
      <trkpt lat="52.274051" lon="10.513941">
        <time>2026-07-28T13:56:50.874000Z</time>
      </trkpt>
      <trkpt lat="52.274132" lon="10.513912">
        <time>2026-07-28T13:56:53.874000Z</time>
      </trkpt>
      <trkpt lat="52.274331" lon="10.513759">
        <time>2026-07-28T13:57:02.874000Z</time>
      </trkpt>
      <trkpt lat="52.274411" lon="10.513734">
        <time>2026-07-28T13:57:05.874000Z</time>
      </trkpt>
      <trkpt lat="52.274486" lon="10.513752">
        <time>2026-07-28T13:57:08.874000Z</time>
      </trkpt>
      <trkpt lat="52.274626" lon="10.513861">
        <time>2026-07-28T13:57:14.874000Z</time>
      </trkpt>
      <trkpt lat="52.274701" lon="10.513863">
        <time>2026-07-28T13:57:17.874000Z</time>
      </trkpt>
      <trkpt lat="52.274961" lon="10.513693">
        <time>2026-07-28T13:57:29.874000Z</time>
      </trkpt>
      <trkpt lat="52.275038" lon="10.513713">
        <time>2026-07-28T13:57:32.874000Z</time>
      </trkpt>
      <trkpt lat="52.275298" lon="10.513494">
        <time>2026-07-28T13:57:44.874000Z</time>
      </trkpt>
      <trkpt lat="52.275587" lon="10.513335">
        <time>2026-07-28T13:57:59.874000Z</time>
      </trkpt>
      <trkpt lat="52.275766" lon="10.513239">
        <time>2026-07-28T13:58:08.874000Z</time>
      </trkpt>
      <trkpt lat="52.275971" lon="10.513243">
        <time>2026-07-28T13:58:17.874000Z</time>
      </trkpt>
      <trkpt lat="52.276205" lon="10.513194">
        <time>2026-07-28T13:58:29.874000Z</time>
      </trkpt>
      <trkpt lat="52.276519" lon="10.5132">
        <time>2026-07-28T13:58:44.874000Z</time>
      </trkpt>
      <trkpt lat="52.276831" lon="10.513213">
        <time>2026-07-28T13:58:59.874000Z</time>
      </trkpt>
      <trkpt lat="52.277152" lon="10.513206">
        <time>2026-07-28T13:59:14.874000Z</time>
      </trkpt>
      <trkpt lat="52.27748" lon="10.513174">
        <time>2026-07-28T13:59:29.874000Z</time>
      </trkpt>
      <trkpt lat="52.277803" lon="10.513155">
        <time>2026-07-28T13:59:44.874000Z</time>
      </trkpt>
      <trkpt lat="52.277995" lon="10.513163">
        <time>2026-07-28T13:59:53.874000Z</time>
      </trkpt>
      <trkpt lat="52.278047" lon="10.513189">
        <time>2026-07-28T13:59:56.874000Z</time>
      </trkpt>
      <trkpt lat="52.27838" lon="10.513181">
        <time>2026-07-28T14:00:08.874000Z</time>
      </trkpt>
      <trkpt lat="52.278687" lon="10.513162">
        <time>2026-07-28T14:00:20.974000Z</time>
      </trkpt>
      <trkpt lat="52.278998" lon="10.513138">
        <time>2026-07-28T14:00:38.974000Z</time>
      </trkpt>
      <trkpt lat="52.279304" lon="10.51314">
        <time>2026-07-28T14:00:56.974000Z</time>
      </trkpt>
      <trkpt lat="52.279622" lon="10.513143">
        <time>2026-07-28T14:01:17.974000Z</time>
      </trkpt>
      <trkpt lat="52.279796" lon="10.513141">
        <time>2026-07-28T14:01:29.974000Z</time>
      </trkpt>
      <trkpt lat="52.280098" lon="10.513125">
        <time>2026-07-28T14:01:44.974000Z</time>
      </trkpt>
      <trkpt lat="52.280392" lon="10.513134">
        <time>2026-07-28T14:01:59.974000Z</time>
      </trkpt>
      <trkpt lat="52.280595" lon="10.513113">
        <time>2026-07-28T14:02:17.974000Z</time>
      </trkpt>
      <trkpt lat="52.280798" lon="10.513121">
        <time>2026-07-28T14:02:35.974000Z</time>
      </trkpt>
      <trkpt lat="52.280874" lon="10.513149">
        <time>2026-07-28T14:02:41.974000Z</time>
      </trkpt>
      <trkpt lat="52.281068" lon="10.513126">
        <time>2026-07-28T14:02:59.974000Z</time>
      </trkpt>
      <trkpt lat="52.281348" lon="10.513121">
        <time>2026-07-28T14:03:23.974000Z</time>
      </trkpt>
      <trkpt lat="52.281677" lon="10.513093">
        <time>2026-07-28T14:03:53.974000Z</time>
      </trkpt>
      <trkpt lat="52.281761" lon="10.513142">
        <time>2026-07-28T14:03:59.974000Z</time>
      </trkpt>
      <trkpt lat="52.282052" lon="10.513106">
        <time>2026-07-28T14:04:23.974000Z</time>
      </trkpt>
      <trkpt lat="52.282221" lon="10.513098">
        <time>2026-07-28T14:04:38.974000Z</time>
      </trkpt>
    </trkseg>
  </trk>
</gpx>