<?xml version="1.0" encoding="UTF-8"?>
<gpx xmlns="http://www.topografix.com/GPX/1/1" xmlns:gpxtpx="http://www.garmin.com/xmlschemas/TrackPointExtension/v1" xmlns:xsi="http://www.w3.org/2001/XMLSchema-instance" xsi:schemaLocation="http://www.topografix.com/GPX/1/1 http://www.topografix.com/GPX/1/1/gpx.xsd" version="1.1" creator="gpx.py -- https://github.com/tkrajina/gpxpy">
  <trk>
    <name>gpx from keep</name>
    <type>Run</type>
    <trkseg>
      <trkpt lat="52.269659" lon="10.522556">
        <time>2026-09-22T14:21:17.935000Z</time>
      </trkpt>
      <trkpt lat="52.269754" lon="10.522519">
        <time>2026-09-22T14:21:20.935000Z</time>
      </trkpt>
      <trkpt lat="52.269876" lon="10.522708">
        <time>2026-09-22T14:21:23.935000Z</time>
      </trkpt>
      <trkpt lat="52.269994" lon="10.523081">
        <time>2026-09-22T14:21:38.935000Z</time>
      </trkpt>
      <trkpt lat="52.270106" lon="10.523067">
        <time>2026-09-22T14:21:47.935000Z</time>
      </trkpt>
      <trkpt lat="52.270277" lon="10.522981">
        <time>2026-09-22T14:21:53.935000Z</time>
      </trkpt>
      <trkpt lat="52.270574" lon="10.522722">
        <time>2026-09-22T14:22:08.935000Z</time>
      </trkpt>
      <trkpt lat="52.270676" lon="10.522654">
        <time>2026-09-22T14:22:14.935000Z</time>
      </trkpt>
      <trkpt lat="52.27073" lon="10.522588">
        <time>2026-09-22T14:22:17.935000Z</time>
      </trkpt>
      <trkpt lat="52.270888" lon="10.522482">
        <time>2026-09-22T14:22:23.935000Z</time>
      </trkpt>
      <trkpt lat="52.271169" lon="10.522404">
        <time>2026-09-22T14:22:32.935000Z</time>
      </trkpt>
      <trkpt lat="52.271251" lon="10.522376">
        <time>2026-09-22T14:22:35.935000Z</time>
      </trkpt>
      <trkpt lat="52.271521" lon="10.52204">
        <time>2026-09-22T14:22:50.935000Z</time>
      </trkpt>
      <trkpt lat="52.271581" lon="10.522007">
        <time>2026-09-22T14:22:53.935000Z</time>
      </trkpt>
      <trkpt lat="52.271642" lon="10.522023">
        <time>2026-09-22T14:22:56.935000Z</time>
      </trkpt>
      <trkpt lat="52.271805" lon="10.522286">
        <time>2026-09-22T14:23:08.935000Z</time>
      </trkpt>
      <trkpt lat="52.271916" lon="10.522313">
        <time>2026-09-22T14:23:15.035000Z</time>
      </trkpt>
      <trkpt lat="52.272044" lon="10.522267">
        <time>2026-09-22T14:23:21.035000Z</time>
      </trkpt>
      <trkpt lat="52.27210899899038" lon="10.522204518790893">
        <time>2026-09-22T14:23:24.035000Z</time>
      </trkpt>
      <trkpt lat="52.272166" lon="10.522105">
        <time>2026-09-22T14:23:27.035000Z</time>
      </trkpt>
      <trkpt lat="52.272227" lon="10.521896">
        <time>2026-09-22T14:23:33.035000Z</time>
      </trkpt>
      <trkpt lat="52.272361" lon="10.521638">
        <time>2026-09-22T14:23:42.035000Z</time>
      </trkpt>
      <trkpt lat="52.27241" lon="10.521593">
        <time>2026-09-22T14:23:45.035000Z</time>
      </trkpt>
      <trkpt lat="52.272437" lon="10.521474">
        <time>2026-09-22T14:23:48.035000Z</time>
      </trkpt>
      <trkpt lat="52.272492" lon="10.521379">
        <time>2026-09-22T14:23:51.035000Z</time>
      </trkpt>
      <trkpt lat="52.272579" lon="10.521142">
        <time>2026-09-22T14:23:57.035000Z</time>
      </trkpt>
      <trkpt lat="52.272626" lon="10.520909">
        <time>2026-09-22T14:24:03.035000Z</time>
      </trkpt>
      <trkpt lat="52.272798" lon="10.520467">
        <time>2026-09-22T14:24:15.035000Z</time>
      </trkpt>
      <trkpt lat="52.272928" lon="10.520064">
        <time>2026-09-22T14:24:27.035000Z</time>
      </trkpt>
      <trkpt lat="52.27308" lon="10.51962">
        <time>2026-09-22T14:24:42.035000Z</time>
      </trkpt>
      <trkpt lat="52.273143" lon="10.519413">
        <time>2026-09-22T14:24:48.035000Z</time>
      </trkpt>
      <trkpt lat="52.273181" lon="10.519343">
        <time>2026-09-22T14:24:51.035000Z</time>
      </trkpt>
      <trkpt lat="52.273191" lon="10.51926">
        <time>2026-09-22T14:24:57.035000Z</time>
      </trkpt>
      <trkpt lat="52.27314" lon="10.519216">
        <time>2026-09-22T14:25:00.035000Z</time>
      </trkpt>
      <trkpt lat="52.273097" lon="10.518819">
        <time>2026-09-22T14:25:12.035000Z</time>
      </trkpt>
      <trkpt lat="52.273115" lon="10.518333">
        <time>2026-09-22T14:25:27.035000Z</time>
      </trkpt>
      <trkpt lat="52.273102" lon="10.517829">
        <time>2026-09-22T14:25:42.035000Z</time>
      </trkpt>
      <trkpt lat="52.27316" lon="10.51765">
        <time>2026-09-22T14:25:48.035000Z</time>
      </trkpt>
      <trkpt lat="52.273156" lon="10.517555">
        <time>2026-09-22T14:25:51.035000Z</time>
      </trkpt>
      <trkpt lat="52.273174" lon="10.517453">
        <time>2026-09-22T14:25:54.035000Z</time>
      </trkpt>
      <trkpt lat="52.273242" lon="10.517268">
        <time>2026-09-22T14:26:00.035000Z</time>
      </trkpt>
      <trkpt lat="52.273242" lon="10.517148">
        <time>2026-09-22T14:26:03.035000Z</time>
      </trkpt>
      <trkpt lat="52.273206" lon="10.517022">
        <time>2026-09-22T14:26:06.035000Z</time>
      </trkpt>
      <trkpt lat="52.273207" lon="10.516534">
        <time>2026-09-22T14:26:18.035000Z</time>
      </trkpt>
      <trkpt lat="52.273209" lon="10.516432">
        <time>2026-09-22T14:26:21.035000Z</time>
      </trkpt>
      <trkpt lat="52.273251" lon="10.516223">
        <time>2026-09-22T14:26:27.035000Z</time>
      </trkpt>
      <trkpt lat="52.27324" lon="10.51593">
        <time>2026-09-22T14:26:33.035000Z</time>
      </trkpt>
      <trkpt lat="52.273203" lon="10.515792">
        <time>2026-09-22T14:26:36.035000Z</time>
      </trkpt>
      <trkpt lat="52.273164" lon="10.515748">
        <time>2026-09-22T14:26:39.135000Z</time>
      </trkpt>
      <trkpt lat="52.273156" lon="10.515646">
        <time>2026-09-22T14:26:45.135000Z</time>
      </trkpt>
      <trkpt lat="52.273252" lon="10.515161">
        <time>2026-09-22T14:27:00.135000Z</time>
      </trkpt>
      <trkpt lat="52.27336996156636" lon="10.514713054950517">
        <time>2026-09-22T14:27:12.135000Z</time>
      </trkpt>
      <trkpt lat="52.273479" lon="10.51445">
        <time>2026-09-22T14:27:21.135000Z</time>
      </trkpt>
      <trkpt lat="52.273664" lon="10.514157">
        <time>2026-09-22T14:27:33.135000Z</time>
      </trkpt>
      <trkpt lat="52.27392066719264" lon="10.51393007757116">
        <time>2026-09-22T14:27:48.135000Z</time>
      </trkpt>
      <trkpt lat="52.274234" lon="10.513832">
        <time>2026-09-22T14:28:00.135000Z</time>
      </trkpt>
      <trkpt lat="52.274352" lon="10.513766">
        <time>2026-09-22T14:28:06.135000Z</time>
      </trkpt>
      <trkpt lat="52.274416" lon="10.513757">
        <time>2026-09-22T14:28:09.135000Z</time>
      </trkpt>
      <trkpt lat="52.274572" lon="10.513852">
        <time>2026-09-22T14:28:18.135000Z</time>
      </trkpt>
      <trkpt lat="52.274633" lon="10.513843">
        <time>2026-09-22T14:28:21.135000Z</time>
      </trkpt>
      <trkpt lat="52.274893" lon="10.513736">
        <time>2026-09-22T14:28:33.135000Z</time>
      </trkpt>
      <trkpt lat="52.274954" lon="10.513677">
        <time>2026-09-22T14:28:36.135000Z</time>
      </trkpt>
      <trkpt lat="52.275271" lon="10.513545">
        <time>2026-09-22T14:28:51.135000Z</time>
      </trkpt>
      <trkpt lat="52.275541" lon="10.513353">
        <time>2026-09-22T14:29:06.135000Z</time>
      </trkpt>
      <trkpt lat="52.275665" lon="10.513329">
        <time>2026-09-22T14:29:12.135000Z</time>
      </trkpt>
      <trkpt lat="52.275788" lon="10.51325">
        <time>2026-09-22T14:29:18.135000Z</time>
      </trkpt>
      <trkpt lat="52.275937" lon="10.513274">
        <time>2026-09-22T14:29:24.135000Z</time>
      </trkpt>
      <trkpt lat="52.276266" lon="10.513241">
        <time>2026-09-22T14:29:39.135000Z</time>
      </trkpt>
      <trkpt lat="52.276549" lon="10.513235">
        <time>2026-09-22T14:29:54.135000Z</time>
      </trkpt>
      <trkpt lat="52.276872" lon="10.513206">
        <time>2026-09-22T14:30:09.235000Z</time>
      </trkpt>
      <trkpt lat="52.277131" lon="10.513212">
        <time>2026-09-22T14:30:21.235000Z</time>
      </trkpt>
      <trkpt lat="52.277454" lon="10.513175">
        <time>2026-09-22T14:30:36.235000Z</time>
      </trkpt>
      <trkpt lat="52.27758" lon="10.513154">
        <time>2026-09-22T14:30:42.235000Z</time>
      </trkpt>
      <trkpt lat="52.277626" lon="10.513171">
        <time>2026-09-22T14:30:45.235000Z</time>
      </trkpt>
      <trkpt lat="52.277899" lon="10.513183">
        <time>2026-09-22T14:30:57.235000Z</time>
      </trkpt>
      <trkpt lat="52.278178" lon="10.513184">
        <time>2026-09-22T14:31:09.235000Z</time>
      </trkpt>
      <trkpt lat="52.27832" lon="10.513166">
        <time>2026-09-22T14:31:15.235000Z</time>
      </trkpt>
      <trkpt lat="52.278403" lon="10.513125">
        <time>2026-09-22T14:31:18.235000Z</time>
      </trkpt>
      <trkpt lat="52.27868" lon="10.513126">
        <time>2026-09-22T14:31:30.235000Z</time>
      </trkpt>
      <trkpt lat="52.278814" lon="10.51315">
        <time>2026-09-22T14:31:36.235000Z</time>
      </trkpt>
      <trkpt lat="52.278954" lon="10.513112">
        <time>2026-09-22T14:31:42.235000Z</time>
      </trkpt>
      <trkpt lat="52.279226" lon="10.513122">
        <time>2026-09-22T14:31:54.235000Z</time>
      </trkpt>
      <trkpt lat="52.279539" lon="10.513133">
        <time>2026-09-22T14:32:09.235000Z</time>
      </trkpt>
      <trkpt lat="52.279611" lon="10.513121">
        <time>2026-09-22T14:32:12.235000Z</time>
      </trkpt>
      <trkpt lat="52.279673" lon="10.513144">
        <time>2026-09-22T14:32:15.235000Z</time>
      </trkpt>
      <trkpt lat="52.279999" lon="10.513098">
        <time>2026-09-22T14:32:30.235000Z</time>
      </trkpt>
      <trkpt lat="52.280338" lon="10.513125">
        <time>2026-09-22T14:32:45.235000Z</time>
      </trkpt>
      <trkpt lat="52.280655" lon="10.513123">
        <time>2026-09-22T14:33:00.235000Z</time>
      </trkpt>
      <trkpt lat="52.280936" lon="10.513132">
        <time>2026-09-22T14:33:12.335000Z</time>
      </trkpt>
      <trkpt lat="52.281232" lon="10.513122">
        <time>2026-09-22T14:33:27.335000Z</time>
      </trkpt>
      <trkpt lat="52.281496" lon="10.513113">
        <time>2026-09-22T14:33:39.335000Z</time>
      </trkpt>
      <trkpt lat="52.28166456260973" lon="10.513143403540687">
        <time>2026-09-22T14:33:48.335000Z</time>
      </trkpt>
      <trkpt lat="52.281962" lon="10.513122">
        <time>2026-09-22T14:34:00.335000Z</time>
      </trkpt>
      <trkpt lat="52.282247" lon="10.513114">
        <time>2026-09-22T14:34:12.335000Z</time>
      </trkpt>
      <trkpt lat="52.282527" lon="10.513091">
        <time>2026-09-22T14:34:24.335000Z</time>
      </trkpt>
      <trkpt lat="52.282822" lon="10.513092">
        <time>2026-09-22T14:34:36.335000Z</time>
      </trkpt>
      <trkpt lat="52.283148" lon="10.513079">
        <time>2026-09-22T14:34:48.335000Z</time>
      </trkpt>
      <trkpt lat="52.283458" lon="10.513085">
        <time>2026-09-22T14:35:00.335000Z</time>
      </trkpt>
      <trkpt lat="52.283751" lon="10.513079">
        <time>2026-09-22T14:35:12.335000Z</time>
      </trkpt>
      <trkpt lat="52.28403" lon="10.513093">
        <time>2026-09-22T14:35:24.335000Z</time>
      </trkpt>
      <trkpt lat="52.284319" lon="10.513065">
        <time>2026-09-22T14:35:36.335000Z</time>
      </trkpt>
      <trkpt lat="52.284534" lon="10.513072">
        <time>2026-09-22T14:35:45.335000Z</time>
      </trkpt>
      <trkpt lat="52.28481" lon="10.513072">
        <time>2026-09-22T14:35:57.335000Z</time>
      </trkpt>
      <trkpt lat="52.285141" lon="10.513071">
        <time>2026-09-22T14:36:12.435000Z</time>
      </trkpt>
      <trkpt lat="52.285416" lon="10.513052">
        <time>2026-09-22T14:36:24.435000Z</time>
      </trkpt>
      <trkpt lat="52.285692" lon="10.51304">
        <time>2026-09-22T14:36:36.435000Z</time>
      </trkpt>
      <trkpt lat="52.285984" lon="10.513016">
        <time>2026-09-22T14:36:51.435000Z</time>
      </trkpt>
      <trkpt lat="52.286339" lon="10.513031">
        <time>2026-09-22T14:37:06.435000Z</time>
      </trkpt>
      <trkpt lat="52.286625" lon="10.513033">
        <time>2026-09-22T14:37:18.435000Z</time>
      </trkpt>
      <trkpt lat="52.286901" lon="10.513044">
        <time>2026-09-22T14:37:30.435000Z</time>
      </trkpt>
      <trkpt lat="52.287184" lon="10.51308">
        <time>2026-09-22T14:37:42.435000Z</time>
      </trkpt>
      <trkpt lat="52.287456" lon="10.513096">
        <time>2026-09-22T14:37:54.435000Z</time>
      </trkpt>
      <trkpt lat="52.287755" lon="10.513118">
        <time>2026-09-22T14:38:06.435000Z</time>
      </trkpt>
      <trkpt lat="52.288105" lon="10.513159">
        <time>2026-09-22T14:38:21.435000Z</time>
      </trkpt>
      <trkpt lat="52.288413" lon="10.513193">
        <time>2026-09-22T14:38:36.435000Z</time>
      </trkpt>
      <trkpt lat="52.288686" lon="10.513127">
        <time>2026-09-22T14:38:48.435000Z</time>
      </trkpt>
      <trkpt lat="52.288808" lon="10.513039">
        <time>2026-09-22T14:38:54.435000Z</time>
      </trkpt>
      <trkpt lat="52.288937" lon="10.512832">
        <time>2026-09-22T14:39:03.435000Z</time>
      </trkpt>
      <trkpt lat="52.288991" lon="10.512658">
        <time>2026-09-22T14:39:09.435000Z</time>
      </trkpt>
      <trkpt lat="52.289046" lon="10.512141">
        <time>2026-09-22T14:39:24.435000Z</time>
      </trkpt>
      <trkpt lat="52.289088" lon="10.511627">
        <time>2026-09-22T14:39:39.435000Z</time>
      </trkpt>
      <trkpt lat="52.289083" lon="10.511132">
        <time>2026-09-22T14:39:54.435000Z</time>
      </trkpt>
      <trkpt lat="52.28913" lon="10.510733">
        <time>2026-09-22T14:40:06.435000Z</time>
      </trkpt>
      <trkpt lat="52.289109" lon="10.51019">
        <time>2026-09-22T14:40:21.535000Z</time>
      </trkpt>
      <trkpt lat="52.289075" lon="10.509725">
        <time>2026-09-22T14:40:33.535000Z</time>
      </trkpt>
      <trkpt lat="52.289053" lon="10.509259">
        <time>2026-09-22T14:40:45.535000Z</time>
      </trkpt>
      <trkpt lat="52.289038" lon="10.508802">
        <time>2026-09-22T14:40:57.535000Z</time>
      </trkpt>
      <trkpt lat="52.289084" lon="10.508346">
        <time>2026-09-22T14:41:09.535000Z</time>
      </trkpt>
      <trkpt lat="52.289158" lon="10.507904">
        <time>2026-09-22T14:41:21.535000Z</time>
      </trkpt>
      <trkpt lat="52.289232" lon="10.50746">
        <time>2026-09-22T14:41:33.535000Z</time>
      </trkpt>
      <trkpt lat="52.289303" lon="10.507018">
        <time>2026-09-22T14:41:45.535000Z</time>
      </trkpt>
      <trkpt lat="52.289392" lon="10.506525">
        <time>2026-09-22T14:42:00.535000Z</time>
      </trkpt>
      <trkpt lat="52.289431" lon="10.506326">
        <time>2026-09-22T14:42:06.535000Z</time>
      </trkpt>
      <trkpt lat="52.289587" lon="10.505844">
        <time>2026-09-22T14:42:21.535000Z</time>
      </trkpt>
      <trkpt lat="52.289751" lon="10.50537">
        <time>2026-09-22T14:42:36.535000Z</time>
      </trkpt>
      <trkpt lat="52.28985" lon="10.505241">
        <time>2026-09-22T14:42:42.535000Z</time>
      </trkpt>
      <trkpt lat="52.290143" lon="10.505057">
        <time>2026-09-22T14:42:57.535000Z</time>
      </trkpt>
      <trkpt lat="52.290384" lon="10.504728">
        <time>2026-09-22T14:43:12.535000Z</time>
      </trkpt>
      <trkpt lat="52.290584" lon="10.504338">
        <time>2026-09-22T14:43:27.535000Z</time>
      </trkpt>
      <trkpt lat="52.29066" lon="10.504175">
        <time>2026-09-22T14:43:33.535000Z</time>
      </trkpt>
      <trkpt lat="52.290671" lon="10.503826">
        <time>2026-09-22T14:43:45.535000Z</time>
      </trkpt>
      <trkpt lat="52.290645" lon="10.503622">
        <time>2026-09-22T14:43:51.535000Z</time>
      </trkpt>
      <trkpt lat="52.290452" lon="10.503288">
        <time>2026-09-22T14:44:03.535000Z</time>
      </trkpt>
      <trkpt lat="52.290178" lon="10.502985">
        <time>2026-09-22T14:44:18.535000Z</time>
      </trkpt>
      <trkpt lat="52.289946" lon="10.502752">
        <time>2026-09-22T14:44:30.535000Z</time>
      </trkpt>
      <trkpt lat="52.289746" lon="10.502484">
        <time>2026-09-22T14:44:42.535000Z</time>
      </trkpt>
      <trkpt lat="52.289697" lon="10.502469">
        <time>2026-09-22T14:44:45.535000Z</time>
      </trkpt>
      <trkpt lat="52.289425" lon="10.502651">
        <time>2026-09-22T14:44:57.535000Z</time>
      </trkpt>
      <trkpt lat="52.289244" lon="10.502642">
        <time>2026-09-22T14:45:06.535000Z</time>
      </trkpt>
      <trkpt lat="52.289191" lon="10.502581">
        <time>2026-09-22T14:45:09.535000Z</time>
      </trkpt>
      <trkpt lat="52.288998" lon="10.502202">
        <time>2026-09-22T14:45:24.535000Z</time>
      </trkpt>
      <trkpt lat="52.288853" lon="10.501811">
        <time>2026-09-22T14:45:36.535000Z</time>
      </trkpt>
      <trkpt lat="52.288682" lon="10.501447">
        <time>2026-09-22T14:45:48.535000Z</time>
      </trkpt>
      <trkpt lat="52.288535" lon="10.501235">
        <time>2026-09-22T14:45:57.535000Z</time>
      </trkpt>
      <trkpt lat="52.288254" lon="10.501012">
        <time>2026-09-22T14:46:12.535000Z</time>
      </trkpt>
      <trkpt lat="52.288152" lon="10.500963">
        <time>2026-09-22T14:46:18.535000Z</time>
      </trkpt>
      <trkpt lat="52.287941" lon="10.500944">
        <time>2026-09-22T14:46:27.535000Z</time>
      </trkpt>
      <trkpt lat="52.287872" lon="10.500972">
        <time>2026-09-22T14:46:30.535000Z</time>
      </trkpt>
      <trkpt lat="52.287604" lon="10.501274">
        <time>2026-09-22T14:46:45.535000Z</time>
      </trkpt>
      <trkpt lat="52.287395" lon="10.501638">
        <time>2026-09-22T14:47:00.535000Z</time>
      </trkpt>
      <trkpt lat="52.287225" lon="10.502114">
        <time>2026-09-22T14:47:15.535000Z</time>
      </trkpt>
      <trkpt lat="52.28713" lon="10.502405">
        <time>2026-09-22T14:47:24.535000Z</time>
      </trkpt>
      <trkpt lat="52.287038" lon="10.502862">
        <time>2026-09-22T14:47:39.535000Z</time>
      </trkpt>
      <trkpt lat="52.286949" lon="10.503394">
        <time>2026-09-22T14:47:54.535000Z</time>
      </trkpt>
      <trkpt lat="52.286843" lon="10.503891">
        <time>2026-09-22T14:48:09.535000Z</time>
      </trkpt>
      <trkpt lat="52.286745" lon="10.504414">
        <time>2026-09-22T14:48:24.535000Z</time>
      </trkpt>
      <trkpt lat="52.286721" lon="10.504899">
        <time>2026-09-22T14:48:36.535000Z</time>
      </trkpt>
      <trkpt lat="52.286742" lon="10.505449">
        <time>2026-09-22T14:48:51.535000Z</time>
      </trkpt>
      <trkpt lat="52.286778" lon="10.505846">
        <time>2026-09-22T14:49:03.535000Z</time>
      </trkpt>
      <trkpt lat="52.286804" lon="10.50634">
        <time>2026-09-22T14:49:15.535000Z</time>
      </trkpt>
      <trkpt lat="52.286789" lon="10.506803">
        <time>2026-09-22T14:49:27.535000Z</time>
      </trkpt>
      <trkpt lat="52.286762" lon="10.507244">
        <time>2026-09-22T14:49:39.535000Z</time>
      </trkpt>
      <trkpt lat="52.286752" lon="10.507547">
        <time>2026-09-22T14:49:48.535000Z</time>
      </trkpt>
      <trkpt lat="52.286707" lon="10.507868">
        <time>2026-09-22T14:49:57.535000Z</time>
      </trkpt>
      <trkpt lat="52.28656" lon="10.508213">
        <time>2026-09-22T14:50:09.535000Z</time>
      </trkpt>
      <trkpt lat="52.286483" lon="10.508567">
        <time>2026-09-22T14:50:18.535000Z</time>
      </trkpt>
      <trkpt lat="52.286475" lon="10.508819">
        <time>2026-09-22T14:50:24.535000Z</time>
      </trkpt>
      <trkpt lat="52.28653" lon="10.509346">
        <time>2026-09-22T14:50:39.635000Z</time>
      </trkpt>
      <trkpt lat="52.286573" lon="10.509786">
        <time>2026-09-22T14:50:51.635000Z</time>
      </trkpt>
      <trkpt lat="52.286618" lon="10.510242">
        <time>2026-09-22T14:51:03.635000Z</time>
      </trkpt>
      <trkpt lat="52.286637" lon="10.510531">
        <time>2026-09-22T14:51:12.635000Z</time>
      </trkpt>
      <trkpt lat="52.286587" lon="10.510807">
        <time>2026-09-22T14:51:21.635000Z</time>
      </trkpt>
      <trkpt lat="52.286518" lon="10.511074">
        <time>2026-09-22T14:51:30.635000Z</time>
      </trkpt>
      <trkpt lat="52.286509" lon="10.511183">
        <time>2026-09-22T14:51:33.635000Z</time>
      </trkpt>
      <trkpt lat="52.286348" lon="10.511672">
        <time>2026-09-22T14:51:48.635000Z</time>
      </trkpt>
      <trkpt lat="52.286187" lon="10.512026">
        <time>2026-09-22T14:52:00.635000Z</time>
      </trkpt>
      <trkpt lat="52.285968" lon="10.512438">
        <time>2026-09-22T14:52:15.635000Z</time>
      </trkpt>
      <trkpt lat="52.285867" lon="10.512619">
        <time>2026-09-22T14:52:21.635000Z</time>
      </trkpt>
      <trkpt lat="52.285752" lon="10.51276">
        <time>2026-09-22T14:52:27.635000Z</time>
      </trkpt>
      <trkpt lat="52.285636" lon="10.512937">
        <time>2026-09-22T14:52:33.635000Z</time>
      </trkpt>
      <trkpt lat="52.285566" lon="10.512982">
        <time>2026-09-22T14:52:36.635000Z</time>
      </trkpt>
      <trkpt lat="52.285267" lon="10.512998">
        <time>2026-09-22T14:52:48.635000Z</time>
      </trkpt>
      <trkpt lat="52.285122" lon="10.512971">
        <time>2026-09-22T14:52:54.635000Z</time>
      </trkpt>
      <trkpt lat="52.28484" lon="10.513002">
        <time>2026-09-22T14:53:06.635000Z</time>
      </trkpt>
      <trkpt lat="52.284562" lon="10.51303">
        <time>2026-09-22T14:53:18.635000Z</time>
      </trkpt>
      <trkpt lat="52.28429" lon="10.513022">
        <time>2026-09-22T14:53:30.635000Z</time>
      </trkpt>
      <trkpt lat="52.28396" lon="10.513022">
        <time>2026-09-22T14:53:45.635000Z</time>
      </trkpt>
      <trkpt lat="52.283628" lon="10.513038">
        <time>2026-09-22T14:54:00.635000Z</time>
      </trkpt>
      <trkpt lat="52.283358" lon="10.513023">
        <time>2026-09-22T14:54:12.635000Z</time>
      </trkpt>
      <trkpt lat="52.283036" lon="10.513021">
        <time>2026-09-22T14:54:27.635000Z</time>
      </trkpt>
      <trkpt lat="52.28273" lon="10.513008">
        <time>2026-09-22T14:54:42.635000Z</time>
      </trkpt>
      <trkpt lat="52.282412" lon="10.513039">
        <time>2026-09-22T14:54:54.635000Z</time>
      </trkpt>
      <trkpt lat="52.282109" lon="10.513065">
        <time>2026-09-22T14:55:06.635000Z</time>
      </trkpt>
      <trkpt lat="52.281835" lon="10.513061">
        <time>2026-09-22T14:55:18.635000Z</time>
      </trkpt>
      <trkpt lat="52.281721" lon="10.513023">
        <time>2026-09-22T14:55:24.635000Z</time>
      </trkpt>
      <trkpt lat="52.28165955470465" lon="10.513028845085662">
        <time>2026-09-22T14:55:27.635000Z</time>
      </trkpt>
      <trkpt lat="52.2816" lon="10.512983">
        <time>2026-09-22T14:55:30.635000Z</time>
      </trkpt>
      <trkpt lat="52.281513" lon="10.512991">
        <time>2026-09-22T14:55:33.635000Z</time>
      </trkpt>
      <trkpt lat="52.281384" lon="10.513072">
        <time>2026-09-22T14:55:39.635000Z</time>
      </trkpt>
      <trkpt lat="52.281068" lon="10.513062">
        <time>2026-09-22T14:55:54.735000Z</time>
      </trkpt>
      <trkpt lat="52.280784" lon="10.513081">
        <time>2026-09-22T14:56:06.735000Z</time>
      </trkpt>
      <trkpt lat="52.280449" lon="10.513082">
        <time>2026-09-22T14:56:21.735000Z</time>
      </trkpt>
      <trkpt lat="52.280108" lon="10.51307">
        <time>2026-09-22T14:56:36.735000Z</time>
      </trkpt>
      <trkpt lat="52.279917" lon="10.513113">
        <time>2026-09-22T14:56:45.735000Z</time>
      </trkpt>
      <trkpt lat="52.279767" lon="10.513089">
        <time>2026-09-22T14:56:51.735000Z</time>
      </trkpt>
      <trkpt lat="52.279586" lon="10.513146">
        <time>2026-09-22T14:56:57.735000Z</time>
      </trkpt>
      <trkpt lat="52.279264" lon="10.513117">
        <time>2026-09-22T14:57:09.735000Z</time>
      </trkpt>
      <trkpt lat="52.279115" lon="10.51316">
        <time>2026-09-22T14:57:15.735000Z</time>
      </trkpt>
      <trkpt lat="52.279031" lon="10.513123">
        <time>2026-09-22T14:57:18.735000Z</time>
      </trkpt>
      <trkpt lat="52.278865" lon="10.513111">
        <time>2026-09-22T14:57:24.735000Z</time>
      </trkpt>
      <trkpt lat="52.27859" lon="10.513178">
        <time>2026-09-22T14:57:33.735000Z</time>
      </trkpt>
      <trkpt lat="52.278503" lon="10.513221">
        <time>2026-09-22T14:57:36.735000Z</time>
      </trkpt>
      <trkpt lat="52.278417" lon="10.513223">
        <time>2026-09-22T14:57:39.735000Z</time>
      </trkpt>
      <trkpt lat="52.278112" lon="10.513113">
        <time>2026-09-22T14:57:51.735000Z</time>
      </trkpt>
      <trkpt lat="52.277787" lon="10.513139">
        <time>2026-09-22T14:58:03.735000Z</time>
      </trkpt>
      <trkpt lat="52.277606" lon="10.513085">
        <time>2026-09-22T14:58:12.735000Z</time>
      </trkpt>
      <trkpt lat="52.27728" lon="10.513141">
        <time>2026-09-22T14:58:24.735000Z</time>
      </trkpt>
      <trkpt lat="52.276995" lon="10.513167">
        <time>2026-09-22T14:58:36.735000Z</time>
      </trkpt>
      <trkpt lat="52.276673" lon="10.513168">
        <time>2026-09-22T14:58:51.735000Z</time>
      </trkpt>
      <trkpt lat="52.276389" lon="10.513172">
        <time>2026-09-22T14:59:06.735000Z</time>
      </trkpt>
      <trkpt lat="52.276116" lon="10.513183">
        <time>2026-09-22T14:59:18.735000Z</time>
      </trkpt>
      <trkpt lat="52.275987" lon="10.513202">
        <time>2026-09-22T14:59:24.735000Z</time>
      </trkpt>
      <trkpt lat="52.275875" lon="10.513144">
        <time>2026-09-22T14:59:30.735000Z</time>
      </trkpt>
      <trkpt lat="52.275814" lon="10.513136">
        <time>2026-09-22T14:59:33.735000Z</time>
      </trkpt>
      <trkpt lat="52.275533" lon="10.513312">
        <time>2026-09-22T14:59:48.735000Z</time>
      </trkpt>
      <trkpt lat="52.275242" lon="10.513512">
        <time>2026-09-22T15:00:00.735000Z</time>
      </trkpt>
      <trkpt lat="52.274977" lon="10.513611">
        <time>2026-09-22T15:00:12.735000Z</time>
      </trkpt>
      <trkpt lat="52.274719" lon="10.513771">
        <time>2026-09-22T15:00:24.735000Z</time>
      </trkpt>
      <trkpt lat="52.274659" lon="10.513809">
        <time>2026-09-22T15:00:27.735000Z</time>
      </trkpt>
      <trkpt lat="52.274494" lon="10.513721">
        <time>2026-09-22T15:00:36.735000Z</time>
      </trkpt>
      <trkpt lat="52.274359" lon="10.513725">
        <time>2026-09-22T15:00:42.735000Z</time>
      </trkpt>
      <trkpt lat="52.27407" lon="10.513865">
        <time>2026-09-22T15:00:57.835000Z</time>
      </trkpt>
      <trkpt lat="52.273746" lon="10.51404">
        <time>2026-09-22T15:01:12.835000Z</time>
      </trkpt>
      <trkpt lat="52.273494" lon="10.514374">
        <time>2026-09-22T15:01:27.835000Z</time>
      </trkpt>
      <trkpt lat="52.273298" lon="10.514797">
        <time>2026-09-22T15:01:42.835000Z</time>
      </trkpt>
      <trkpt lat="52.273292" lon="10.51488">
        <time>2026-09-22T15:01:45.835000Z</time>
      </trkpt>
      <trkpt lat="52.273203" lon="10.515174">
        <time>2026-09-22T15:01:54.835000Z</time>
      </trkpt>
      <trkpt lat="52.273159" lon="10.515522">
        <time>2026-09-22T15:02:06.835000Z</time>
      </trkpt>
      <trkpt lat="52.273158" lon="10.515645">
        <time>2026-09-22T15:02:09.835000Z</time>
      </trkpt>
      <trkpt lat="52.273233" lon="10.515899">
        <time>2026-09-22T15:02:18.835000Z</time>
      </trkpt>
      <trkpt lat="52.273254" lon="10.516146">
        <time>2026-09-22T15:02:24.835000Z</time>
      </trkpt>
      <trkpt lat="52.273215" lon="10.516466">
        <time>2026-09-22T15:02:33.835000Z</time>
      </trkpt>
      <trkpt lat="52.273232" lon="10.516562">
        <time>2026-09-22T15:02:36.835000Z</time>
      </trkpt>
      <trkpt lat="52.273229" lon="10.516776">
        <time>2026-09-22T15:02:42.835000Z</time>
      </trkpt>
      <trkpt lat="52.273197" lon="10.51688">
        <time>2026-09-22T15:02:45.835000Z</time>
      </trkpt>
      <trkpt lat="52.273188" lon="10.517163">
        <time>2026-09-22T15:02:57.835000Z</time>
      </trkpt>
      <trkpt lat="52.273168" lon="10.5173">
        <time>2026-09-22T15:03:00.835000Z</time>
      </trkpt>
      <trkpt lat="52.273104" lon="10.517491">
        <time>2026-09-22T15:03:06.835000Z</time>
      </trkpt>
      <trkpt lat="52.273094" lon="10.517606">
        <time>2026-09-22T15:03:09.835000Z</time>
      </trkpt>
      <trkpt lat="52.273123" lon="10.51795">
        <time>2026-09-22T15:03:18.835000Z</time>
      </trkpt>
      <trkpt lat="52.273147" lon="10.51804">
        <time>2026-09-22T15:03:21.835000Z</time>
      </trkpt>
      <trkpt lat="52.273106" lon="10.518423">
        <time>2026-09-22T15:03:30.835000Z</time>
      </trkpt>
      <trkpt lat="52.273121" lon="10.518785">
        <time>2026-09-22T15:03:39.835000Z</time>
      </trkpt>
      <trkpt lat="52.273262" lon="10.519264">
        <time>2026-09-22T15:03:54.835000Z</time>
      </trkpt>
      <trkpt lat="52.27325" lon="10.51934">
        <time>2026-09-22T15:03:57.835000Z</time>
      </trkpt>
      <trkpt lat="52.27312" lon="10.51952">
        <time>2026-09-22T15:04:06.835000Z</time>
      </trkpt>
      <trkpt lat="52.273048" lon="10.519758">
        <time>2026-09-22T15:04:12.835000Z</time>
      </trkpt>
      <trkpt lat="52.272886" lon="10.520121">
        <time>2026-09-22T15:04:24.835000Z</time>
      </trkpt>
      <trkpt lat="52.272822" lon="10.520289">
        <time>2026-09-22T15:04:30.835000Z</time>
      </trkpt>
      <trkpt lat="52.272679" lon="10.520719">
        <time>2026-09-22T15:04:45.835000Z</time>
      </trkpt>
      <trkpt lat="52.272552" lon="10.521048">
        <time>2026-09-22T15:04:57.835000Z</time>
      </trkpt>
      <trkpt lat="52.272496" lon="10.521131">
        <time>2026-09-22T15:05:00.835000Z</time>
      </trkpt>
      <trkpt lat="52.272383" lon="10.521556">
        <time>2026-09-22T15:05:12.935000Z</time>
      </trkpt>
      <trkpt lat="52.27223" lon="10.521949">
        <time>2026-09-22T15:05:24.935000Z</time>
      </trkpt>
      <trkpt lat="52.272149" lon="10.52216">
        <time>2026-09-22T15:05:30.935000Z</time>
      </trkpt>
      <trkpt lat="52.272098" lon="10.522242">
        <time>2026-09-22T15:05:33.935000Z</time>
      </trkpt>
      <trkpt lat="52.271919" lon="10.522325">
        <time>2026-09-22T15:05:42.935000Z</time>
      </trkpt>
      <trkpt lat="52.271875" lon="10.522275">
        <time>2026-09-22T15:05:45.935000Z</time>
      </trkpt>
      <trkpt lat="52.271739" lon="10.522236">
        <time>2026-09-22T15:05:51.935000Z</time>
      </trkpt>
      <trkpt lat="52.271651" lon="10.522147">
        <time>2026-09-22T15:05:57.935000Z</time>
      </trkpt>
      <trkpt lat="52.271559" lon="10.52203">
        <time>2026-09-22T15:06:03.935000Z</time>
      </trkpt>
      <trkpt lat="52.27144" lon="10.52206">
        <time>2026-09-22T15:06:09.935000Z</time>
      </trkpt>
      <trkpt lat="52.271378" lon="10.522104">
        <time>2026-09-22T15:06:12.935000Z</time>
      </trkpt>
      <trkpt lat="52.271267" lon="10.522273">
        <time>2026-09-22T15:06:18.935000Z</time>
      </trkpt>
      <trkpt lat="52.271017" lon="10.522419">
        <time>2026-09-22T15:06:30.935000Z</time>
      </trkpt>
      <trkpt lat="52.270827" lon="10.52244">
        <time>2026-09-22T15:06:39.935000Z</time>
      </trkpt>
      <trkpt lat="52.270706" lon="10.522478">
        <time>2026-09-22T15:06:45.935000Z</time>
      </trkpt>
      <trkpt lat="52.270476" lon="10.522838">
        <time>2026-09-22T15:06:57.935000Z</time>
      </trkpt>
      <trkpt lat="52.270356" lon="10.522973">
        <time>2026-09-22T15:07:03.935000Z</time>
      </trkpt>
      <trkpt lat="52.270172" lon="10.522983">
        <time>2026-09-22T15:07:12.935000Z</time>
      </trkpt>
      <trkpt lat="52.27006" lon="10.523063">
        <time>2026-09-22T15:07:19.035000Z</time>
      </trkpt>
      <trkpt lat="52.26998" lon="10.52305">
        <time>2026-09-22T15:07:24.935000Z</time>
      </trkpt>
    </trkseg>
  </trk>
</gpx>