<?xml version="1.0" encoding="UTF-8"?>
<gpx xmlns="http://www.topografix.com/GPX/1/1" xmlns:gpxtpx="http://www.garmin.com/xmlschemas/TrackPointExtension/v1" xmlns:xsi="http://www.w3.org/2001/XMLSchema-instance" xsi:schemaLocation="http://www.topografix.com/GPX/1/1 http://www.topografix.com/GPX/1/1/gpx.xsd" version="1.1" creator="gpx.py -- https://github.com/tkrajina/gpxpy">
  <trk>
    <name>gpx from keep</name>
    <type>Run</type>
    <trkseg>
      <trkpt lat="52.269793" lon="10.52288">
        <time>2026-10-05T14:15:24.905000Z</time>
      </trkpt>
      <trkpt lat="52.269825" lon="10.52268">
        <time>2026-10-05T14:15:28.505000Z</time>
      </trkpt>
      <trkpt lat="52.269885" lon="10.522727">
        <time>2026-10-05T14:15:34.505000Z</time>
      </trkpt>
      <trkpt lat="52.269883" lon="10.522884">
        <time>2026-10-05T14:15:40.505000Z</time>
      </trkpt>
      <trkpt lat="52.269903" lon="10.522981">
        <time>2026-10-05T14:15:43.505000Z</time>
      </trkpt>
      <trkpt lat="52.269952" lon="10.523059">
        <time>2026-10-05T14:15:46.505000Z</time>
      </trkpt>
      <trkpt lat="52.270017" lon="10.523086">
        <time>2026-10-05T14:15:49.505000Z</time>
      </trkpt>
      <trkpt lat="52.270223" lon="10.523012">
        <time>2026-10-05T14:15:58.505000Z</time>
      </trkpt>
      <trkpt lat="52.270373" lon="10.522865">
        <time>2026-10-05T14:16:04.505000Z</time>
      </trkpt>
      <trkpt lat="52.270468" lon="10.522671">
        <time>2026-10-05T14:16:10.505000Z</time>
      </trkpt>
      <trkpt lat="52.270554" lon="10.522619">
        <time>2026-10-05T14:16:13.505000Z</time>
      </trkpt>
      <trkpt lat="52.270638" lon="10.522614">
        <time>2026-10-05T14:16:16.505000Z</time>
      </trkpt>
      <trkpt lat="52.270893" lon="10.522454">
        <time>2026-10-05T14:16:28.505000Z</time>
      </trkpt>
      <trkpt lat="52.271195" lon="10.522336">
        <time>2026-10-05T14:16:40.505000Z</time>
      </trkpt>
      <trkpt lat="52.271324" lon="10.522216">
        <time>2026-10-05T14:16:46.505000Z</time>
      </trkpt>
      <trkpt lat="52.271465" lon="10.522011">
        <time>2026-10-05T14:16:55.505000Z</time>
      </trkpt>
      <trkpt lat="52.271518" lon="10.521964">
        <time>2026-10-05T14:16:58.505000Z</time>
      </trkpt>
      <trkpt lat="52.271582" lon="10.521947">
        <time>2026-10-05T14:17:01.505000Z</time>
      </trkpt>
      <trkpt lat="52.271636" lon="10.521966">
        <time>2026-10-05T14:17:04.505000Z</time>
      </trkpt>
      <trkpt lat="52.271794" lon="10.522222">
        <time>2026-10-05T14:17:13.505000Z</time>
      </trkpt>
      <trkpt lat="52.271905" lon="10.52232">
        <time>2026-10-05T14:17:19.505000Z</time>
      </trkpt>
      <trkpt lat="52.272013" lon="10.522287">
        <time>2026-10-05T14:17:25.505000Z</time>
      </trkpt>
      <trkpt lat="52.272084" lon="10.522233">
        <time>2026-10-05T14:17:28.505000Z</time>
      </trkpt>
      <trkpt lat="52.272141" lon="10.522138">
        <time>2026-10-05T14:17:31.505000Z</time>
      </trkpt>
      <trkpt lat="52.272286" lon="10.521702">
        <time>2026-10-05T14:17:43.505000Z</time>
      </trkpt>
      <trkpt lat="52.272429" lon="10.521286">
        <time>2026-10-05T14:17:55.505000Z</time>
      </trkpt>
      <trkpt lat="52.272588" lon="10.520884">
        <time>2026-10-05T14:18:07.605000Z</time>
      </trkpt>
      <trkpt lat="52.27275" lon="10.52048">
        <time>2026-10-05T14:18:19.605000Z</time>
      </trkpt>
      <trkpt lat="52.272928" lon="10.520038">
        <time>2026-10-05T14:18:34.605000Z</time>
      </trkpt>
      <trkpt lat="52.273088" lon="10.519601">
        <time>2026-10-05T14:18:49.605000Z</time>
      </trkpt>
      <trkpt lat="52.273133" lon="10.519339">
        <time>2026-10-05T14:18:58.605000Z</time>
      </trkpt>
      <trkpt lat="52.27304" lon="10.518893">
        <time>2026-10-05T14:19:13.605000Z</time>
      </trkpt>
      <trkpt lat="52.273013" lon="10.518756">
        <time>2026-10-05T14:19:16.605000Z</time>
      </trkpt>
      <trkpt lat="52.273016" lon="10.518621">
        <time>2026-10-05T14:19:19.605000Z</time>
      </trkpt>
      <trkpt lat="52.273071" lon="10.518234">
        <time>2026-10-05T14:19:28.605000Z</time>
      </trkpt>
      <trkpt lat="52.273127" lon="10.517732">
        <time>2026-10-05T14:19:40.605000Z</time>
      </trkpt>
      <trkpt lat="52.273152" lon="10.517623">
        <time>2026-10-05T14:19:43.605000Z</time>
      </trkpt>
      <trkpt lat="52.273184" lon="10.517207">
        <time>2026-10-05T14:19:55.605000Z</time>
      </trkpt>
      <trkpt lat="52.273233" lon="10.517041">
        <time>2026-10-05T14:20:01.605000Z</time>
      </trkpt>
      <trkpt lat="52.273234" lon="10.516524">
        <time>2026-10-05T14:20:13.605000Z</time>
      </trkpt>
      <trkpt lat="52.27323" lon="10.516421">
        <time>2026-10-05T14:20:16.605000Z</time>
      </trkpt>
      <trkpt lat="52.273294" lon="10.51604">
        <time>2026-10-05T14:20:28.605000Z</time>
      </trkpt>
      <trkpt lat="52.273284" lon="10.515944">
        <time>2026-10-05T14:20:31.605000Z</time>
      </trkpt>
      <trkpt lat="52.273251" lon="10.515849">
        <time>2026-10-05T14:20:34.605000Z</time>
      </trkpt>
      <trkpt lat="52.273151" lon="10.515711">
        <time>2026-10-05T14:20:40.605000Z</time>
      </trkpt>
      <trkpt lat="52.273224" lon="10.51523">
        <time>2026-10-05T14:20:58.605000Z</time>
      </trkpt>
      <trkpt lat="52.273283" lon="10.514951">
        <time>2026-10-05T14:21:07.605000Z</time>
      </trkpt>
      <trkpt lat="52.27346" lon="10.514588">
        <time>2026-10-05T14:21:22.705000Z</time>
      </trkpt>
      <trkpt lat="52.273654" lon="10.514263">
        <time>2026-10-05T14:21:34.705000Z</time>
      </trkpt>
      <trkpt lat="52.27385294543034" lon="10.514047669538634">
        <time>2026-10-05T14:21:46.705000Z</time>
      </trkpt>
      <trkpt lat="52.274125" lon="10.513897">
        <time>2026-10-05T14:21:58.705000Z</time>
      </trkpt>
      <trkpt lat="52.274319" lon="10.513782">
        <time>2026-10-05T14:22:07.705000Z</time>
      </trkpt>
      <trkpt lat="52.274391" lon="10.513767">
        <time>2026-10-05T14:22:10.705000Z</time>
      </trkpt>
      <trkpt lat="52.274595" lon="10.513847">
        <time>2026-10-05T14:22:22.705000Z</time>
      </trkpt>
      <trkpt lat="52.274928" lon="10.513684">
        <time>2026-10-05T14:22:37.705000Z</time>
      </trkpt>
      <trkpt lat="52.275212" lon="10.513558">
        <time>2026-10-05T14:22:49.705000Z</time>
      </trkpt>
      <trkpt lat="52.275498" lon="10.513386">
        <time>2026-10-05T14:23:04.705000Z</time>
      </trkpt>
      <trkpt lat="52.275679" lon="10.513285">
        <time>2026-10-05T14:23:13.705000Z</time>
      </trkpt>
      <trkpt lat="52.276015" lon="10.513249">
        <time>2026-10-05T14:23:25.705000Z</time>
      </trkpt>
      <trkpt lat="52.276292" lon="10.513228">
        <time>2026-10-05T14:23:37.705000Z</time>
      </trkpt>
      <trkpt lat="52.276613" lon="10.513222">
        <time>2026-10-05T14:23:52.705000Z</time>
      </trkpt>
      <trkpt lat="52.276906" lon="10.513224">
        <time>2026-10-05T14:24:04.705000Z</time>
      </trkpt>
      <trkpt lat="52.277191" lon="10.513198">
        <time>2026-10-05T14:24:16.705000Z</time>
      </trkpt>
      <trkpt lat="52.277494" lon="10.513171">
        <time>2026-10-05T14:24:31.705000Z</time>
      </trkpt>
      <trkpt lat="52.277794" lon="10.513151">
        <time>2026-10-05T14:24:46.705000Z</time>
      </trkpt>
      <trkpt lat="52.278028" lon="10.513199">
        <time>2026-10-05T14:24:58.705000Z</time>
      </trkpt>
      <trkpt lat="52.278316" lon="10.513168">
        <time>2026-10-05T14:25:10.805000Z</time>
      </trkpt>
      <trkpt lat="52.278636" lon="10.513185">
        <time>2026-10-05T14:25:25.805000Z</time>
      </trkpt>
      <trkpt lat="52.278904" lon="10.513134">
        <time>2026-10-05T14:25:37.805000Z</time>
      </trkpt>
      <trkpt lat="52.279192" lon="10.513102">
        <time>2026-10-05T14:25:49.805000Z</time>
      </trkpt>
      <trkpt lat="52.279305" lon="10.513131">
        <time>2026-10-05T14:25:55.805000Z</time>
      </trkpt>
      <trkpt lat="52.279642" lon="10.513135">
        <time>2026-10-05T14:26:10.805000Z</time>
      </trkpt>
      <trkpt lat="52.279926" lon="10.513116">
        <time>2026-10-05T14:26:22.805000Z</time>
      </trkpt>
      <trkpt lat="52.280212" lon="10.51312">
        <time>2026-10-05T14:26:37.805000Z</time>
      </trkpt>
      <trkpt lat="52.280277" lon="10.513106">
        <time>2026-10-05T14:26:40.805000Z</time>
      </trkpt>
      <trkpt lat="52.280618" lon="10.513144">
        <time>2026-10-05T14:26:58.805000Z</time>
      </trkpt>
      <trkpt lat="52.2809" lon="10.513138">
        <time>2026-10-05T14:27:10.805000Z</time>
      </trkpt>
      <trkpt lat="52.281207" lon="10.513126">
        <time>2026-10-05T14:27:25.805000Z</time>
      </trkpt>
      <trkpt lat="52.281502" lon="10.513133">
        <time>2026-10-05T14:27:40.805000Z</time>
      </trkpt>
      <trkpt lat="52.28164285094941" lon="10.51311326928203">
        <time>2026-10-05T14:27:46.805000Z</time>
      </trkpt>
      <trkpt lat="52.281921" lon="10.513112">
        <time>2026-10-05T14:27:58.805000Z</time>
      </trkpt>
      <trkpt lat="52.282227" lon="10.513096">
        <time>2026-10-05T14:28:13.805000Z</time>
      </trkpt>
      <trkpt lat="52.282546" lon="10.513094">
        <time>2026-10-05T14:28:31.905000Z</time>
      </trkpt>
      <trkpt lat="52.282878" lon="10.51309">
        <time>2026-10-05T14:28:46.905000Z</time>
      </trkpt>
      <trkpt lat="52.283184" lon="10.51309">
        <time>2026-10-05T14:28:58.905000Z</time>
      </trkpt>
      <trkpt lat="52.283488" lon="10.513086">
        <time>2026-10-05T14:29:10.905000Z</time>
      </trkpt>
      <trkpt lat="52.283849" lon="10.513064">
        <time>2026-10-05T14:29:25.905000Z</time>
      </trkpt>
      <trkpt lat="52.284151" lon="10.51308">
        <time>2026-10-05T14:29:40.905000Z</time>
      </trkpt>
      <trkpt lat="52.284453" lon="10.513062">
        <time>2026-10-05T14:29:52.905000Z</time>
      </trkpt>
      <trkpt lat="52.284783" lon="10.513069">
        <time>2026-10-05T14:30:07.905000Z</time>
      </trkpt>
      <trkpt lat="52.285098" lon="10.513072">
        <time>2026-10-05T14:30:23.005000Z</time>
      </trkpt>
      <trkpt lat="52.285405" lon="10.513046">
        <time>2026-10-05T14:30:38.005000Z</time>
      </trkpt>
      <trkpt lat="52.285689" lon="10.513044">
        <time>2026-10-05T14:30:53.005000Z</time>
      </trkpt>
      <trkpt lat="52.28598" lon="10.513008">
        <time>2026-10-05T14:31:08.005000Z</time>
      </trkpt>
      <trkpt lat="52.286292" lon="10.513019">
        <time>2026-10-05T14:31:20.005000Z</time>
      </trkpt>
      <trkpt lat="52.28659" lon="10.513026">
        <time>2026-10-05T14:31:32.005000Z</time>
      </trkpt>
      <trkpt lat="52.286895" lon="10.513044">
        <time>2026-10-05T14:31:47.005000Z</time>
      </trkpt>
      <trkpt lat="52.287179" lon="10.513093">
        <time>2026-10-05T14:31:59.005000Z</time>
      </trkpt>
      <trkpt lat="52.287465" lon="10.513101">
        <time>2026-10-05T14:32:11.005000Z</time>
      </trkpt>
      <trkpt lat="52.287819" lon="10.513124">
        <time>2026-10-05T14:32:29.005000Z</time>
      </trkpt>
      <trkpt lat="52.288103" lon="10.51316">
        <time>2026-10-05T14:32:53.005000Z</time>
      </trkpt>
      <trkpt lat="52.288373" lon="10.513183">
        <time>2026-10-05T14:33:17.005000Z</time>
      </trkpt>
      <trkpt lat="52.288631" lon="10.513138">
        <time>2026-10-05T14:33:32.005000Z</time>
      </trkpt>
      <trkpt lat="52.288756" lon="10.51306">
        <time>2026-10-05T14:33:38.005000Z</time>
      </trkpt>
      <trkpt lat="52.288963" lon="10.512709">
        <time>2026-10-05T14:33:53.005000Z</time>
      </trkpt>
      <trkpt lat="52.289019" lon="10.512285">
        <time>2026-10-05T14:34:05.005000Z</time>
      </trkpt>
      <trkpt lat="52.289052" lon="10.511837">
        <time>2026-10-05T14:34:17.005000Z</time>
      </trkpt>
      <trkpt lat="52.289053" lon="10.511283">
        <time>2026-10-05T14:34:32.005000Z</time>
      </trkpt>
      <trkpt lat="52.289048" lon="10.511064">
        <time>2026-10-05T14:34:38.005000Z</time>
      </trkpt>
      <trkpt lat="52.289102" lon="10.510715">
        <time>2026-10-05T14:34:47.005000Z</time>
      </trkpt>
      <trkpt lat="52.289074" lon="10.510218">
        <time>2026-10-05T14:34:59.005000Z</time>
      </trkpt>
      <trkpt lat="52.28905" lon="10.509759">
        <time>2026-10-05T14:35:11.005000Z</time>
      </trkpt>
      <trkpt lat="52.289028" lon="10.509315">
        <time>2026-10-05T14:35:23.005000Z</time>
      </trkpt>
      <trkpt lat="52.289022" lon="10.50887">
        <time>2026-10-05T14:35:35.005000Z</time>
      </trkpt>
      <trkpt lat="52.289063" lon="10.508331">
        <time>2026-10-05T14:35:50.005000Z</time>
      </trkpt>
      <trkpt lat="52.289157" lon="10.5078">
        <time>2026-10-05T14:36:05.005000Z</time>
      </trkpt>
      <trkpt lat="52.289247" lon="10.507269">
        <time>2026-10-05T14:36:20.005000Z</time>
      </trkpt>
      <trkpt lat="52.289334" lon="10.506768">
        <time>2026-10-05T14:36:35.105000Z</time>
      </trkpt>
      <trkpt lat="52.289432" lon="10.506338">
        <time>2026-10-05T14:36:50.105000Z</time>
      </trkpt>
      <trkpt lat="52.289566" lon="10.505853">
        <time>2026-10-05T14:37:05.105000Z</time>
      </trkpt>
      <trkpt lat="52.289731" lon="10.505409">
        <time>2026-10-05T14:37:20.105000Z</time>
      </trkpt>
      <trkpt lat="52.289832" lon="10.505254">
        <time>2026-10-05T14:37:26.105000Z</time>
      </trkpt>
      <trkpt lat="52.290079" lon="10.505067">
        <time>2026-10-05T14:37:38.105000Z</time>
      </trkpt>
      <trkpt lat="52.290325" lon="10.504808">
        <time>2026-10-05T14:37:50.105000Z</time>
      </trkpt>
      <trkpt lat="52.290508" lon="10.504521">
        <time>2026-10-05T14:38:02.105000Z</time>
      </trkpt>
      <trkpt lat="52.29063" lon="10.504234">
        <time>2026-10-05T14:38:11.105000Z</time>
      </trkpt>
      <trkpt lat="52.290661" lon="10.504112">
        <time>2026-10-05T14:38:14.105000Z</time>
      </trkpt>
      <trkpt lat="52.290616" lon="10.503633">
        <time>2026-10-05T14:38:26.105000Z</time>
      </trkpt>
      <trkpt lat="52.29059" lon="10.503527">
        <time>2026-10-05T14:38:29.105000Z</time>
      </trkpt>
      <trkpt lat="52.290422" lon="10.503247">
        <time>2026-10-05T14:38:38.105000Z</time>
      </trkpt>
      <trkpt lat="52.290169" lon="10.502983">
        <time>2026-10-05T14:38:50.105000Z</time>
      </trkpt>
      <trkpt lat="52.289945" lon="10.502793">
        <time>2026-10-05T14:39:02.105000Z</time>
      </trkpt>
      <trkpt lat="52.289781" lon="10.502578">
        <time>2026-10-05T14:39:14.105000Z</time>
      </trkpt>
      <trkpt lat="52.289727" lon="10.502535">
        <time>2026-10-05T14:39:17.105000Z</time>
      </trkpt>
      <trkpt lat="52.289463" lon="10.502628">
        <time>2026-10-05T14:39:29.105000Z</time>
      </trkpt>
      <trkpt lat="52.289292" lon="10.502668">
        <time>2026-10-05T14:39:35.105000Z</time>
      </trkpt>
      <trkpt lat="52.289204" lon="10.50266">
        <time>2026-10-05T14:39:38.105000Z</time>
      </trkpt>
      <trkpt lat="52.289137" lon="10.502598">
        <time>2026-10-05T14:39:41.105000Z</time>
      </trkpt>
      <trkpt lat="52.289073" lon="10.50244">
        <time>2026-10-05T14:39:47.105000Z</time>
      </trkpt>
      <trkpt lat="52.288947" lon="10.502048">
        <time>2026-10-05T14:39:59.105000Z</time>
      </trkpt>
      <trkpt lat="52.288782" lon="10.501668">
        <time>2026-10-05T14:40:11.105000Z</time>
      </trkpt>
      <trkpt lat="52.288571" lon="10.501279">
        <time>2026-10-05T14:40:26.105000Z</time>
      </trkpt>
      <trkpt lat="52.288325" lon="10.501065">
        <time>2026-10-05T14:40:38.105000Z</time>
      </trkpt>
      <trkpt lat="52.288039" lon="10.500951">
        <time>2026-10-05T14:40:53.105000Z</time>
      </trkpt>
      <trkpt lat="52.287902" lon="10.500955">
        <time>2026-10-05T14:40:59.105000Z</time>
      </trkpt>
      <trkpt lat="52.28775" lon="10.501071">
        <time>2026-10-05T14:41:05.105000Z</time>
      </trkpt>
      <trkpt lat="52.28752" lon="10.501372">
        <time>2026-10-05T14:41:17.105000Z</time>
      </trkpt>
      <trkpt lat="52.287341" lon="10.501718">
        <time>2026-10-05T14:41:29.105000Z</time>
      </trkpt>
      <trkpt lat="52.287247" lon="10.501893">
        <time>2026-10-05T14:41:35.105000Z</time>
      </trkpt>
      <trkpt lat="52.287098" lon="10.502388">
        <time>2026-10-05T14:41:50.105000Z</time>
      </trkpt>
      <trkpt lat="52.287014" lon="10.502813">
        <time>2026-10-05T14:42:02.105000Z</time>
      </trkpt>
      <trkpt lat="52.286943" lon="10.503329">
        <time>2026-10-05T14:42:17.205000Z</time>
      </trkpt>
      <trkpt lat="52.286831" lon="10.503798">
        <time>2026-10-05T14:42:32.205000Z</time>
      </trkpt>
      <trkpt lat="52.286734" lon="10.504296">
        <time>2026-10-05T14:42:47.205000Z</time>
      </trkpt>
      <trkpt lat="52.286695" lon="10.504528">
        <time>2026-10-05T14:42:53.205000Z</time>
      </trkpt>
      <trkpt lat="52.286678" lon="10.505043">
        <time>2026-10-05T14:43:05.205000Z</time>
      </trkpt>
      <trkpt lat="52.286694" lon="10.505523">
        <time>2026-10-05T14:43:17.205000Z</time>
      </trkpt>
      <trkpt lat="52.286722" lon="10.505979">
        <time>2026-10-05T14:43:32.205000Z</time>
      </trkpt>
      <trkpt lat="52.286725" lon="10.506459">
        <time>2026-10-05T14:43:47.205000Z</time>
      </trkpt>
      <trkpt lat="52.286723" lon="10.50691">
        <time>2026-10-05T14:43:59.205000Z</time>
      </trkpt>
      <trkpt lat="52.286733" lon="10.507385">
        <time>2026-10-05T14:44:11.205000Z</time>
      </trkpt>
      <trkpt lat="52.286717" lon="10.50767">
        <time>2026-10-05T14:44:20.205000Z</time>
      </trkpt>
      <trkpt lat="52.286588" lon="10.508075">
        <time>2026-10-05T14:44:35.205000Z</time>
      </trkpt>
      <trkpt lat="52.286497" lon="10.508394">
        <time>2026-10-05T14:44:44.205000Z</time>
      </trkpt>
      <trkpt lat="52.286452" lon="10.508754">
        <time>2026-10-05T14:44:53.205000Z</time>
      </trkpt>
      <trkpt lat="52.286475" lon="10.509239">
        <time>2026-10-05T14:45:05.205000Z</time>
      </trkpt>
      <trkpt lat="52.286522" lon="10.509751">
        <time>2026-10-05T14:45:20.205000Z</time>
      </trkpt>
      <trkpt lat="52.286567" lon="10.510282">
        <time>2026-10-05T14:45:35.205000Z</time>
      </trkpt>
      <trkpt lat="52.286603" lon="10.510618">
        <time>2026-10-05T14:45:44.205000Z</time>
      </trkpt>
      <trkpt lat="52.286488" lon="10.511088">
        <time>2026-10-05T14:46:02.205000Z</time>
      </trkpt>
      <trkpt lat="52.28636" lon="10.511533">
        <time>2026-10-05T14:46:17.305000Z</time>
      </trkpt>
      <trkpt lat="52.286216" lon="10.511938">
        <time>2026-10-05T14:46:29.305000Z</time>
      </trkpt>
      <trkpt lat="52.285997" lon="10.512353">
        <time>2026-10-05T14:46:44.305000Z</time>
      </trkpt>
      <trkpt lat="52.285767" lon="10.512752">
        <time>2026-10-05T14:46:59.305000Z</time>
      </trkpt>
      <trkpt lat="52.285621" lon="10.512965">
        <time>2026-10-05T14:47:08.305000Z</time>
      </trkpt>
      <trkpt lat="52.285572" lon="10.513001">
        <time>2026-10-05T14:47:11.305000Z</time>
      </trkpt>
      <trkpt lat="52.285297" lon="10.513007">
        <time>2026-10-05T14:47:23.305000Z</time>
      </trkpt>
      <trkpt lat="52.28496" lon="10.513012">
        <time>2026-10-05T14:47:38.305000Z</time>
      </trkpt>
      <trkpt lat="52.284675" lon="10.513021">
        <time>2026-10-05T14:47:50.305000Z</time>
      </trkpt>
      <trkpt lat="52.284348" lon="10.513024">
        <time>2026-10-05T14:48:05.305000Z</time>
      </trkpt>
      <trkpt lat="52.284032" lon="10.513037">
        <time>2026-10-05T14:48:20.305000Z</time>
      </trkpt>
      <trkpt lat="52.283703" lon="10.513039">
        <time>2026-10-05T14:48:35.305000Z</time>
      </trkpt>
      <trkpt lat="52.283376" lon="10.513046">
        <time>2026-10-05T14:48:50.305000Z</time>
      </trkpt>
      <trkpt lat="52.283052" lon="10.513053">
        <time>2026-10-05T14:49:05.305000Z</time>
      </trkpt>
      <trkpt lat="52.282713" lon="10.513043">
        <time>2026-10-05T14:49:20.305000Z</time>
      </trkpt>
      <trkpt lat="52.282378" lon="10.51304">
        <time>2026-10-05T14:49:35.305000Z</time>
      </trkpt>
      <trkpt lat="52.282104" lon="10.513064">
        <time>2026-10-05T14:49:47.305000Z</time>
      </trkpt>
      <trkpt lat="52.281775" lon="10.513069">
        <time>2026-10-05T14:50:02.305000Z</time>
      </trkpt>
      <trkpt lat="52.281505" lon="10.513085">
        <time>2026-10-05T14:50:14.305000Z</time>
      </trkpt>
      <trkpt lat="52.281229" lon="10.513107">
        <time>2026-10-05T14:50:26.405000Z</time>
      </trkpt>
      <trkpt lat="52.280943" lon="10.513103">
        <time>2026-10-05T14:50:38.405000Z</time>
      </trkpt>
      <trkpt lat="52.280646" lon="10.513104">
        <time>2026-10-05T14:50:50.405000Z</time>
      </trkpt>
      <trkpt lat="52.280348" lon="10.513123">
        <time>2026-10-05T14:51:02.405000Z</time>
      </trkpt>
      <trkpt lat="52.280048" lon="10.513136">
        <time>2026-10-05T14:51:14.405000Z</time>
      </trkpt>
      <trkpt lat="52.279772" lon="10.513118">
        <time>2026-10-05T14:51:29.405000Z</time>
      </trkpt>
      <trkpt lat="52.279479" lon="10.513184">
        <time>2026-10-05T14:51:41.405000Z</time>
      </trkpt>
      <trkpt lat="52.279178" lon="10.513172">
        <time>2026-10-05T14:51:53.405000Z</time>
      </trkpt>
      <trkpt lat="52.278886" lon="10.513166">
        <time>2026-10-05T14:52:05.405000Z</time>
      </trkpt>
      <trkpt lat="52.278611" lon="10.5132">
        <time>2026-10-05T14:52:17.405000Z</time>
      </trkpt>
      <trkpt lat="52.278464" lon="10.513221">
        <time>2026-10-05T14:52:23.405000Z</time>
      </trkpt>
      <trkpt lat="52.278149" lon="10.513152">
        <time>2026-10-05T14:52:35.405000Z</time>
      </trkpt>
      <trkpt lat="52.277844" lon="10.51315">
        <time>2026-10-05T14:52:47.405000Z</time>
      </trkpt>
      <trkpt lat="52.277529" lon="10.513143">
        <time>2026-10-05T14:53:02.405000Z</time>
      </trkpt>
      <trkpt lat="52.277195" lon="10.513124">
        <time>2026-10-05T14:53:17.405000Z</time>
      </trkpt>
      <trkpt lat="52.276869" lon="10.513168">
        <time>2026-10-05T14:53:32.405000Z</time>
      </trkpt>
      <trkpt lat="52.276597" lon="10.513167">
        <time>2026-10-05T14:53:44.405000Z</time>
      </trkpt>
      <trkpt lat="52.276327" lon="10.51318">
        <time>2026-10-05T14:53:56.405000Z</time>
      </trkpt>
      <trkpt lat="52.276025" lon="10.513194">
        <time>2026-10-05T14:54:11.405000Z</time>
      </trkpt>
      <trkpt lat="52.275803" lon="10.51321">
        <time>2026-10-05T14:54:20.505000Z</time>
      </trkpt>
      <trkpt lat="52.27551" lon="10.513357">
        <time>2026-10-05T14:54:35.505000Z</time>
      </trkpt>
      <trkpt lat="52.275248" lon="10.513465">
        <time>2026-10-05T14:54:47.505000Z</time>
      </trkpt>
      <trkpt lat="52.27495" lon="10.51364">
        <time>2026-10-05T14:54:59.505000Z</time>
      </trkpt>
      <trkpt lat="52.274665" lon="10.513815">
        <time>2026-10-05T14:55:11.505000Z</time>
      </trkpt>
      <trkpt lat="52.274593" lon="10.513838">
        <time>2026-10-05T14:55:14.505000Z</time>
      </trkpt>
      <trkpt lat="52.274417" lon="10.513723">
        <time>2026-10-05T14:55:23.505000Z</time>
      </trkpt>
      <trkpt lat="52.274356" lon="10.51371">
        <time>2026-10-05T14:55:26.505000Z</time>
      </trkpt>
      <trkpt lat="52.27409" lon="10.513869">
        <time>2026-10-05T14:55:41.505000Z</time>
      </trkpt>
      <trkpt lat="52.273788" lon="10.513985">
        <time>2026-10-05T14:55:56.505000Z</time>
      </trkpt>
      <trkpt lat="52.273619" lon="10.514148">
        <time>2026-10-05T14:56:05.505000Z</time>
      </trkpt>
      <trkpt lat="52.27345" lon="10.514377">
        <time>2026-10-05T14:56:14.505000Z</time>
      </trkpt>
      <trkpt lat="52.273339" lon="10.514607">
        <time>2026-10-05T14:56:23.505000Z</time>
      </trkpt>
      <trkpt lat="52.273222" lon="10.515033">
        <time>2026-10-05T14:56:35.505000Z</time>
      </trkpt>
      <trkpt lat="52.273155" lon="10.51534">
        <time>2026-10-05T14:56:44.505000Z</time>
      </trkpt>
      <trkpt lat="52.273118" lon="10.51562">
        <time>2026-10-05T14:56:53.505000Z</time>
      </trkpt>
      <trkpt lat="52.273139" lon="10.5157">
        <time>2026-10-05T14:56:56.505000Z</time>
      </trkpt>
      <trkpt lat="52.273182" lon="10.515741">
        <time>2026-10-05T14:56:59.505000Z</time>
      </trkpt>
      <trkpt lat="52.273191" lon="10.515839">
        <time>2026-10-05T14:57:02.505000Z</time>
      </trkpt>
      <trkpt lat="52.273178" lon="10.516163">
        <time>2026-10-05T14:57:11.505000Z</time>
      </trkpt>
      <trkpt lat="52.273188" lon="10.516678">
        <time>2026-10-05T14:57:26.505000Z</time>
      </trkpt>
      <trkpt lat="52.273165" lon="10.517057">
        <time>2026-10-05T14:57:38.605000Z</time>
      </trkpt>
      <trkpt lat="52.273119" lon="10.517407">
        <time>2026-10-05T14:57:47.605000Z</time>
      </trkpt>
      <trkpt lat="52.2731" lon="10.517989">
        <time>2026-10-05T14:57:59.605000Z</time>
      </trkpt>
      <trkpt lat="52.273073" lon="10.518525">
        <time>2026-10-05T14:58:14.605000Z</time>
      </trkpt>
      <trkpt lat="52.273052" lon="10.518745">
        <time>2026-10-05T14:58:20.605000Z</time>
      </trkpt>
      <trkpt lat="52.273072" lon="10.518986">
        <time>2026-10-05T14:58:29.605000Z</time>
      </trkpt>
      <trkpt lat="52.273158" lon="10.519264">
        <time>2026-10-05T14:58:38.605000Z</time>
      </trkpt>
      <trkpt lat="52.273168" lon="10.519368">
        <time>2026-10-05T14:58:41.605000Z</time>
      </trkpt>
      <trkpt lat="52.27301" lon="10.519778">
        <time>2026-10-05T14:58:56.605000Z</time>
      </trkpt>
      <trkpt lat="52.272836" lon="10.520233">
        <time>2026-10-05T14:59:11.605000Z</time>
      </trkpt>
      <trkpt lat="52.272672" lon="10.520668">
        <time>2026-10-05T14:59:26.605000Z</time>
      </trkpt>
      <trkpt lat="52.272517" lon="10.521112">
        <time>2026-10-05T14:59:41.605000Z</time>
      </trkpt>
      <trkpt lat="52.272369" lon="10.521525">
        <time>2026-10-05T14:59:56.605000Z</time>
      </trkpt>
      <trkpt lat="52.272218" lon="10.521945">
        <time>2026-10-05T15:00:08.605000Z</time>
      </trkpt>
      <trkpt lat="52.272074" lon="10.522288">
        <time>2026-10-05T15:00:20.605000Z</time>
      </trkpt>
      <trkpt lat="52.271961" lon="10.522374">
        <time>2026-10-05T15:00:26.605000Z</time>
      </trkpt>
      <trkpt lat="52.271915" lon="10.522361">
        <time>2026-10-05T15:00:29.605000Z</time>
      </trkpt>
      <trkpt lat="52.271873" lon="10.522315">
        <time>2026-10-05T15:00:32.605000Z</time>
      </trkpt>
      <trkpt lat="52.271717" lon="10.522244">
        <time>2026-10-05T15:00:38.605000Z</time>
      </trkpt>
      <trkpt lat="52.271585" lon="10.522069">
        <time>2026-10-05T15:00:47.605000Z</time>
      </trkpt>
      <trkpt lat="52.271522" lon="10.522028">
        <time>2026-10-05T15:00:50.605000Z</time>
      </trkpt>
      <trkpt lat="52.271391" lon="10.522137">
        <time>2026-10-05T15:00:56.605000Z</time>
      </trkpt>
      <trkpt lat="52.271204" lon="10.522349">
        <time>2026-10-05T15:01:05.705000Z</time>
      </trkpt>
      <trkpt lat="52.271015" lon="10.522439">
        <time>2026-10-05T15:01:14.705000Z</time>
      </trkpt>
      <trkpt lat="52.270865" lon="10.522464">
        <time>2026-10-05T15:01:20.705000Z</time>
      </trkpt>
      <trkpt lat="52.270678" lon="10.522563">
        <time>2026-10-05T15:01:29.705000Z</time>
      </trkpt>
      <trkpt lat="52.270407" lon="10.522821">
        <time>2026-10-05T15:01:44.705000Z</time>
      </trkpt>
      <trkpt lat="52.270155" lon="10.52298">
        <time>2026-10-05T15:01:56.705000Z</time>
      </trkpt>
      <trkpt lat="52.270023" lon="10.522997">
        <time>2026-10-05T15:02:02.705000Z</time>
      </trkpt>
      <trkpt lat="52.269978" lon="10.52297">
        <time>2026-10-05T15:02:05.705000Z</time>
      </trkpt>
      <trkpt lat="52.26993" lon="10.522898">
        <time>2026-10-05T15:02:11.705000Z</time>
      </trkpt>
    </trkseg>
  </trk>
</gpx>