<?xml version="1.0" encoding="UTF-8"?>
<gpx xmlns="http://www.topografix.com/GPX/1/1" xmlns:gpxtpx="http://www.garmin.com/xmlschemas/TrackPointExtension/v1" xmlns:xsi="http://www.w3.org/2001/XMLSchema-instance" xsi:schemaLocation="http://www.topografix.com/GPX/1/1 http://www.topografix.com/GPX/1/1/gpx.xsd" version="1.1" creator="gpx.py -- https://github.com/tkrajina/gpxpy">
  <trk>
    <name>gpx from keep</name>
    <type>Run</type>
    <trkseg>
      <trkpt lat="52.270016" lon="10.52323">
        <time>2026-08-04T09:14:34.878000Z</time>
      </trkpt>
      <trkpt lat="52.270126" lon="10.523198">
        <time>2026-08-04T09:14:34.878000Z</time>
      </trkpt>
      <trkpt lat="52.270283" lon="10.523016">
        <time>2026-08-04T09:14:34.978000Z</time>
      </trkpt>
      <trkpt lat="52.270352" lon="10.522904">
        <time>2026-08-04T09:14:35.078000Z</time>
      </trkpt>
      <trkpt lat="52.270501" lon="10.522723">
        <time>2026-08-04T09:14:35.078000Z</time>
      </trkpt>
      <trkpt lat="52.270599" lon="10.522688">
        <time>2026-08-04T09:14:35.178000Z</time>
      </trkpt>
      <trkpt lat="52.270734" lon="10.522694">
        <time>2026-08-04T09:14:35.178000Z</time>
      </trkpt>
      <trkpt lat="52.270799" lon="10.522642">
        <time>2026-08-04T09:14:35.278000Z</time>
      </trkpt>
      <trkpt lat="52.270883" lon="10.522516">
        <time>2026-08-04T09:14:35.278000Z</time>
      </trkpt>
      <trkpt lat="52.271193" lon="10.522328">
        <time>2026-08-04T09:14:35.478000Z</time>
      </trkpt>
      <trkpt lat="52.271338" lon="10.522201">
        <time>2026-08-04T09:14:35.478000Z</time>
      </trkpt>
      <trkpt lat="52.271417" lon="10.522042">
        <time>2026-08-04T09:14:35.578000Z</time>
      </trkpt>
      <trkpt lat="52.271463" lon="10.522006">
        <time>2026-08-04T09:14:35.578000Z</time>
      </trkpt>
      <trkpt lat="52.27158" lon="10.522122">
        <time>2026-08-04T09:14:35.678000Z</time>
      </trkpt>
      <trkpt lat="52.271604" lon="10.522185">
        <time>2026-08-04T09:14:35.778000Z</time>
      </trkpt>
      <trkpt lat="52.271682" lon="10.522284">
        <time>2026-08-04T09:14:35.778000Z</time>
      </trkpt>
      <trkpt lat="52.271735" lon="10.522311">
        <time>2026-08-04T09:14:35.878000Z</time>
      </trkpt>
      <trkpt lat="52.271921" lon="10.522245">
        <time>2026-08-04T09:14:35.978000Z</time>
      </trkpt>
      <trkpt lat="52.271996" lon="10.522172">
        <time>2026-08-04T09:14:35.978000Z</time>
      </trkpt>
      <trkpt lat="52.272196" lon="10.521743">
        <time>2026-08-04T09:14:36.078000Z</time>
      </trkpt>
      <trkpt lat="52.272372" lon="10.52149">
        <time>2026-08-04T09:14:36.178000Z</time>
      </trkpt>
      <trkpt lat="52.272518" lon="10.521103">
        <time>2026-08-04T09:14:36.278000Z</time>
      </trkpt>
      <trkpt lat="52.272661" lon="10.520687">
        <time>2026-08-04T09:14:36.378000Z</time>
      </trkpt>
      <trkpt lat="52.272787" lon="10.520394">
        <time>2026-08-04T09:14:36.478000Z</time>
      </trkpt>
      <trkpt lat="52.272823" lon="10.520257">
        <time>2026-08-04T09:14:36.578000Z</time>
      </trkpt>
      <trkpt lat="52.272985" lon="10.519846">
        <time>2026-08-04T09:14:36.678000Z</time>
      </trkpt>
      <trkpt lat="52.273007" lon="10.519717">
        <time>2026-08-04T09:14:36.678000Z</time>
      </trkpt>
      <trkpt lat="52.27305" lon="10.519636">
        <time>2026-08-04T09:14:36.678000Z</time>
      </trkpt>
      <trkpt lat="52.273072" lon="10.51949">
        <time>2026-08-04T09:14:36.778000Z</time>
      </trkpt>
      <trkpt lat="52.273152" lon="10.519313">
        <time>2026-08-04T09:14:36.878000Z</time>
      </trkpt>
      <trkpt lat="52.273165" lon="10.51923">
        <time>2026-08-04T09:14:36.878000Z</time>
      </trkpt>
      <trkpt lat="52.27312361150472" lon="10.518953452639916">
        <time>2026-08-04T09:14:36.978000Z</time>
      </trkpt>
      <trkpt lat="52.27312851886953" lon="10.518842638961205">
        <time>2026-08-04T09:14:36.978000Z</time>
      </trkpt>
      <trkpt lat="52.273077" lon="10.51852">
        <time>2026-08-04T09:14:37.078000Z</time>
      </trkpt>
      <trkpt lat="52.273087" lon="10.518134">
        <time>2026-08-04T09:14:37.178000Z</time>
      </trkpt>
      <trkpt lat="52.27311932421096" lon="10.518020422761117">
        <time>2026-08-04T09:14:37.278000Z</time>
      </trkpt>
      <trkpt lat="52.273132" lon="10.517574">
        <time>2026-08-04T09:14:37.278000Z</time>
      </trkpt>
      <trkpt lat="52.273105" lon="10.517403">
        <time>2026-08-04T09:14:37.378000Z</time>
      </trkpt>
      <trkpt lat="52.273211" lon="10.517076">
        <time>2026-08-04T09:14:37.478000Z</time>
      </trkpt>
      <trkpt lat="52.273235888265525" lon="10.516651435314408">
        <time>2026-08-04T09:14:37.578000Z</time>
      </trkpt>
      <trkpt lat="52.27318937420027" lon="10.51641304803856">
        <time>2026-08-04T09:14:37.678000Z</time>
      </trkpt>
      <trkpt lat="52.273183" lon="10.516161">
        <time>2026-08-04T09:14:37.678000Z</time>
      </trkpt>
      <trkpt lat="52.27321652746786" lon="10.516033363981947">
        <time>2026-08-04T09:14:37.678000Z</time>
      </trkpt>
      <trkpt lat="52.273227661758646" lon="10.515920042859298">
        <time>2026-08-04T09:14:37.778000Z</time>
      </trkpt>
      <trkpt lat="52.273254" lon="10.515847">
        <time>2026-08-04T09:14:37.778000Z</time>
      </trkpt>
      <trkpt lat="52.273184" lon="10.515752">
        <time>2026-08-04T09:14:37.878000Z</time>
      </trkpt>
      <trkpt lat="52.273195" lon="10.515646">
        <time>2026-08-04T09:14:37.878000Z</time>
      </trkpt>
      <trkpt lat="52.273261" lon="10.515464">
        <time>2026-08-04T09:14:37.978000Z</time>
      </trkpt>
      <trkpt lat="52.27331799935691" lon="10.51496040949722">
        <time>2026-08-04T09:14:38.078000Z</time>
      </trkpt>
      <trkpt lat="52.273456" lon="10.514518">
        <time>2026-08-04T09:14:38.278000Z</time>
      </trkpt>
      <trkpt lat="52.273686" lon="10.514187">
        <time>2026-08-04T09:14:38.378000Z</time>
      </trkpt>
      <trkpt lat="52.273724" lon="10.514131">
        <time>2026-08-04T09:14:38.378000Z</time>
      </trkpt>
      <trkpt lat="52.27377920593196" lon="10.514091541178997">
        <time>2026-08-04T09:14:38.478000Z</time>
      </trkpt>
      <trkpt lat="52.27382297207516" lon="10.514083546270529">
        <time>2026-08-04T09:14:38.478000Z</time>
      </trkpt>
      <trkpt lat="52.274106" lon="10.51389">
        <time>2026-08-04T09:14:38.578000Z</time>
      </trkpt>
      <trkpt lat="52.274267" lon="10.513759">
        <time>2026-08-04T09:14:38.678000Z</time>
      </trkpt>
      <trkpt lat="52.274339" lon="10.513739">
        <time>2026-08-04T09:14:38.678000Z</time>
      </trkpt>
      <trkpt lat="52.274567" lon="10.513857">
        <time>2026-08-04T09:14:38.778000Z</time>
      </trkpt>
      <trkpt lat="52.274631" lon="10.513848">
        <time>2026-08-04T09:14:38.778000Z</time>
      </trkpt>
      <trkpt lat="52.274919" lon="10.513685">
        <time>2026-08-04T09:14:38.978000Z</time>
      </trkpt>
      <trkpt lat="52.275102" lon="10.513592">
        <time>2026-08-04T09:14:39.078000Z</time>
      </trkpt>
      <trkpt lat="52.275164" lon="10.513523">
        <time>2026-08-04T09:14:39.078000Z</time>
      </trkpt>
      <trkpt lat="52.275463" lon="10.513341">
        <time>2026-08-04T09:14:39.278000Z</time>
      </trkpt>
      <trkpt lat="52.275637" lon="10.513262">
        <time>2026-08-04T09:14:39.378000Z</time>
      </trkpt>
      <trkpt lat="52.275952" lon="10.513191">
        <time>2026-08-04T09:14:39.478000Z</time>
      </trkpt>
      <trkpt lat="52.276097" lon="10.513174">
        <time>2026-08-04T09:14:39.578000Z</time>
      </trkpt>
      <trkpt lat="52.276381" lon="10.51316">
        <time>2026-08-04T09:14:39.678000Z</time>
      </trkpt>
      <trkpt lat="52.276661" lon="10.513182">
        <time>2026-08-04T09:14:39.778000Z</time>
      </trkpt>
      <trkpt lat="52.276952" lon="10.513202">
        <time>2026-08-04T09:14:39.878000Z</time>
      </trkpt>
      <trkpt lat="52.277251" lon="10.51317">
        <time>2026-08-04T09:14:40.078000Z</time>
      </trkpt>
      <trkpt lat="52.277581" lon="10.513173">
        <time>2026-08-04T09:14:40.178000Z</time>
      </trkpt>
      <trkpt lat="52.277857" lon="10.513156">
        <time>2026-08-04T09:14:40.378000Z</time>
      </trkpt>
      <trkpt lat="52.278167" lon="10.513164">
        <time>2026-08-04T09:14:40.478000Z</time>
      </trkpt>
      <trkpt lat="52.278505" lon="10.513216">
        <time>2026-08-04T09:14:40.678000Z</time>
      </trkpt>
      <trkpt lat="52.278778" lon="10.513213">
        <time>2026-08-04T09:14:40.778000Z</time>
      </trkpt>
      <trkpt lat="52.278948" lon="10.513158">
        <time>2026-08-04T09:14:40.878000Z</time>
      </trkpt>
      <trkpt lat="52.279129" lon="10.513202">
        <time>2026-08-04T09:14:40.978000Z</time>
      </trkpt>
      <trkpt lat="52.279452" lon="10.513204">
        <time>2026-08-04T09:14:41.078000Z</time>
      </trkpt>
      <trkpt lat="52.279512" lon="10.51322">
        <time>2026-08-04T09:14:41.078000Z</time>
      </trkpt>
      <trkpt lat="52.279743" lon="10.513152">
        <time>2026-08-04T09:14:41.178000Z</time>
      </trkpt>
      <trkpt lat="52.280093" lon="10.513143">
        <time>2026-08-04T09:14:41.378000Z</time>
      </trkpt>
      <trkpt lat="52.280434" lon="10.513125">
        <time>2026-08-04T09:14:41.478000Z</time>
      </trkpt>
      <trkpt lat="52.280763" lon="10.513128">
        <time>2026-08-04T09:14:41.678000Z</time>
      </trkpt>
      <trkpt lat="52.281037" lon="10.513122">
        <time>2026-08-04T09:14:41.778000Z</time>
      </trkpt>
      <trkpt lat="52.281354" lon="10.513107">
        <time>2026-08-04T09:14:41.978000Z</time>
      </trkpt>
      <trkpt lat="52.28166" lon="10.513096">
        <time>2026-08-04T09:14:42.078000Z</time>
      </trkpt>
      <trkpt lat="52.281974" lon="10.513095">
        <time>2026-08-04T09:14:42.278000Z</time>
      </trkpt>
      <trkpt lat="52.2823" lon="10.51309">
        <time>2026-08-04T09:14:42.478000Z</time>
      </trkpt>
      <trkpt lat="52.282583" lon="10.513088">
        <time>2026-08-04T09:14:42.578000Z</time>
      </trkpt>
      <trkpt lat="52.282872" lon="10.513075">
        <time>2026-08-04T09:14:42.778000Z</time>
      </trkpt>
      <trkpt lat="52.283155" lon="10.513076">
        <time>2026-08-04T09:14:42.878000Z</time>
      </trkpt>
      <trkpt lat="52.283482" lon="10.513067">
        <time>2026-08-04T09:14:42.978000Z</time>
      </trkpt>
      <trkpt lat="52.283815" lon="10.513062">
        <time>2026-08-04T09:14:43.178000Z</time>
      </trkpt>
      <trkpt lat="52.284156" lon="10.513066">
        <time>2026-08-04T09:14:43.278000Z</time>
      </trkpt>
      <trkpt lat="52.284445" lon="10.513051">
        <time>2026-08-04T09:14:43.478000Z</time>
      </trkpt>
      <trkpt lat="52.284724" lon="10.513054">
        <time>2026-08-04T09:14:43.578000Z</time>
      </trkpt>
      <trkpt lat="52.28504" lon="10.51305">
        <time>2026-08-04T09:14:43.778000Z</time>
      </trkpt>
      <trkpt lat="52.285371" lon="10.51304">
        <time>2026-08-04T09:14:43.878000Z</time>
      </trkpt>
      <trkpt lat="52.285651" lon="10.513046">
        <time>2026-08-04T09:14:44.078000Z</time>
      </trkpt>
      <trkpt lat="52.285925" lon="10.513043">
        <time>2026-08-04T09:14:44.178000Z</time>
      </trkpt>
      <trkpt lat="52.286195" lon="10.51303">
        <time>2026-08-04T09:14:44.278000Z</time>
      </trkpt>
      <trkpt lat="52.286477" lon="10.513024">
        <time>2026-08-04T09:14:44.478000Z</time>
      </trkpt>
      <trkpt lat="52.286751" lon="10.513035">
        <time>2026-08-04T09:14:44.578000Z</time>
      </trkpt>
      <trkpt lat="52.28705" lon="10.513073">
        <time>2026-08-04T09:14:44.778000Z</time>
      </trkpt>
      <trkpt lat="52.287331" lon="10.513086">
        <time>2026-08-04T09:14:44.878000Z</time>
      </trkpt>
      <trkpt lat="52.287619" lon="10.513109">
        <time>2026-08-04T09:14:44.978000Z</time>
      </trkpt>
      <trkpt lat="52.287901" lon="10.513132">
        <time>2026-08-04T09:14:45.078000Z</time>
      </trkpt>
      <trkpt lat="52.288176" lon="10.513166">
        <time>2026-08-04T09:14:45.178000Z</time>
      </trkpt>
      <trkpt lat="52.288506" lon="10.513174">
        <time>2026-08-04T09:14:45.378000Z</time>
      </trkpt>
      <trkpt lat="52.288703" lon="10.513117">
        <time>2026-08-04T09:14:45.478000Z</time>
      </trkpt>
      <trkpt lat="52.288815" lon="10.513016">
        <time>2026-08-04T09:14:45.478000Z</time>
      </trkpt>
      <trkpt lat="52.288943" lon="10.512788">
        <time>2026-08-04T09:14:45.578000Z</time>
      </trkpt>
      <trkpt lat="52.289044" lon="10.512266">
        <time>2026-08-04T09:14:45.778000Z</time>
      </trkpt>
      <trkpt lat="52.289075" lon="10.511719">
        <time>2026-08-04T09:33:04.878000Z</time>
      </trkpt>
      <trkpt lat="52.289075" lon="10.511209">
        <time>2026-08-04T09:33:19.878000Z</time>
      </trkpt>
      <trkpt lat="52.289082" lon="10.510997">
        <time>2026-08-04T09:33:25.878000Z</time>
      </trkpt>
      <trkpt lat="52.28911" lon="10.510795">
        <time>2026-08-04T09:33:31.878000Z</time>
      </trkpt>
      <trkpt lat="52.289093" lon="10.510351">
        <time>2026-08-04T09:33:43.878000Z</time>
      </trkpt>
      <trkpt lat="52.289093" lon="10.509824">
        <time>2026-08-04T09:33:55.978000Z</time>
      </trkpt>
      <trkpt lat="52.289095" lon="10.5095">
        <time>2026-08-04T09:34:01.978000Z</time>
      </trkpt>
      <trkpt lat="52.289068" lon="10.508935">
        <time>2026-08-04T09:34:10.978000Z</time>
      </trkpt>
      <trkpt lat="52.289092" lon="10.508381">
        <time>2026-08-04T09:34:28.978000Z</time>
      </trkpt>
      <trkpt lat="52.289163" lon="10.507936">
        <time>2026-08-04T09:34:46.978000Z</time>
      </trkpt>
      <trkpt lat="52.289229" lon="10.507457">
        <time>2026-08-04T09:34:58.978000Z</time>
      </trkpt>
      <trkpt lat="52.289302" lon="10.506996">
        <time>2026-08-04T09:35:10.978000Z</time>
      </trkpt>
      <trkpt lat="52.289377" lon="10.506521">
        <time>2026-08-04T09:35:22.978000Z</time>
      </trkpt>
      <trkpt lat="52.289485" lon="10.506109">
        <time>2026-08-04T09:35:34.978000Z</time>
      </trkpt>
      <trkpt lat="52.28959" lon="10.505697">
        <time>2026-08-04T09:35:46.978000Z</time>
      </trkpt>
      <trkpt lat="52.289768" lon="10.505346">
        <time>2026-08-04T09:36:01.978000Z</time>
      </trkpt>
      <trkpt lat="52.289858" lon="10.505242">
        <time>2026-08-04T09:36:07.978000Z</time>
      </trkpt>
      <trkpt lat="52.290134" lon="10.505058">
        <time>2026-08-04T09:36:22.978000Z</time>
      </trkpt>
      <trkpt lat="52.290241" lon="10.50494">
        <time>2026-08-04T09:36:28.978000Z</time>
      </trkpt>
      <trkpt lat="52.290432" lon="10.504609">
        <time>2026-08-04T09:36:40.978000Z</time>
      </trkpt>
      <trkpt lat="52.290627" lon="10.504195">
        <time>2026-08-04T09:36:55.978000Z</time>
      </trkpt>
      <trkpt lat="52.290654" lon="10.504093">
        <time>2026-08-04T09:36:58.978000Z</time>
      </trkpt>
      <trkpt lat="52.290632" lon="10.50369">
        <time>2026-08-04T09:37:10.978000Z</time>
      </trkpt>
      <trkpt lat="52.290476" lon="10.503326">
        <time>2026-08-04T09:37:25.978000Z</time>
      </trkpt>
      <trkpt lat="52.290227" lon="10.503072">
        <time>2026-08-04T09:37:43.978000Z</time>
      </trkpt>
      <trkpt lat="52.289993" lon="10.502829">
        <time>2026-08-04T09:37:58.978000Z</time>
      </trkpt>
      <trkpt lat="52.289806" lon="10.502623">
        <time>2026-08-04T09:38:11.078000Z</time>
      </trkpt>
      <trkpt lat="52.289752" lon="10.502588">
        <time>2026-08-04T09:38:14.078000Z</time>
      </trkpt>
      <trkpt lat="52.28946" lon="10.502684">
        <time>2026-08-04T09:38:29.078000Z</time>
      </trkpt>
      <trkpt lat="52.289264" lon="10.502689">
        <time>2026-08-04T09:38:38.078000Z</time>
      </trkpt>
      <trkpt lat="52.289209" lon="10.502643">
        <time>2026-08-04T09:38:41.078000Z</time>
      </trkpt>
      <trkpt lat="52.289013" lon="10.50221">
        <time>2026-08-04T09:38:56.078000Z</time>
      </trkpt>
      <trkpt lat="52.288834" lon="10.501764">
        <time>2026-08-04T09:39:11.078000Z</time>
      </trkpt>
      <trkpt lat="52.288648" lon="10.501388">
        <time>2026-08-04T09:39:26.078000Z</time>
      </trkpt>
      <trkpt lat="52.288421" lon="10.501137">
        <time>2026-08-04T09:39:38.078000Z</time>
      </trkpt>
      <trkpt lat="52.288307" lon="10.501052">
        <time>2026-08-04T09:39:44.078000Z</time>
      </trkpt>
      <trkpt lat="52.288011" lon="10.500965">
        <time>2026-08-04T09:39:59.078000Z</time>
      </trkpt>
      <trkpt lat="52.287887" lon="10.500963">
        <time>2026-08-04T09:40:05.078000Z</time>
      </trkpt>
      <trkpt lat="52.287633" lon="10.501258">
        <time>2026-08-04T09:40:20.078000Z</time>
      </trkpt>
      <trkpt lat="52.287486" lon="10.501477">
        <time>2026-08-04T09:40:29.078000Z</time>
      </trkpt>
      <trkpt lat="52.287302" lon="10.501909">
        <time>2026-08-04T09:40:44.078000Z</time>
      </trkpt>
      <trkpt lat="52.287165" lon="10.502302">
        <time>2026-08-04T09:40:56.178000Z</time>
      </trkpt>
      <trkpt lat="52.287054" lon="10.50275">
        <time>2026-08-04T09:41:11.178000Z</time>
      </trkpt>
      <trkpt lat="52.286974" lon="10.503224">
        <time>2026-08-04T09:41:23.178000Z</time>
      </trkpt>
      <trkpt lat="52.28687" lon="10.503674">
        <time>2026-08-04T09:41:41.178000Z</time>
      </trkpt>
      <trkpt lat="52.286791" lon="10.50411">
        <time>2026-08-04T09:41:56.178000Z</time>
      </trkpt>
      <trkpt lat="52.28675407276541" lon="10.504303672275224">
        <time>2026-08-04T09:42:02.178000Z</time>
      </trkpt>
      <trkpt lat="52.286731" lon="10.504817">
        <time>2026-08-04T09:42:17.178000Z</time>
      </trkpt>
      <trkpt lat="52.286745" lon="10.505329">
        <time>2026-08-04T09:42:32.178000Z</time>
      </trkpt>
      <trkpt lat="52.286786" lon="10.505835">
        <time>2026-08-04T09:42:47.178000Z</time>
      </trkpt>
      <trkpt lat="52.286804" lon="10.506454">
        <time>2026-08-04T09:43:02.178000Z</time>
      </trkpt>
      <trkpt lat="52.28678" lon="10.50692">
        <time>2026-08-04T09:43:14.178000Z</time>
      </trkpt>
      <trkpt lat="52.286744" lon="10.507361">
        <time>2026-08-04T09:43:26.178000Z</time>
      </trkpt>
      <trkpt lat="52.286756" lon="10.507557">
        <time>2026-08-04T09:43:32.178000Z</time>
      </trkpt>
      <trkpt lat="52.286633" lon="10.50798">
        <time>2026-08-04T09:43:47.178000Z</time>
      </trkpt>
      <trkpt lat="52.286515" lon="10.508438">
        <time>2026-08-04T09:44:02.178000Z</time>
      </trkpt>
      <trkpt lat="52.286482" lon="10.508739">
        <time>2026-08-04T09:44:11.178000Z</time>
      </trkpt>
      <trkpt lat="52.286531" lon="10.509204">
        <time>2026-08-04T09:44:26.178000Z</time>
      </trkpt>
      <trkpt lat="52.286597" lon="10.509847">
        <time>2026-08-04T09:44:35.178000Z</time>
      </trkpt>
      <trkpt lat="52.286629" lon="10.510312">
        <time>2026-08-04T09:44:41.178000Z</time>
      </trkpt>
      <trkpt lat="52.286644" lon="10.510566">
        <time>2026-08-04T09:44:47.178000Z</time>
      </trkpt>
      <trkpt lat="52.286571" lon="10.510912">
        <time>2026-08-04T09:45:02.178000Z</time>
      </trkpt>
      <trkpt lat="52.28643" lon="10.511366">
        <time>2026-08-04T09:45:20.178000Z</time>
      </trkpt>
      <trkpt lat="52.286295" lon="10.511809">
        <time>2026-08-04T09:45:35.178000Z</time>
      </trkpt>
      <trkpt lat="52.286242" lon="10.511956">
        <time>2026-08-04T09:45:41.178000Z</time>
      </trkpt>
      <trkpt lat="52.286032" lon="10.512304">
        <time>2026-08-04T09:45:56.178000Z</time>
      </trkpt>
      <trkpt lat="52.285834" lon="10.512655">
        <time>2026-08-04T09:46:08.178000Z</time>
      </trkpt>
      <trkpt lat="52.285647" lon="10.512953">
        <time>2026-08-04T09:46:20.178000Z</time>
      </trkpt>
      <trkpt lat="52.285563" lon="10.513011">
        <time>2026-08-04T09:46:26.178000Z</time>
      </trkpt>
      <trkpt lat="52.285275" lon="10.513011">
        <time>2026-08-04T09:46:41.178000Z</time>
      </trkpt>
      <trkpt lat="52.284947" lon="10.513028">
        <time>2026-08-04T09:46:56.178000Z</time>
      </trkpt>
      <trkpt lat="52.284674" lon="10.513041">
        <time>2026-08-04T09:47:08.178000Z</time>
      </trkpt>
      <trkpt lat="52.284351" lon="10.513042">
        <time>2026-08-04T09:47:23.178000Z</time>
      </trkpt>
      <trkpt lat="52.284021" lon="10.513053">
        <time>2026-08-04T09:47:38.178000Z</time>
      </trkpt>
      <trkpt lat="52.28375" lon="10.513044">
        <time>2026-08-04T09:47:50.178000Z</time>
      </trkpt>
      <trkpt lat="52.283426" lon="10.513054">
        <time>2026-08-04T09:48:05.178000Z</time>
      </trkpt>
      <trkpt lat="52.283095" lon="10.513056">
        <time>2026-08-04T09:48:20.278000Z</time>
      </trkpt>
      <trkpt lat="52.282813" lon="10.513033">
        <time>2026-08-04T09:48:35.278000Z</time>
      </trkpt>
      <trkpt lat="52.282515" lon="10.513021">
        <time>2026-08-04T09:48:50.278000Z</time>
      </trkpt>
      <trkpt lat="52.282187" lon="10.513049">
        <time>2026-08-04T09:49:02.278000Z</time>
      </trkpt>
      <trkpt lat="52.281878" lon="10.513085">
        <time>2026-08-04T09:49:14.278000Z</time>
      </trkpt>
      <trkpt lat="52.281567" lon="10.513098">
        <time>2026-08-04T09:49:32.378000Z</time>
      </trkpt>
      <trkpt lat="52.281251" lon="10.513088">
        <time>2026-08-04T09:49:56.378000Z</time>
      </trkpt>
      <trkpt lat="52.280954" lon="10.513094">
        <time>2026-08-04T09:50:08.378000Z</time>
      </trkpt>
      <trkpt lat="52.28065" lon="10.513085">
        <time>2026-08-04T09:50:20.378000Z</time>
      </trkpt>
      <trkpt lat="52.280347" lon="10.513113">
        <time>2026-08-04T09:50:32.378000Z</time>
      </trkpt>
      <trkpt lat="52.280059" lon="10.513138">
        <time>2026-08-04T09:50:44.378000Z</time>
      </trkpt>
      <trkpt lat="52.279753" lon="10.513129">
        <time>2026-08-04T09:50:59.378000Z</time>
      </trkpt>
      <trkpt lat="52.279482" lon="10.513138">
        <time>2026-08-04T09:51:08.378000Z</time>
      </trkpt>
      <trkpt lat="52.279196" lon="10.513133">
        <time>2026-08-04T09:51:20.378000Z</time>
      </trkpt>
      <trkpt lat="52.278884" lon="10.513136">
        <time>2026-08-04T09:51:32.378000Z</time>
      </trkpt>
      <trkpt lat="52.278575" lon="10.513157">
        <time>2026-08-04T09:51:44.378000Z</time>
      </trkpt>
      <trkpt lat="52.278347" lon="10.513152">
        <time>2026-08-04T09:51:53.378000Z</time>
      </trkpt>
      <trkpt lat="52.278161" lon="10.513123">
        <time>2026-08-04T09:52:02.378000Z</time>
      </trkpt>
      <trkpt lat="52.27787" lon="10.513148">
        <time>2026-08-04T09:52:14.478000Z</time>
      </trkpt>
      <trkpt lat="52.277545" lon="10.513176">
        <time>2026-08-04T09:52:29.478000Z</time>
      </trkpt>
      <trkpt lat="52.277215" lon="10.513152">
        <time>2026-08-04T09:52:44.478000Z</time>
      </trkpt>
      <trkpt lat="52.276933" lon="10.513173">
        <time>2026-08-04T09:52:56.478000Z</time>
      </trkpt>
      <trkpt lat="52.276662" lon="10.513168">
        <time>2026-08-04T09:53:08.478000Z</time>
      </trkpt>
      <trkpt lat="52.276362" lon="10.513204">
        <time>2026-08-04T09:53:20.478000Z</time>
      </trkpt>
      <trkpt lat="52.276025" lon="10.513218">
        <time>2026-08-04T09:53:35.478000Z</time>
      </trkpt>
      <trkpt lat="52.275794" lon="10.513221">
        <time>2026-08-04T09:53:47.478000Z</time>
      </trkpt>
      <trkpt lat="52.275604" lon="10.513303">
        <time>2026-08-04T09:53:56.478000Z</time>
      </trkpt>
      <trkpt lat="52.275502" lon="10.513394">
        <time>2026-08-04T09:54:02.478000Z</time>
      </trkpt>
      <trkpt lat="52.27518" lon="10.513539">
        <time>2026-08-04T09:54:17.478000Z</time>
      </trkpt>
      <trkpt lat="52.274909" lon="10.51368">
        <time>2026-08-04T09:54:29.478000Z</time>
      </trkpt>
      <trkpt lat="52.274666" lon="10.513821">
        <time>2026-08-04T09:54:41.478000Z</time>
      </trkpt>
      <trkpt lat="52.27446" lon="10.513738">
        <time>2026-08-04T09:54:50.478000Z</time>
      </trkpt>
      <trkpt lat="52.274294" lon="10.513778">
        <time>2026-08-04T09:54:59.478000Z</time>
      </trkpt>
      <trkpt lat="52.274147" lon="10.513878">
        <time>2026-08-04T09:55:05.478000Z</time>
      </trkpt>
      <trkpt lat="52.27404480668333" lon="10.513908574727623">
        <time>2026-08-04T09:55:11.478000Z</time>
      </trkpt>
      <trkpt lat="52.273754" lon="10.514096">
        <time>2026-08-07T05:15:40.278000Z</time>
      </trkpt>
      <trkpt lat="52.273521" lon="10.514343">
        <time>2026-08-04T09:55:35.478000Z</time>
      </trkpt>
      <trkpt lat="52.273399" lon="10.514544">
        <time>2026-08-04T09:55:44.478000Z</time>
      </trkpt>
      <trkpt lat="52.27323401151923" lon="10.515032071647093">
        <time>2026-08-04T09:55:56.478000Z</time>
      </trkpt>
      <trkpt lat="52.273184" lon="10.515269">
        <time>2026-08-04T09:56:02.478000Z</time>
      </trkpt>
      <trkpt lat="52.273154" lon="10.515621">
        <time>2026-08-04T09:56:17.478000Z</time>
      </trkpt>
      <trkpt lat="52.273219" lon="10.515901">
        <time>2026-08-04T09:56:26.478000Z</time>
      </trkpt>
      <trkpt lat="52.27321708259461" lon="10.516006990288954">
        <time>2026-08-04T09:56:29.478000Z</time>
      </trkpt>
      <trkpt lat="52.273190909955034" lon="10.516136496409842">
        <time>2026-08-04T09:56:32.478000Z</time>
      </trkpt>
      <trkpt lat="52.27317941714224" lon="10.516274468516094">
        <time>2026-08-04T09:56:35.478000Z</time>
      </trkpt>
      <trkpt lat="52.27319131277049" lon="10.516359900535349">
        <time>2026-08-04T09:56:38.478000Z</time>
      </trkpt>
      <trkpt lat="52.27317727793254" lon="10.516431372635726">
        <time>2026-08-04T09:56:41.478000Z</time>
      </trkpt>
      <trkpt lat="52.273212" lon="10.516726">
        <time>2026-08-04T09:56:50.478000Z</time>
      </trkpt>
      <trkpt lat="52.27314852736542" lon="10.516920600734633">
        <time>2026-08-04T09:56:56.478000Z</time>
      </trkpt>
      <trkpt lat="52.273167" lon="10.517114">
        <time>2026-08-04T09:57:02.478000Z</time>
      </trkpt>
      <trkpt lat="52.273161803370364" lon="10.517569568981076">
        <time>2026-08-04T09:57:20.478000Z</time>
      </trkpt>
      <trkpt lat="52.273157" lon="10.518018">
        <time>2026-08-04T09:57:29.478000Z</time>
      </trkpt>
      <trkpt lat="52.273111" lon="10.518384">
        <time>2026-08-04T09:57:41.478000Z</time>
      </trkpt>
      <trkpt lat="52.273064" lon="10.518577">
        <time>2026-08-04T09:57:47.478000Z</time>
      </trkpt>
      <trkpt lat="52.273067" lon="10.518889">
        <time>2026-08-04T09:57:56.578000Z</time>
      </trkpt>
      <trkpt lat="52.27317" lon="10.5192">
        <time>2026-08-04T09:58:05.578000Z</time>
      </trkpt>
      <trkpt lat="52.27319" lon="10.519334">
        <time>2026-08-04T09:58:08.578000Z</time>
      </trkpt>
      <trkpt lat="52.273158" lon="10.519513">
        <time>2026-08-04T09:58:14.578000Z</time>
      </trkpt>
      <trkpt lat="52.273099457823264" lon="10.519626843969323">
        <time>2026-08-04T09:58:20.578000Z</time>
      </trkpt>
      <trkpt lat="52.272926" lon="10.520071">
        <time>2026-08-04T09:58:32.578000Z</time>
      </trkpt>
      <trkpt lat="52.272763" lon="10.520501">
        <time>2026-08-04T09:58:47.578000Z</time>
      </trkpt>
      <trkpt lat="52.272597" lon="10.520986">
        <time>2026-08-04T09:59:02.578000Z</time>
      </trkpt>
      <trkpt lat="52.272427" lon="10.521452">
        <time>2026-08-04T09:59:17.578000Z</time>
      </trkpt>
      <trkpt lat="52.272274" lon="10.521863">
        <time>2026-08-04T09:59:29.578000Z</time>
      </trkpt>
      <trkpt lat="52.272106" lon="10.522262">
        <time>2026-08-04T09:59:41.578000Z</time>
      </trkpt>
      <trkpt lat="52.271998" lon="10.522331">
        <time>2026-08-04T09:59:47.578000Z</time>
      </trkpt>
      <trkpt lat="52.271937" lon="10.522343">
        <time>2026-08-04T09:59:50.578000Z</time>
      </trkpt>
      <trkpt lat="52.271755" lon="10.522269">
        <time>2026-08-04T09:59:59.578000Z</time>
      </trkpt>
      <trkpt lat="52.271554" lon="10.522039">
        <time>2026-08-04T10:00:08.578000Z</time>
      </trkpt>
      <trkpt lat="52.271477" lon="10.522066">
        <time>2026-08-04T10:00:11.578000Z</time>
      </trkpt>
      <trkpt lat="52.271234" lon="10.522349">
        <time>2026-08-04T10:00:20.578000Z</time>
      </trkpt>
      <trkpt lat="52.271144" lon="10.52242">
        <time>2026-08-04T10:00:23.578000Z</time>
      </trkpt>
      <trkpt lat="52.270864" lon="10.522533">
        <time>2026-08-04T10:00:32.578000Z</time>
      </trkpt>
      <trkpt lat="52.270723" lon="10.52261">
        <time>2026-08-04T10:00:38.578000Z</time>
      </trkpt>
      <trkpt lat="52.270686" lon="10.522667">
        <time>2026-08-04T10:00:41.578000Z</time>
      </trkpt>
      <trkpt lat="52.270523" lon="10.522704">
        <time>2026-08-04T10:00:50.578000Z</time>
      </trkpt>
      <trkpt lat="52.270205" lon="10.522969">
        <time>2026-08-04T10:01:05.578000Z</time>
      </trkpt>
      <trkpt lat="52.270037" lon="10.523118">
        <time>2026-08-04T10:01:11.578000Z</time>
      </trkpt>
      <trkpt lat="52.269961" lon="10.523128">
        <time>2026-08-04T10:01:14.578000Z</time>
      </trkpt>
      <trkpt lat="52.269871" lon="10.522899">
        <time>2026-08-04T10:01:26.678000Z</time>
      </trkpt>
    </trkseg>
  </trk>
</gpx>