<?xml version="1.0" encoding="UTF-8"?>
<gpx xmlns="http://www.topografix.com/GPX/1/1" xmlns:gpxtpx="http://www.garmin.com/xmlschemas/TrackPointExtension/v1" xmlns:xsi="http://www.w3.org/2001/XMLSchema-instance" xsi:schemaLocation="http://www.topografix.com/GPX/1/1 http://www.topografix.com/GPX/1/1/gpx.xsd" version="1.1" creator="gpx.py -- https://github.com/tkrajina/gpxpy">
  <trk>
    <name>gpx from keep</name>
    <type>Run</type>
    <trkseg>
      <trkpt lat="52.270178" lon="10.523095">
        <time>2026-09-01T09:10:47.265000Z</time>
      </trkpt>
      <trkpt lat="52.270328" lon="10.522987">
        <time>2026-09-01T09:10:47.365000Z</time>
      </trkpt>
      <trkpt lat="52.270439" lon="10.52277">
        <time>2026-09-01T09:10:47.365000Z</time>
      </trkpt>
      <trkpt lat="52.27071" lon="10.522565">
        <time>2026-09-01T09:10:47.465000Z</time>
      </trkpt>
      <trkpt lat="52.270848" lon="10.522451">
        <time>2026-09-01T09:10:47.565000Z</time>
      </trkpt>
      <trkpt lat="52.271125" lon="10.522362">
        <time>2026-09-01T09:10:47.665000Z</time>
      </trkpt>
      <trkpt lat="52.271274" lon="10.522261">
        <time>2026-09-01T09:10:47.665000Z</time>
      </trkpt>
      <trkpt lat="52.271482" lon="10.521947">
        <time>2026-09-01T09:10:47.765000Z</time>
      </trkpt>
      <trkpt lat="52.271521" lon="10.521868">
        <time>2026-09-01T09:10:47.865000Z</time>
      </trkpt>
      <trkpt lat="52.2716" lon="10.521852">
        <time>2026-09-01T09:10:47.965000Z</time>
      </trkpt>
      <trkpt lat="52.271753" lon="10.522241">
        <time>2026-09-01T09:10:48.065000Z</time>
      </trkpt>
      <trkpt lat="52.271803" lon="10.522316">
        <time>2026-09-01T09:10:48.065000Z</time>
      </trkpt>
      <trkpt lat="52.271942" lon="10.522334">
        <time>2026-09-01T09:10:48.165000Z</time>
      </trkpt>
      <trkpt lat="52.272073" lon="10.522277">
        <time>2026-09-01T09:10:48.165000Z</time>
      </trkpt>
      <trkpt lat="52.272188" lon="10.522153">
        <time>2026-09-01T09:10:48.265000Z</time>
      </trkpt>
      <trkpt lat="52.272313" lon="10.521942">
        <time>2026-09-01T09:10:48.365000Z</time>
      </trkpt>
      <trkpt lat="52.272482" lon="10.521478">
        <time>2026-09-01T09:10:48.465000Z</time>
      </trkpt>
      <trkpt lat="52.272654" lon="10.521096">
        <time>2026-09-01T09:10:48.565000Z</time>
      </trkpt>
      <trkpt lat="52.27279" lon="10.520688">
        <time>2026-09-01T09:10:48.665000Z</time>
      </trkpt>
      <trkpt lat="52.272956" lon="10.520255">
        <time>2026-09-01T09:10:48.865000Z</time>
      </trkpt>
      <trkpt lat="52.272981" lon="10.520062">
        <time>2026-09-01T09:10:48.865000Z</time>
      </trkpt>
      <trkpt lat="52.273015" lon="10.519925">
        <time>2026-09-01T09:10:48.865000Z</time>
      </trkpt>
      <trkpt lat="52.273147" lon="10.519592">
        <time>2026-09-01T09:10:48.965000Z</time>
      </trkpt>
      <trkpt lat="52.27318" lon="10.519418">
        <time>2026-09-01T09:10:49.065000Z</time>
      </trkpt>
      <trkpt lat="52.273183" lon="10.519311">
        <time>2026-09-01T09:10:49.065000Z</time>
      </trkpt>
      <trkpt lat="52.27305" lon="10.518902">
        <time>2026-09-01T09:10:49.165000Z</time>
      </trkpt>
      <trkpt lat="52.273029" lon="10.518817">
        <time>2026-09-01T09:10:49.265000Z</time>
      </trkpt>
      <trkpt lat="52.273028" lon="10.518697">
        <time>2026-09-01T09:10:49.265000Z</time>
      </trkpt>
      <trkpt lat="52.273111" lon="10.518242">
        <time>2026-09-01T09:10:49.365000Z</time>
      </trkpt>
      <trkpt lat="52.273162" lon="10.517789">
        <time>2026-09-01T09:10:49.465000Z</time>
      </trkpt>
      <trkpt lat="52.273185" lon="10.517675">
        <time>2026-09-01T09:10:49.565000Z</time>
      </trkpt>
      <trkpt lat="52.273234" lon="10.51721">
        <time>2026-09-01T09:10:49.665000Z</time>
      </trkpt>
      <trkpt lat="52.273295" lon="10.516771">
        <time>2026-09-01T09:10:49.765000Z</time>
      </trkpt>
      <trkpt lat="52.273344" lon="10.516406">
        <time>2026-09-01T09:10:49.865000Z</time>
      </trkpt>
      <trkpt lat="52.273367" lon="10.516321">
        <time>2026-09-01T09:10:49.865000Z</time>
      </trkpt>
      <trkpt lat="52.27338" lon="10.515984">
        <time>2026-09-01T09:10:49.965000Z</time>
      </trkpt>
      <trkpt lat="52.273302" lon="10.515807">
        <time>2026-09-01T09:10:50.065000Z</time>
      </trkpt>
      <trkpt lat="52.273254" lon="10.515764">
        <time>2026-09-01T09:10:50.065000Z</time>
      </trkpt>
      <trkpt lat="52.273183" lon="10.51574">
        <time>2026-09-01T09:10:50.065000Z</time>
      </trkpt>
      <trkpt lat="52.273143" lon="10.515623">
        <time>2026-09-01T09:10:50.165000Z</time>
      </trkpt>
      <trkpt lat="52.273256" lon="10.515111">
        <time>2026-09-01T09:10:50.265000Z</time>
      </trkpt>
      <trkpt lat="52.27338" lon="10.514709">
        <time>2026-09-01T09:10:50.365000Z</time>
      </trkpt>
      <trkpt lat="52.273573" lon="10.514317">
        <time>2026-09-01T09:10:50.465000Z</time>
      </trkpt>
      <trkpt lat="52.273714" lon="10.51412">
        <time>2026-09-01T09:10:50.565000Z</time>
      </trkpt>
      <trkpt lat="52.273836" lon="10.514037">
        <time>2026-09-01T09:10:50.665000Z</time>
      </trkpt>
      <trkpt lat="52.273996" lon="10.513998">
        <time>2026-09-01T09:10:50.765000Z</time>
      </trkpt>
      <trkpt lat="52.274308" lon="10.513788">
        <time>2026-09-01T09:10:50.865000Z</time>
      </trkpt>
      <trkpt lat="52.274381" lon="10.513759">
        <time>2026-09-01T09:10:50.865000Z</time>
      </trkpt>
      <trkpt lat="52.274447" lon="10.513766">
        <time>2026-09-01T09:10:50.865000Z</time>
      </trkpt>
      <trkpt lat="52.274571" lon="10.51385">
        <time>2026-09-01T09:10:50.965000Z</time>
      </trkpt>
      <trkpt lat="52.27464" lon="10.513861">
        <time>2026-09-01T09:10:50.965000Z</time>
      </trkpt>
      <trkpt lat="52.27494" lon="10.513689">
        <time>2026-09-01T09:10:51.165000Z</time>
      </trkpt>
      <trkpt lat="52.275257" lon="10.51353">
        <time>2026-09-01T09:10:51.265000Z</time>
      </trkpt>
      <trkpt lat="52.27556" lon="10.513366">
        <time>2026-09-01T09:10:51.465000Z</time>
      </trkpt>
      <trkpt lat="52.275751" lon="10.513278">
        <time>2026-09-01T09:10:51.565000Z</time>
      </trkpt>
      <trkpt lat="52.276072" lon="10.513224">
        <time>2026-09-01T09:10:51.665000Z</time>
      </trkpt>
      <trkpt lat="52.276346" lon="10.513203">
        <time>2026-09-01T09:10:51.765000Z</time>
      </trkpt>
      <trkpt lat="52.276678" lon="10.513203">
        <time>2026-09-01T09:10:51.965000Z</time>
      </trkpt>
      <trkpt lat="52.276948" lon="10.513194">
        <time>2026-09-01T09:10:52.065000Z</time>
      </trkpt>
      <trkpt lat="52.277273" lon="10.513171">
        <time>2026-09-01T09:10:52.165000Z</time>
      </trkpt>
      <trkpt lat="52.277585" lon="10.513151">
        <time>2026-09-01T09:10:52.365000Z</time>
      </trkpt>
      <trkpt lat="52.277861" lon="10.513131">
        <time>2026-09-01T09:10:52.465000Z</time>
      </trkpt>
      <trkpt lat="52.278069" lon="10.513146">
        <time>2026-09-01T09:10:52.565000Z</time>
      </trkpt>
      <trkpt lat="52.278271" lon="10.513124">
        <time>2026-09-01T09:10:52.665000Z</time>
      </trkpt>
      <trkpt lat="52.278604" lon="10.513127">
        <time>2026-09-01T09:10:52.765000Z</time>
      </trkpt>
      <trkpt lat="52.278932" lon="10.513102">
        <time>2026-09-01T09:10:52.965000Z</time>
      </trkpt>
      <trkpt lat="52.279251" lon="10.513104">
        <time>2026-09-01T09:10:53.065000Z</time>
      </trkpt>
      <trkpt lat="52.279558" lon="10.513113">
        <time>2026-09-01T09:10:53.265000Z</time>
      </trkpt>
      <trkpt lat="52.279858" lon="10.51311">
        <time>2026-09-01T09:10:53.365000Z</time>
      </trkpt>
      <trkpt lat="52.280191" lon="10.513105">
        <time>2026-09-01T09:10:53.465000Z</time>
      </trkpt>
      <trkpt lat="52.280491" lon="10.513126">
        <time>2026-09-01T09:10:53.665000Z</time>
      </trkpt>
      <trkpt lat="52.280776" lon="10.513126">
        <time>2026-09-01T09:10:53.765000Z</time>
      </trkpt>
      <trkpt lat="52.281104" lon="10.513112">
        <time>2026-09-01T09:10:53.865000Z</time>
      </trkpt>
      <trkpt lat="52.281441" lon="10.5131">
        <time>2026-09-01T09:10:54.065000Z</time>
      </trkpt>
      <trkpt lat="52.281755" lon="10.513088">
        <time>2026-09-01T09:10:54.165000Z</time>
      </trkpt>
      <trkpt lat="52.282062" lon="10.513086">
        <time>2026-09-01T09:10:54.365000Z</time>
      </trkpt>
      <trkpt lat="52.282393" lon="10.513092">
        <time>2026-09-01T09:10:54.465000Z</time>
      </trkpt>
      <trkpt lat="52.282673" lon="10.513084">
        <time>2026-09-01T09:10:54.565000Z</time>
      </trkpt>
      <trkpt lat="52.282965" lon="10.513077">
        <time>2026-09-01T09:10:54.665000Z</time>
      </trkpt>
      <trkpt lat="52.283204" lon="10.513077">
        <time>2026-09-01T09:10:54.765000Z</time>
      </trkpt>
      <trkpt lat="52.28352" lon="10.513081">
        <time>2026-09-01T09:10:54.965000Z</time>
      </trkpt>
      <trkpt lat="52.283825" lon="10.513069">
        <time>2026-09-01T09:10:55.065000Z</time>
      </trkpt>
      <trkpt lat="52.284135" lon="10.513056">
        <time>2026-09-01T09:10:55.165000Z</time>
      </trkpt>
      <trkpt lat="52.284419" lon="10.513043">
        <time>2026-09-01T09:10:55.265000Z</time>
      </trkpt>
      <trkpt lat="52.284709" lon="10.513052">
        <time>2026-09-01T09:10:55.365000Z</time>
      </trkpt>
      <trkpt lat="52.284999" lon="10.513046">
        <time>2026-09-01T09:10:55.565000Z</time>
      </trkpt>
      <trkpt lat="52.285287" lon="10.51304">
        <time>2026-09-01T09:10:55.665000Z</time>
      </trkpt>
      <trkpt lat="52.285572" lon="10.513024">
        <time>2026-09-01T09:10:55.765000Z</time>
      </trkpt>
      <trkpt lat="52.285866" lon="10.51301">
        <time>2026-09-01T09:10:55.865000Z</time>
      </trkpt>
      <trkpt lat="52.286151" lon="10.513004">
        <time>2026-09-01T09:10:55.965000Z</time>
      </trkpt>
      <trkpt lat="52.286425" lon="10.513008">
        <time>2026-09-01T09:10:56.165000Z</time>
      </trkpt>
      <trkpt lat="52.2867" lon="10.512994">
        <time>2026-09-01T09:10:56.265000Z</time>
      </trkpt>
      <trkpt lat="52.286991" lon="10.513032">
        <time>2026-09-01T09:10:56.365000Z</time>
      </trkpt>
      <trkpt lat="52.287287" lon="10.513086">
        <time>2026-09-01T09:10:56.465000Z</time>
      </trkpt>
      <trkpt lat="52.287581" lon="10.513091">
        <time>2026-09-01T09:10:56.565000Z</time>
      </trkpt>
      <trkpt lat="52.287851" lon="10.5131">
        <time>2026-09-01T09:10:56.765000Z</time>
      </trkpt>
      <trkpt lat="52.288123" lon="10.51314">
        <time>2026-09-01T09:10:56.865000Z</time>
      </trkpt>
      <trkpt lat="52.288419" lon="10.513163">
        <time>2026-09-01T09:10:57.065000Z</time>
      </trkpt>
      <trkpt lat="52.288727" lon="10.513105">
        <time>2026-09-01T09:10:57.165000Z</time>
      </trkpt>
      <trkpt lat="52.288883" lon="10.51291">
        <time>2026-09-01T09:10:57.265000Z</time>
      </trkpt>
      <trkpt lat="52.288975" lon="10.512659">
        <time>2026-09-01T09:10:57.365000Z</time>
      </trkpt>
      <trkpt lat="52.289048" lon="10.512128">
        <time>2026-09-01T09:10:57.465000Z</time>
      </trkpt>
      <trkpt lat="52.289077" lon="10.51168">
        <time>2026-09-01T09:10:57.665000Z</time>
      </trkpt>
      <trkpt lat="52.289072" lon="10.511154">
        <time>2026-09-01T09:10:57.765000Z</time>
      </trkpt>
      <trkpt lat="52.289078" lon="10.510946">
        <time>2026-09-01T09:10:57.865000Z</time>
      </trkpt>
      <trkpt lat="52.289132" lon="10.510553">
        <time>2026-09-01T09:10:57.965000Z</time>
      </trkpt>
      <trkpt lat="52.289098" lon="10.510112">
        <time>2026-09-01T09:10:58.065000Z</time>
      </trkpt>
      <trkpt lat="52.289068" lon="10.509585">
        <time>2026-09-01T09:10:58.265000Z</time>
      </trkpt>
      <trkpt lat="52.289055" lon="10.509046">
        <time>2026-09-01T09:10:58.365000Z</time>
      </trkpt>
      <trkpt lat="52.289075" lon="10.508508">
        <time>2026-09-01T09:10:58.565000Z</time>
      </trkpt>
      <trkpt lat="52.289146" lon="10.508063">
        <time>2026-09-01T09:10:58.665000Z</time>
      </trkpt>
      <trkpt lat="52.289234" lon="10.507596">
        <time>2026-09-01T09:10:58.765000Z</time>
      </trkpt>
      <trkpt lat="52.289306" lon="10.507125">
        <time>2026-09-01T09:10:58.865000Z</time>
      </trkpt>
      <trkpt lat="52.28938" lon="10.506639">
        <time>2026-09-01T09:10:58.965000Z</time>
      </trkpt>
      <trkpt lat="52.28949" lon="10.506205">
        <time>2026-09-01T09:10:59.165000Z</time>
      </trkpt>
      <trkpt lat="52.289616" lon="10.505779">
        <time>2026-09-01T09:10:59.265000Z</time>
      </trkpt>
      <trkpt lat="52.289758" lon="10.505372">
        <time>2026-09-01T09:10:59.365000Z</time>
      </trkpt>
      <trkpt lat="52.289808" lon="10.505293">
        <time>2026-09-01T09:10:59.365000Z</time>
      </trkpt>
      <trkpt lat="52.290065" lon="10.505095">
        <time>2026-09-01T09:10:59.565000Z</time>
      </trkpt>
      <trkpt lat="52.290304" lon="10.504869">
        <time>2026-09-01T09:10:59.665000Z</time>
      </trkpt>
      <trkpt lat="52.290527" lon="10.504482">
        <time>2026-09-01T09:10:59.765000Z</time>
      </trkpt>
      <trkpt lat="52.290672" lon="10.504176">
        <time>2026-09-01T09:10:59.865000Z</time>
      </trkpt>
      <trkpt lat="52.290698" lon="10.503997">
        <time>2026-09-01T09:10:59.965000Z</time>
      </trkpt>
      <trkpt lat="52.290651" lon="10.503593">
        <time>2026-09-01T09:11:00.065000Z</time>
      </trkpt>
      <trkpt lat="52.290629" lon="10.503504">
        <time>2026-09-01T09:11:00.165000Z</time>
      </trkpt>
      <trkpt lat="52.290396" lon="10.503207">
        <time>2026-09-01T09:11:00.265000Z</time>
      </trkpt>
      <trkpt lat="52.290133" lon="10.502982">
        <time>2026-09-01T09:11:00.465000Z</time>
      </trkpt>
      <trkpt lat="52.28996" lon="10.502833">
        <time>2026-09-01T09:11:00.565000Z</time>
      </trkpt>
      <trkpt lat="52.289767" lon="10.502568">
        <time>2026-09-01T09:11:00.665000Z</time>
      </trkpt>
      <trkpt lat="52.28972" lon="10.502547">
        <time>2026-09-01T09:11:00.665000Z</time>
      </trkpt>
      <trkpt lat="52.28943" lon="10.502669">
        <time>2026-09-01T09:11:00.865000Z</time>
      </trkpt>
      <trkpt lat="52.289195" lon="10.502673">
        <time>2026-09-01T09:11:00.965000Z</time>
      </trkpt>
      <trkpt lat="52.288985" lon="10.502236">
        <time>2026-09-01T09:11:01.065000Z</time>
      </trkpt>
      <trkpt lat="52.288836" lon="10.501839">
        <time>2026-09-01T09:11:01.265000Z</time>
      </trkpt>
      <trkpt lat="52.288655" lon="10.501437">
        <time>2026-09-01T09:11:01.365000Z</time>
      </trkpt>
      <trkpt lat="52.28855" lon="10.501278">
        <time>2026-09-01T09:11:01.365000Z</time>
      </trkpt>
      <trkpt lat="52.288346" lon="10.50108">
        <time>2026-09-01T09:11:01.565000Z</time>
      </trkpt>
      <trkpt lat="52.288039" lon="10.501006">
        <time>2026-09-01T09:11:01.665000Z</time>
      </trkpt>
      <trkpt lat="52.287865" lon="10.500949">
        <time>2026-09-01T09:11:01.765000Z</time>
      </trkpt>
      <trkpt lat="52.287619" lon="10.50123">
        <time>2026-09-01T09:11:01.965000Z</time>
      </trkpt>
      <trkpt lat="52.287475" lon="10.501448">
        <time>2026-09-01T09:11:02.065000Z</time>
      </trkpt>
      <trkpt lat="52.287303" lon="10.50186">
        <time>2026-09-01T09:11:02.165000Z</time>
      </trkpt>
      <trkpt lat="52.287166" lon="10.502274">
        <time>2026-09-01T09:11:02.265000Z</time>
      </trkpt>
      <trkpt lat="52.287061" lon="10.502705">
        <time>2026-09-01T09:11:02.465000Z</time>
      </trkpt>
      <trkpt lat="52.286977" lon="10.503195">
        <time>2026-09-01T09:11:02.565000Z</time>
      </trkpt>
      <trkpt lat="52.286867" lon="10.503604">
        <time>2026-09-01T09:11:02.765000Z</time>
      </trkpt>
      <trkpt lat="52.28677" lon="10.504046">
        <time>2026-09-01T09:11:02.865000Z</time>
      </trkpt>
      <trkpt lat="52.286687" lon="10.504565">
        <time>2026-09-01T09:11:03.065000Z</time>
      </trkpt>
      <trkpt lat="52.286666" lon="10.505049">
        <time>2026-09-01T09:37:23.565000Z</time>
      </trkpt>
      <trkpt lat="52.286693" lon="10.505504">
        <time>2026-09-01T09:11:03.365000Z</time>
      </trkpt>
      <trkpt lat="52.28672" lon="10.505978">
        <time>2026-09-01T09:11:03.465000Z</time>
      </trkpt>
      <trkpt lat="52.286736" lon="10.506489">
        <time>2026-09-01T09:11:03.665000Z</time>
      </trkpt>
      <trkpt lat="52.286732" lon="10.506936">
        <time>2026-09-01T09:11:03.765000Z</time>
      </trkpt>
      <trkpt lat="52.286746" lon="10.50745">
        <time>2026-09-01T09:11:03.865000Z</time>
      </trkpt>
      <trkpt lat="52.286746" lon="10.507548">
        <time>2026-09-01T09:11:03.965000Z</time>
      </trkpt>
      <trkpt lat="52.286632" lon="10.507982">
        <time>2026-09-01T09:11:04.065000Z</time>
      </trkpt>
      <trkpt lat="52.286538" lon="10.508269">
        <time>2026-09-01T09:11:04.165000Z</time>
      </trkpt>
      <trkpt lat="52.28649" lon="10.508673">
        <time>2026-09-01T09:11:04.365000Z</time>
      </trkpt>
      <trkpt lat="52.286521" lon="10.509211">
        <time>2026-09-01T09:11:04.465000Z</time>
      </trkpt>
      <trkpt lat="52.286569" lon="10.509717">
        <time>2026-09-01T09:11:04.565000Z</time>
      </trkpt>
      <trkpt lat="52.286619" lon="10.510266">
        <time>2026-09-01T09:11:04.665000Z</time>
      </trkpt>
      <trkpt lat="52.286618" lon="10.510571">
        <time>2026-09-01T09:11:04.665000Z</time>
      </trkpt>
      <trkpt lat="52.286525" lon="10.511052">
        <time>2026-09-01T09:11:04.865000Z</time>
      </trkpt>
      <trkpt lat="52.286394" lon="10.511506">
        <time>2026-09-01T09:11:05.065000Z</time>
      </trkpt>
      <trkpt lat="52.286266" lon="10.511876">
        <time>2026-09-01T09:11:05.165000Z</time>
      </trkpt>
      <trkpt lat="52.286086" lon="10.51221">
        <time>2026-09-01T09:11:05.265000Z</time>
      </trkpt>
      <trkpt lat="52.285897" lon="10.512542">
        <time>2026-09-01T09:11:05.465000Z</time>
      </trkpt>
      <trkpt lat="52.28566" lon="10.512902">
        <time>2026-09-01T09:11:05.665000Z</time>
      </trkpt>
      <trkpt lat="52.285529" lon="10.512973">
        <time>2026-09-01T09:11:05.665000Z</time>
      </trkpt>
      <trkpt lat="52.285249" lon="10.512992">
        <time>2026-09-01T09:11:05.865000Z</time>
      </trkpt>
      <trkpt lat="52.284926" lon="10.513015">
        <time>2026-09-01T09:11:05.965000Z</time>
      </trkpt>
      <trkpt lat="52.284633" lon="10.51301">
        <time>2026-09-01T09:11:06.165000Z</time>
      </trkpt>
      <trkpt lat="52.284312" lon="10.512993">
        <time>2026-09-01T09:11:06.265000Z</time>
      </trkpt>
      <trkpt lat="52.283998" lon="10.513016">
        <time>2026-09-01T09:11:06.465000Z</time>
      </trkpt>
      <trkpt lat="52.28366" lon="10.513021">
        <time>2026-09-01T09:11:06.565000Z</time>
      </trkpt>
      <trkpt lat="52.283389" lon="10.513017">
        <time>2026-09-01T09:11:06.665000Z</time>
      </trkpt>
      <trkpt lat="52.283054" lon="10.513041">
        <time>2026-09-01T09:11:06.865000Z</time>
      </trkpt>
      <trkpt lat="52.282772" lon="10.513061">
        <time>2026-09-01T09:11:06.965000Z</time>
      </trkpt>
      <trkpt lat="52.282436" lon="10.513057">
        <time>2026-09-01T09:11:07.165000Z</time>
      </trkpt>
      <trkpt lat="52.282128" lon="10.513052">
        <time>2026-09-01T09:11:07.265000Z</time>
      </trkpt>
      <trkpt lat="52.281825" lon="10.513037">
        <time>2026-09-01T09:11:07.465000Z</time>
      </trkpt>
      <trkpt lat="52.281489" lon="10.513029">
        <time>2026-09-01T09:11:07.565000Z</time>
      </trkpt>
      <trkpt lat="52.281202" lon="10.513082">
        <time>2026-09-01T09:11:07.765000Z</time>
      </trkpt>
      <trkpt lat="52.280871" lon="10.51308">
        <time>2026-09-01T09:11:07.865000Z</time>
      </trkpt>
      <trkpt lat="52.280551" lon="10.51308">
        <time>2026-09-01T09:11:08.065000Z</time>
      </trkpt>
      <trkpt lat="52.28022" lon="10.513117">
        <time>2026-09-01T09:45:44.665000Z</time>
      </trkpt>
      <trkpt lat="52.279894" lon="10.513133">
        <time>2026-09-01T09:45:59.665000Z</time>
      </trkpt>
      <trkpt lat="52.279838" lon="10.513039">
        <time>2026-09-01T09:46:05.665000Z</time>
      </trkpt>
      <trkpt lat="52.27952" lon="10.513138">
        <time>2026-09-01T09:46:17.665000Z</time>
      </trkpt>
      <trkpt lat="52.279211" lon="10.513136">
        <time>2026-09-01T09:46:29.665000Z</time>
      </trkpt>
      <trkpt lat="52.278875" lon="10.51316">
        <time>2026-09-01T09:46:44.665000Z</time>
      </trkpt>
      <trkpt lat="52.278565" lon="10.513207">
        <time>2026-09-01T09:46:56.665000Z</time>
      </trkpt>
      <trkpt lat="52.278466" lon="10.513215">
        <time>2026-09-01T09:46:59.665000Z</time>
      </trkpt>
      <trkpt lat="52.278236" lon="10.513153">
        <time>2026-09-01T09:47:08.665000Z</time>
      </trkpt>
      <trkpt lat="52.277927" lon="10.513154">
        <time>2026-09-01T09:47:20.665000Z</time>
      </trkpt>
      <trkpt lat="52.277653" lon="10.51314">
        <time>2026-09-01T09:47:36.065000Z</time>
      </trkpt>
      <trkpt lat="52.277457" lon="10.513181">
        <time>2026-09-01T09:47:45.065000Z</time>
      </trkpt>
      <trkpt lat="52.277139" lon="10.513176">
        <time>2026-09-01T09:48:00.065000Z</time>
      </trkpt>
      <trkpt lat="52.276809" lon="10.513173">
        <time>2026-09-01T09:48:15.065000Z</time>
      </trkpt>
      <trkpt lat="52.276529" lon="10.513211">
        <time>2026-09-01T09:48:27.165000Z</time>
      </trkpt>
      <trkpt lat="52.2762" lon="10.513232">
        <time>2026-09-01T09:48:42.165000Z</time>
      </trkpt>
      <trkpt lat="52.276135" lon="10.513254">
        <time>2026-09-01T09:48:45.165000Z</time>
      </trkpt>
      <trkpt lat="52.275804" lon="10.513252">
        <time>2026-09-01T09:49:03.165000Z</time>
      </trkpt>
      <trkpt lat="52.275524" lon="10.51338">
        <time>2026-09-01T09:49:18.165000Z</time>
      </trkpt>
      <trkpt lat="52.275238" lon="10.513522">
        <time>2026-09-01T09:49:33.165000Z</time>
      </trkpt>
      <trkpt lat="52.274932" lon="10.513699">
        <time>2026-09-01T09:49:48.165000Z</time>
      </trkpt>
      <trkpt lat="52.274688" lon="10.513824">
        <time>2026-09-01T09:50:00.165000Z</time>
      </trkpt>
      <trkpt lat="52.274619" lon="10.513834">
        <time>2026-09-01T09:50:03.165000Z</time>
      </trkpt>
      <trkpt lat="52.274417" lon="10.51374">
        <time>2026-09-01T09:50:12.165000Z</time>
      </trkpt>
      <trkpt lat="52.274152" lon="10.513882">
        <time>2026-09-01T09:50:27.165000Z</time>
      </trkpt>
      <trkpt lat="52.273872" lon="10.514051">
        <time>2026-09-01T09:50:42.165000Z</time>
      </trkpt>
      <trkpt lat="52.273737" lon="10.514089">
        <time>2026-09-01T09:50:48.165000Z</time>
      </trkpt>
      <trkpt lat="52.273502" lon="10.514363">
        <time>2026-09-01T09:51:03.165000Z</time>
      </trkpt>
      <trkpt lat="52.273358" lon="10.514635">
        <time>2026-09-01T09:51:15.165000Z</time>
      </trkpt>
      <trkpt lat="52.27324" lon="10.514994">
        <time>2026-09-01T09:51:27.165000Z</time>
      </trkpt>
      <trkpt lat="52.273187" lon="10.515239">
        <time>2026-09-01T09:51:36.165000Z</time>
      </trkpt>
      <trkpt lat="52.273181" lon="10.515381">
        <time>2026-09-01T09:51:42.165000Z</time>
      </trkpt>
      <trkpt lat="52.273146" lon="10.515547">
        <time>2026-09-01T09:51:48.165000Z</time>
      </trkpt>
      <trkpt lat="52.273173" lon="10.515617">
        <time>2026-09-01T09:51:51.165000Z</time>
      </trkpt>
      <trkpt lat="52.273214" lon="10.515658">
        <time>2026-09-01T09:51:54.165000Z</time>
      </trkpt>
      <trkpt lat="52.273227" lon="10.515873">
        <time>2026-09-01T09:52:00.165000Z</time>
      </trkpt>
      <trkpt lat="52.273184" lon="10.516421">
        <time>2026-09-01T09:52:15.165000Z</time>
      </trkpt>
      <trkpt lat="52.273138" lon="10.516846">
        <time>2026-09-01T09:52:27.265000Z</time>
      </trkpt>
      <trkpt lat="52.273091" lon="10.51702">
        <time>2026-09-01T09:52:33.265000Z</time>
      </trkpt>
      <trkpt lat="52.273087" lon="10.517257">
        <time>2026-09-01T09:52:42.265000Z</time>
      </trkpt>
      <trkpt lat="52.273" lon="10.517759">
        <time>2026-09-01T09:52:57.265000Z</time>
      </trkpt>
      <trkpt lat="52.272951" lon="10.518225">
        <time>2026-09-01T09:53:12.265000Z</time>
      </trkpt>
      <trkpt lat="52.272956" lon="10.518681">
        <time>2026-09-01T09:53:24.265000Z</time>
      </trkpt>
      <trkpt lat="52.272979" lon="10.518806">
        <time>2026-09-01T09:53:27.265000Z</time>
      </trkpt>
      <trkpt lat="52.273094" lon="10.519073">
        <time>2026-09-01T09:53:36.265000Z</time>
      </trkpt>
      <trkpt lat="52.273163" lon="10.519371">
        <time>2026-09-01T09:53:45.265000Z</time>
      </trkpt>
      <trkpt lat="52.273133" lon="10.519433">
        <time>2026-09-01T09:53:48.265000Z</time>
      </trkpt>
      <trkpt lat="52.273064" lon="10.519717">
        <time>2026-09-01T09:53:57.265000Z</time>
      </trkpt>
      <trkpt lat="52.272899" lon="10.520138">
        <time>2026-09-01T09:54:12.265000Z</time>
      </trkpt>
      <trkpt lat="52.272746" lon="10.52057">
        <time>2026-09-01T09:54:27.265000Z</time>
      </trkpt>
      <trkpt lat="52.272586" lon="10.520989">
        <time>2026-09-01T09:54:42.265000Z</time>
      </trkpt>
      <trkpt lat="52.272451" lon="10.521425">
        <time>2026-09-01T09:54:54.265000Z</time>
      </trkpt>
      <trkpt lat="52.27228" lon="10.521872">
        <time>2026-09-01T09:55:09.265000Z</time>
      </trkpt>
      <trkpt lat="52.272179" lon="10.522173">
        <time>2026-09-01T09:55:18.265000Z</time>
      </trkpt>
      <trkpt lat="52.272072" lon="10.52232">
        <time>2026-09-01T09:55:24.265000Z</time>
      </trkpt>
      <trkpt lat="52.27194" lon="10.522356">
        <time>2026-09-01T09:55:36.265000Z</time>
      </trkpt>
      <trkpt lat="52.27175" lon="10.5223">
        <time>2026-09-01T09:55:45.265000Z</time>
      </trkpt>
      <trkpt lat="52.271553" lon="10.522018">
        <time>2026-09-01T09:55:57.265000Z</time>
      </trkpt>
      <trkpt lat="52.271507" lon="10.521992">
        <time>2026-09-01T09:56:00.265000Z</time>
      </trkpt>
      <trkpt lat="52.271441" lon="10.522021">
        <time>2026-09-01T09:56:06.265000Z</time>
      </trkpt>
      <trkpt lat="52.271395" lon="10.522116">
        <time>2026-09-01T09:56:12.365000Z</time>
      </trkpt>
    </trkseg>
  </trk>
</gpx>