<?xml version="1.0" encoding="UTF-8"?>
<gpx xmlns="http://www.topografix.com/GPX/1/1" xmlns:gpxtpx="http://www.garmin.com/xmlschemas/TrackPointExtension/v1" xmlns:xsi="http://www.w3.org/2001/XMLSchema-instance" xsi:schemaLocation="http://www.topografix.com/GPX/1/1 http://www.topografix.com/GPX/1/1/gpx.xsd" version="1.1" creator="gpx.py -- https://github.com/tkrajina/gpxpy">
  <trk>
    <name>gpx from keep</name>
    <type>Run</type>
    <trkseg>
      <trkpt lat="52.269886" lon="10.522722">
        <time>2026-10-07T14:23:52.945000Z</time>
      </trkpt>
      <trkpt lat="52.269857" lon="10.522799">
        <time>2026-10-07T14:23:58.945000Z</time>
      </trkpt>
      <trkpt lat="52.269869" lon="10.522908">
        <time>2026-10-07T14:24:01.945000Z</time>
      </trkpt>
      <trkpt lat="52.269937" lon="10.523108">
        <time>2026-10-07T14:24:07.945000Z</time>
      </trkpt>
      <trkpt lat="52.270102" lon="10.523141">
        <time>2026-10-07T14:24:16.945000Z</time>
      </trkpt>
      <trkpt lat="52.270237" lon="10.5231">
        <time>2026-10-07T14:24:22.945000Z</time>
      </trkpt>
      <trkpt lat="52.270471" lon="10.522829">
        <time>2026-10-07T14:24:37.945000Z</time>
      </trkpt>
      <trkpt lat="52.270592" lon="10.522719">
        <time>2026-10-07T14:24:43.945000Z</time>
      </trkpt>
      <trkpt lat="52.270665" lon="10.522712">
        <time>2026-10-07T14:24:49.945000Z</time>
      </trkpt>
      <trkpt lat="52.270779" lon="10.522659">
        <time>2026-10-07T14:24:55.945000Z</time>
      </trkpt>
      <trkpt lat="52.27094" lon="10.522516">
        <time>2026-10-07T14:25:01.945000Z</time>
      </trkpt>
      <trkpt lat="52.271172" lon="10.522426">
        <time>2026-10-07T14:25:11.045000Z</time>
      </trkpt>
      <trkpt lat="52.27135" lon="10.522217">
        <time>2026-10-07T14:25:20.045000Z</time>
      </trkpt>
      <trkpt lat="52.27143" lon="10.522083">
        <time>2026-10-07T14:25:26.045000Z</time>
      </trkpt>
      <trkpt lat="52.271486" lon="10.52203">
        <time>2026-10-07T14:25:29.045000Z</time>
      </trkpt>
      <trkpt lat="52.271558" lon="10.522099">
        <time>2026-10-07T14:25:35.045000Z</time>
      </trkpt>
      <trkpt lat="52.271676" lon="10.522342">
        <time>2026-10-07T14:25:44.045000Z</time>
      </trkpt>
      <trkpt lat="52.271764" lon="10.522323">
        <time>2026-10-07T14:25:47.045000Z</time>
      </trkpt>
      <trkpt lat="52.271831" lon="10.522359">
        <time>2026-10-07T14:25:50.045000Z</time>
      </trkpt>
      <trkpt lat="52.272095" lon="10.522296">
        <time>2026-10-07T14:26:02.045000Z</time>
      </trkpt>
      <trkpt lat="52.272162" lon="10.522219">
        <time>2026-10-07T14:26:05.045000Z</time>
      </trkpt>
      <trkpt lat="52.272292" lon="10.521893">
        <time>2026-10-07T14:26:14.045000Z</time>
      </trkpt>
      <trkpt lat="52.2725" lon="10.521491">
        <time>2026-10-07T14:26:26.045000Z</time>
      </trkpt>
      <trkpt lat="52.272582" lon="10.521307">
        <time>2026-10-07T14:26:32.045000Z</time>
      </trkpt>
      <trkpt lat="52.272655" lon="10.521051">
        <time>2026-10-07T14:26:41.045000Z</time>
      </trkpt>
      <trkpt lat="52.272819" lon="10.520683">
        <time>2026-10-07T14:26:53.045000Z</time>
      </trkpt>
      <trkpt lat="52.272996" lon="10.520207">
        <time>2026-10-07T14:27:05.045000Z</time>
      </trkpt>
      <trkpt lat="52.273043" lon="10.519928">
        <time>2026-10-07T14:27:11.045000Z</time>
      </trkpt>
      <trkpt lat="52.273196" lon="10.5195">
        <time>2026-10-07T14:27:23.045000Z</time>
      </trkpt>
      <trkpt lat="52.273217" lon="10.519398">
        <time>2026-10-07T14:27:26.045000Z</time>
      </trkpt>
      <trkpt lat="52.273122" lon="10.518982">
        <time>2026-10-07T14:27:38.045000Z</time>
      </trkpt>
      <trkpt lat="52.273083" lon="10.518825">
        <time>2026-10-07T14:27:41.045000Z</time>
      </trkpt>
      <trkpt lat="52.273071" lon="10.518663">
        <time>2026-10-07T14:27:44.045000Z</time>
      </trkpt>
      <trkpt lat="52.273099" lon="10.518329">
        <time>2026-10-07T14:27:53.045000Z</time>
      </trkpt>
      <trkpt lat="52.273201" lon="10.517825">
        <time>2026-10-07T14:28:11.045000Z</time>
      </trkpt>
      <trkpt lat="52.273242" lon="10.517381">
        <time>2026-10-07T14:28:23.045000Z</time>
      </trkpt>
      <trkpt lat="52.273319" lon="10.516953">
        <time>2026-10-07T14:28:35.045000Z</time>
      </trkpt>
      <trkpt lat="52.273408" lon="10.516496">
        <time>2026-10-07T14:28:47.045000Z</time>
      </trkpt>
      <trkpt lat="52.273418" lon="10.51626">
        <time>2026-10-07T14:28:53.045000Z</time>
      </trkpt>
      <trkpt lat="52.273361" lon="10.516057">
        <time>2026-10-07T14:28:59.045000Z</time>
      </trkpt>
      <trkpt lat="52.273237" lon="10.51583">
        <time>2026-10-07T14:29:05.045000Z</time>
      </trkpt>
      <trkpt lat="52.273232" lon="10.515395">
        <time>2026-10-07T14:29:17.045000Z</time>
      </trkpt>
      <trkpt lat="52.273262" lon="10.515149">
        <time>2026-10-07T14:29:23.045000Z</time>
      </trkpt>
      <trkpt lat="52.273323" lon="10.514919">
        <time>2026-10-07T14:29:29.045000Z</time>
      </trkpt>
      <trkpt lat="52.273479" lon="10.514568">
        <time>2026-10-07T14:29:41.045000Z</time>
      </trkpt>
      <trkpt lat="52.273676" lon="10.51427">
        <time>2026-10-07T14:29:53.045000Z</time>
      </trkpt>
      <trkpt lat="52.273846" lon="10.514113">
        <time>2026-10-07T14:30:02.045000Z</time>
      </trkpt>
      <trkpt lat="52.273958" lon="10.514079">
        <time>2026-10-07T14:30:08.045000Z</time>
      </trkpt>
      <trkpt lat="52.274232" lon="10.513869">
        <time>2026-10-07T14:30:17.045000Z</time>
      </trkpt>
      <trkpt lat="52.274437" lon="10.513771">
        <time>2026-10-07T14:30:26.045000Z</time>
      </trkpt>
      <trkpt lat="52.27462" lon="10.513881">
        <time>2026-10-07T14:30:35.045000Z</time>
      </trkpt>
      <trkpt lat="52.274917" lon="10.513684">
        <time>2026-10-07T14:30:50.045000Z</time>
      </trkpt>
      <trkpt lat="52.275213" lon="10.513551">
        <time>2026-10-07T14:31:02.145000Z</time>
      </trkpt>
      <trkpt lat="52.275413" lon="10.513457">
        <time>2026-10-07T14:31:11.145000Z</time>
      </trkpt>
      <trkpt lat="52.275518" lon="10.513366">
        <time>2026-10-07T14:31:17.145000Z</time>
      </trkpt>
      <trkpt lat="52.275835" lon="10.513248">
        <time>2026-10-07T14:31:29.145000Z</time>
      </trkpt>
      <trkpt lat="52.276105" lon="10.513239">
        <time>2026-10-07T14:31:41.145000Z</time>
      </trkpt>
      <trkpt lat="52.276375" lon="10.513217">
        <time>2026-10-07T14:31:53.145000Z</time>
      </trkpt>
      <trkpt lat="52.276669" lon="10.513212">
        <time>2026-10-07T14:32:05.145000Z</time>
      </trkpt>
      <trkpt lat="52.276957" lon="10.513226">
        <time>2026-10-07T14:32:17.145000Z</time>
      </trkpt>
      <trkpt lat="52.277242" lon="10.513214">
        <time>2026-10-07T14:32:29.145000Z</time>
      </trkpt>
      <trkpt lat="52.277523" lon="10.513185">
        <time>2026-10-07T14:32:41.145000Z</time>
      </trkpt>
      <trkpt lat="52.277834" lon="10.513158">
        <time>2026-10-07T14:32:53.145000Z</time>
      </trkpt>
      <trkpt lat="52.278126" lon="10.513169">
        <time>2026-10-07T14:33:05.145000Z</time>
      </trkpt>
      <trkpt lat="52.278454" lon="10.513159">
        <time>2026-10-07T14:33:20.145000Z</time>
      </trkpt>
      <trkpt lat="52.278748" lon="10.513173">
        <time>2026-10-07T14:33:32.145000Z</time>
      </trkpt>
      <trkpt lat="52.279026" lon="10.513152">
        <time>2026-10-07T14:33:44.145000Z</time>
      </trkpt>
      <trkpt lat="52.27931" lon="10.513162">
        <time>2026-10-07T14:33:56.145000Z</time>
      </trkpt>
      <trkpt lat="52.279594" lon="10.513165">
        <time>2026-10-07T14:34:08.145000Z</time>
      </trkpt>
      <trkpt lat="52.279916" lon="10.513128">
        <time>2026-10-07T14:34:23.145000Z</time>
      </trkpt>
      <trkpt lat="52.280252" lon="10.513115">
        <time>2026-10-07T14:34:38.145000Z</time>
      </trkpt>
      <trkpt lat="52.280543" lon="10.513128">
        <time>2026-10-07T14:34:50.145000Z</time>
      </trkpt>
      <trkpt lat="52.280846" lon="10.513143">
        <time>2026-10-07T14:35:02.145000Z</time>
      </trkpt>
      <trkpt lat="52.281148" lon="10.513139">
        <time>2026-10-07T14:35:14.145000Z</time>
      </trkpt>
      <trkpt lat="52.281425" lon="10.513122">
        <time>2026-10-07T14:35:26.145000Z</time>
      </trkpt>
      <trkpt lat="52.28165" lon="10.513109">
        <time>2026-10-07T14:35:38.145000Z</time>
      </trkpt>
      <trkpt lat="52.281713" lon="10.513083">
        <time>2026-10-07T14:35:41.145000Z</time>
      </trkpt>
      <trkpt lat="52.282038" lon="10.513098">
        <time>2026-10-07T14:35:53.145000Z</time>
      </trkpt>
      <trkpt lat="52.282363" lon="10.513117">
        <time>2026-10-07T14:36:08.145000Z</time>
      </trkpt>
      <trkpt lat="52.282676" lon="10.513172">
        <time>2026-10-07T14:36:23.145000Z</time>
      </trkpt>
      <trkpt lat="52.283012" lon="10.513123">
        <time>2026-10-07T14:36:44.145000Z</time>
      </trkpt>
      <trkpt lat="52.283365" lon="10.513101">
        <time>2026-10-07T14:37:02.245000Z</time>
      </trkpt>
      <trkpt lat="52.283656" lon="10.513092">
        <time>2026-10-07T14:37:14.245000Z</time>
      </trkpt>
      <trkpt lat="52.283937" lon="10.513082">
        <time>2026-10-07T14:37:26.245000Z</time>
      </trkpt>
      <trkpt lat="52.284222" lon="10.513079">
        <time>2026-10-07T14:37:38.245000Z</time>
      </trkpt>
      <trkpt lat="52.284436" lon="10.51307">
        <time>2026-10-07T14:37:47.245000Z</time>
      </trkpt>
      <trkpt lat="52.284499" lon="10.513042">
        <time>2026-10-07T14:37:50.245000Z</time>
      </trkpt>
      <trkpt lat="52.284784" lon="10.51305">
        <time>2026-10-07T14:38:05.245000Z</time>
      </trkpt>
      <trkpt lat="52.285019" lon="10.513037">
        <time>2026-10-07T14:38:17.245000Z</time>
      </trkpt>
      <trkpt lat="52.285303" lon="10.513062">
        <time>2026-10-07T14:38:29.245000Z</time>
      </trkpt>
      <trkpt lat="52.285385" lon="10.513062">
        <time>2026-10-07T14:38:32.245000Z</time>
      </trkpt>
      <trkpt lat="52.285699" lon="10.513037">
        <time>2026-10-07T14:38:44.245000Z</time>
      </trkpt>
      <trkpt lat="52.286013" lon="10.51301">
        <time>2026-10-07T14:38:59.245000Z</time>
      </trkpt>
      <trkpt lat="52.286335" lon="10.513026">
        <time>2026-10-07T14:39:11.245000Z</time>
      </trkpt>
      <trkpt lat="52.286673" lon="10.513004">
        <time>2026-10-07T14:39:23.245000Z</time>
      </trkpt>
      <trkpt lat="52.286824" lon="10.512982">
        <time>2026-10-07T14:39:29.245000Z</time>
      </trkpt>
      <trkpt lat="52.287092" lon="10.513085">
        <time>2026-10-07T14:39:41.245000Z</time>
      </trkpt>
      <trkpt lat="52.287421" lon="10.513098">
        <time>2026-10-07T14:39:53.245000Z</time>
      </trkpt>
      <trkpt lat="52.287733" lon="10.513119">
        <time>2026-10-07T14:40:05.245000Z</time>
      </trkpt>
      <trkpt lat="52.28803" lon="10.513152">
        <time>2026-10-07T14:40:17.245000Z</time>
      </trkpt>
      <trkpt lat="52.288319" lon="10.513186">
        <time>2026-10-07T14:40:29.245000Z</time>
      </trkpt>
      <trkpt lat="52.288632" lon="10.513175">
        <time>2026-10-07T14:40:44.245000Z</time>
      </trkpt>
      <trkpt lat="52.288699" lon="10.513171">
        <time>2026-10-07T14:40:47.245000Z</time>
      </trkpt>
      <trkpt lat="52.288767" lon="10.513119">
        <time>2026-10-07T14:40:50.245000Z</time>
      </trkpt>
      <trkpt lat="52.288932" lon="10.512852">
        <time>2026-10-07T14:40:59.245000Z</time>
      </trkpt>
      <trkpt lat="52.289017" lon="10.512519">
        <time>2026-10-07T14:41:08.345000Z</time>
      </trkpt>
      <trkpt lat="52.28903" lon="10.512074">
        <time>2026-10-07T14:41:20.345000Z</time>
      </trkpt>
      <trkpt lat="52.289068" lon="10.511551">
        <time>2026-10-07T14:41:41.345000Z</time>
      </trkpt>
      <trkpt lat="52.289065" lon="10.51108">
        <time>2026-10-07T14:41:53.345000Z</time>
      </trkpt>
      <trkpt lat="52.289123" lon="10.510748">
        <time>2026-10-07T14:42:02.345000Z</time>
      </trkpt>
      <trkpt lat="52.289101" lon="10.510282">
        <time>2026-10-07T14:42:14.345000Z</time>
      </trkpt>
      <trkpt lat="52.289071" lon="10.509797">
        <time>2026-10-07T14:42:26.345000Z</time>
      </trkpt>
      <trkpt lat="52.289048" lon="10.509247">
        <time>2026-10-07T14:42:44.345000Z</time>
      </trkpt>
      <trkpt lat="52.289034" lon="10.50875">
        <time>2026-10-07T14:42:56.345000Z</time>
      </trkpt>
      <trkpt lat="52.289092" lon="10.508293">
        <time>2026-10-07T14:43:08.345000Z</time>
      </trkpt>
      <trkpt lat="52.289166" lon="10.507822">
        <time>2026-10-07T14:43:20.345000Z</time>
      </trkpt>
      <trkpt lat="52.289252" lon="10.507359">
        <time>2026-10-07T14:43:32.345000Z</time>
      </trkpt>
      <trkpt lat="52.289324" lon="10.506875">
        <time>2026-10-07T14:43:44.345000Z</time>
      </trkpt>
      <trkpt lat="52.289387" lon="10.506444">
        <time>2026-10-07T14:43:56.345000Z</time>
      </trkpt>
      <trkpt lat="52.289545" lon="10.50601">
        <time>2026-10-07T14:44:14.345000Z</time>
      </trkpt>
      <trkpt lat="52.289673" lon="10.50556">
        <time>2026-10-07T14:44:26.345000Z</time>
      </trkpt>
      <trkpt lat="52.289744" lon="10.505363">
        <time>2026-10-07T14:44:32.345000Z</time>
      </trkpt>
      <trkpt lat="52.289843" lon="10.505225">
        <time>2026-10-07T14:44:38.345000Z</time>
      </trkpt>
      <trkpt lat="52.290164" lon="10.505044">
        <time>2026-10-07T14:44:53.345000Z</time>
      </trkpt>
      <trkpt lat="52.290283" lon="10.504928">
        <time>2026-10-07T14:44:59.345000Z</time>
      </trkpt>
      <trkpt lat="52.290485" lon="10.504592">
        <time>2026-10-07T14:45:11.345000Z</time>
      </trkpt>
      <trkpt lat="52.290673" lon="10.504191">
        <time>2026-10-07T14:45:23.445000Z</time>
      </trkpt>
      <trkpt lat="52.290684" lon="10.504063">
        <time>2026-10-07T14:45:26.445000Z</time>
      </trkpt>
      <trkpt lat="52.290669" lon="10.503708">
        <time>2026-10-07T14:45:35.445000Z</time>
      </trkpt>
      <trkpt lat="52.290654" lon="10.503633">
        <time>2026-10-07T14:45:38.445000Z</time>
      </trkpt>
      <trkpt lat="52.290516" lon="10.503362">
        <time>2026-10-07T14:45:47.445000Z</time>
      </trkpt>
      <trkpt lat="52.290273" lon="10.503071">
        <time>2026-10-07T14:45:59.445000Z</time>
      </trkpt>
      <trkpt lat="52.290004" lon="10.502804">
        <time>2026-10-07T14:46:11.445000Z</time>
      </trkpt>
      <trkpt lat="52.28975" lon="10.502476">
        <time>2026-10-07T14:46:23.445000Z</time>
      </trkpt>
      <trkpt lat="52.289676" lon="10.502462">
        <time>2026-10-07T14:46:26.445000Z</time>
      </trkpt>
      <trkpt lat="52.289452" lon="10.502625">
        <time>2026-10-07T14:46:38.445000Z</time>
      </trkpt>
      <trkpt lat="52.289313" lon="10.50265">
        <time>2026-10-07T14:46:44.445000Z</time>
      </trkpt>
      <trkpt lat="52.289243" lon="10.502637">
        <time>2026-10-07T14:46:47.445000Z</time>
      </trkpt>
      <trkpt lat="52.289178" lon="10.502593">
        <time>2026-10-07T14:46:50.445000Z</time>
      </trkpt>
      <trkpt lat="52.289026" lon="10.502205">
        <time>2026-10-07T14:47:05.445000Z</time>
      </trkpt>
      <trkpt lat="52.288835" lon="10.501769">
        <time>2026-10-07T14:47:20.445000Z</time>
      </trkpt>
      <trkpt lat="52.288631" lon="10.501389">
        <time>2026-10-07T14:47:32.445000Z</time>
      </trkpt>
      <trkpt lat="52.288432" lon="10.501141">
        <time>2026-10-07T14:47:44.445000Z</time>
      </trkpt>
      <trkpt lat="52.288297" lon="10.501049">
        <time>2026-10-07T14:47:50.445000Z</time>
      </trkpt>
      <trkpt lat="52.288027" lon="10.500977">
        <time>2026-10-07T14:48:02.445000Z</time>
      </trkpt>
      <trkpt lat="52.287961" lon="10.500957">
        <time>2026-10-07T14:48:05.445000Z</time>
      </trkpt>
      <trkpt lat="52.287763" lon="10.501089">
        <time>2026-10-07T14:48:14.445000Z</time>
      </trkpt>
      <trkpt lat="52.287526" lon="10.501385">
        <time>2026-10-07T14:48:26.445000Z</time>
      </trkpt>
      <trkpt lat="52.287346" lon="10.501716">
        <time>2026-10-07T14:48:38.445000Z</time>
      </trkpt>
      <trkpt lat="52.287201" lon="10.502117">
        <time>2026-10-07T14:48:47.445000Z</time>
      </trkpt>
      <trkpt lat="52.287094" lon="10.50253">
        <time>2026-10-07T14:48:56.445000Z</time>
      </trkpt>
      <trkpt lat="52.286989" lon="10.50304">
        <time>2026-10-07T14:49:08.445000Z</time>
      </trkpt>
      <trkpt lat="52.286897" lon="10.503598">
        <time>2026-10-07T14:49:26.545000Z</time>
      </trkpt>
      <trkpt lat="52.286775" lon="10.504115">
        <time>2026-10-07T14:49:41.545000Z</time>
      </trkpt>
      <trkpt lat="52.286712" lon="10.504425">
        <time>2026-10-07T14:49:50.545000Z</time>
      </trkpt>
      <trkpt lat="52.286704" lon="10.504928">
        <time>2026-10-07T14:50:02.545000Z</time>
      </trkpt>
      <trkpt lat="52.286723" lon="10.505467">
        <time>2026-10-07T14:50:17.545000Z</time>
      </trkpt>
      <trkpt lat="52.286749" lon="10.505913">
        <time>2026-10-07T14:50:29.545000Z</time>
      </trkpt>
      <trkpt lat="52.286765" lon="10.506152">
        <time>2026-10-07T14:50:38.545000Z</time>
      </trkpt>
      <trkpt lat="52.286759" lon="10.506674">
        <time>2026-10-07T14:50:50.545000Z</time>
      </trkpt>
      <trkpt lat="52.286725" lon="10.507078">
        <time>2026-10-07T14:50:59.545000Z</time>
      </trkpt>
      <trkpt lat="52.286747" lon="10.507523">
        <time>2026-10-07T14:51:08.545000Z</time>
      </trkpt>
      <trkpt lat="52.286723" lon="10.507718">
        <time>2026-10-07T14:51:14.545000Z</time>
      </trkpt>
      <trkpt lat="52.286559" lon="10.508215">
        <time>2026-10-07T14:51:29.545000Z</time>
      </trkpt>
      <trkpt lat="52.286487" lon="10.50857">
        <time>2026-10-07T14:51:38.545000Z</time>
      </trkpt>
      <trkpt lat="52.286473" lon="10.50882">
        <time>2026-10-07T14:51:44.545000Z</time>
      </trkpt>
      <trkpt lat="52.286508" lon="10.509331">
        <time>2026-10-07T14:51:56.545000Z</time>
      </trkpt>
      <trkpt lat="52.286553" lon="10.509868">
        <time>2026-10-07T14:52:11.545000Z</time>
      </trkpt>
      <trkpt lat="52.286592" lon="10.510336">
        <time>2026-10-07T14:52:23.545000Z</time>
      </trkpt>
      <trkpt lat="52.286616" lon="10.51069">
        <time>2026-10-07T14:52:32.545000Z</time>
      </trkpt>
      <trkpt lat="52.286499" lon="10.511117">
        <time>2026-10-07T14:52:47.545000Z</time>
      </trkpt>
      <trkpt lat="52.286356" lon="10.51158">
        <time>2026-10-07T14:53:02.645000Z</time>
      </trkpt>
      <trkpt lat="52.2862" lon="10.512002">
        <time>2026-10-07T14:53:14.645000Z</time>
      </trkpt>
      <trkpt lat="52.285981" lon="10.512377">
        <time>2026-10-07T14:53:26.645000Z</time>
      </trkpt>
      <trkpt lat="52.285764" lon="10.51271">
        <time>2026-10-07T14:53:41.645000Z</time>
      </trkpt>
      <trkpt lat="52.285642" lon="10.512894">
        <time>2026-10-07T14:53:47.645000Z</time>
      </trkpt>
      <trkpt lat="52.285554" lon="10.512965">
        <time>2026-10-07T14:53:50.645000Z</time>
      </trkpt>
      <trkpt lat="52.285227" lon="10.512988">
        <time>2026-10-07T14:54:02.645000Z</time>
      </trkpt>
      <trkpt lat="52.284915" lon="10.513022">
        <time>2026-10-07T14:54:14.645000Z</time>
      </trkpt>
      <trkpt lat="52.284621" lon="10.513021">
        <time>2026-10-07T14:54:26.645000Z</time>
      </trkpt>
      <trkpt lat="52.284319" lon="10.513026">
        <time>2026-10-07T14:54:38.645000Z</time>
      </trkpt>
      <trkpt lat="52.284043" lon="10.513031">
        <time>2026-10-07T14:54:50.645000Z</time>
      </trkpt>
      <trkpt lat="52.283761" lon="10.513037">
        <time>2026-10-07T14:55:02.645000Z</time>
      </trkpt>
      <trkpt lat="52.28347" lon="10.513028">
        <time>2026-10-07T14:55:14.645000Z</time>
      </trkpt>
      <trkpt lat="52.283161" lon="10.513039">
        <time>2026-10-07T14:55:26.645000Z</time>
      </trkpt>
      <trkpt lat="52.282866" lon="10.51307">
        <time>2026-10-07T14:55:38.645000Z</time>
      </trkpt>
      <trkpt lat="52.282527" lon="10.513072">
        <time>2026-10-07T14:55:56.645000Z</time>
      </trkpt>
      <trkpt lat="52.282217" lon="10.513078">
        <time>2026-10-07T14:56:08.645000Z</time>
      </trkpt>
      <trkpt lat="52.281925" lon="10.513075">
        <time>2026-10-07T14:56:20.645000Z</time>
      </trkpt>
      <trkpt lat="52.281653" lon="10.513103">
        <time>2026-10-07T14:56:32.645000Z</time>
      </trkpt>
      <trkpt lat="52.281522" lon="10.513161">
        <time>2026-10-07T14:56:38.745000Z</time>
      </trkpt>
      <trkpt lat="52.281342" lon="10.513116">
        <time>2026-10-07T14:56:47.745000Z</time>
      </trkpt>
      <trkpt lat="52.281053" lon="10.513119">
        <time>2026-10-07T14:56:59.745000Z</time>
      </trkpt>
      <trkpt lat="52.280755" lon="10.513101">
        <time>2026-10-07T14:57:11.745000Z</time>
      </trkpt>
      <trkpt lat="52.280458" lon="10.513115">
        <time>2026-10-07T14:57:23.745000Z</time>
      </trkpt>
      <trkpt lat="52.28018" lon="10.51314">
        <time>2026-10-07T14:57:35.745000Z</time>
      </trkpt>
      <trkpt lat="52.280043" lon="10.513163">
        <time>2026-10-07T14:57:41.745000Z</time>
      </trkpt>
      <trkpt lat="52.279897" lon="10.513151">
        <time>2026-10-07T14:57:50.745000Z</time>
      </trkpt>
      <trkpt lat="52.279606" lon="10.513174">
        <time>2026-10-07T14:58:08.745000Z</time>
      </trkpt>
      <trkpt lat="52.279316" lon="10.513186">
        <time>2026-10-07T14:58:26.745000Z</time>
      </trkpt>
      <trkpt lat="52.27904" lon="10.513176">
        <time>2026-10-07T14:58:38.745000Z</time>
      </trkpt>
      <trkpt lat="52.278743" lon="10.51321">
        <time>2026-10-07T14:58:50.745000Z</time>
      </trkpt>
      <trkpt lat="52.278429" lon="10.513212">
        <time>2026-10-07T14:59:02.845000Z</time>
      </trkpt>
      <trkpt lat="52.278283" lon="10.51318">
        <time>2026-10-07T14:59:08.745000Z</time>
      </trkpt>
      <trkpt lat="52.277993" lon="10.513186">
        <time>2026-10-07T14:59:20.845000Z</time>
      </trkpt>
      <trkpt lat="52.277682" lon="10.513186">
        <time>2026-10-07T14:59:32.845000Z</time>
      </trkpt>
      <trkpt lat="52.27737" lon="10.513168">
        <time>2026-10-07T14:59:47.845000Z</time>
      </trkpt>
      <trkpt lat="52.27708" lon="10.513172">
        <time>2026-10-07T14:59:59.845000Z</time>
      </trkpt>
      <trkpt lat="52.276808" lon="10.513179">
        <time>2026-10-07T15:00:11.845000Z</time>
      </trkpt>
      <trkpt lat="52.276536" lon="10.513189">
        <time>2026-10-07T15:00:23.845000Z</time>
      </trkpt>
      <trkpt lat="52.276244" lon="10.513195">
        <time>2026-10-07T15:00:35.845000Z</time>
      </trkpt>
      <trkpt lat="52.275918" lon="10.513226">
        <time>2026-10-07T15:00:47.845000Z</time>
      </trkpt>
      <trkpt lat="52.27578" lon="10.513249">
        <time>2026-10-07T15:00:53.845000Z</time>
      </trkpt>
      <trkpt lat="52.275471" lon="10.513434">
        <time>2026-10-07T15:01:08.845000Z</time>
      </trkpt>
      <trkpt lat="52.27519" lon="10.513591">
        <time>2026-10-07T15:01:20.845000Z</time>
      </trkpt>
      <trkpt lat="52.2749" lon="10.513715">
        <time>2026-10-07T15:01:32.845000Z</time>
      </trkpt>
      <trkpt lat="52.274622" lon="10.513848">
        <time>2026-10-07T15:01:44.845000Z</time>
      </trkpt>
      <trkpt lat="52.274556" lon="10.513825">
        <time>2026-10-07T15:01:47.845000Z</time>
      </trkpt>
      <trkpt lat="52.27443" lon="10.513739">
        <time>2026-10-07T15:01:53.845000Z</time>
      </trkpt>
      <trkpt lat="52.274226" lon="10.513802">
        <time>2026-10-07T15:02:02.845000Z</time>
      </trkpt>
      <trkpt lat="52.274036" lon="10.513927">
        <time>2026-10-07T15:02:11.845000Z</time>
      </trkpt>
      <trkpt lat="52.273833" lon="10.513937">
        <time>2026-10-07T15:02:20.845000Z</time>
      </trkpt>
      <trkpt lat="52.273638" lon="10.51411">
        <time>2026-10-07T15:02:29.845000Z</time>
      </trkpt>
      <trkpt lat="52.27343" lon="10.514437">
        <time>2026-10-07T15:02:41.845000Z</time>
      </trkpt>
      <trkpt lat="52.273334" lon="10.514598">
        <time>2026-10-07T15:02:47.845000Z</time>
      </trkpt>
      <trkpt lat="52.273203" lon="10.515079">
        <time>2026-10-07T15:03:02.845000Z</time>
      </trkpt>
      <trkpt lat="52.273158" lon="10.515281">
        <time>2026-10-07T15:03:08.845000Z</time>
      </trkpt>
      <trkpt lat="52.273113" lon="10.515558">
        <time>2026-10-07T15:03:17.845000Z</time>
      </trkpt>
      <trkpt lat="52.27313" lon="10.515654">
        <time>2026-10-07T15:03:20.845000Z</time>
      </trkpt>
      <trkpt lat="52.273172" lon="10.515715">
        <time>2026-10-07T15:03:23.845000Z</time>
      </trkpt>
      <trkpt lat="52.273144" lon="10.51614">
        <time>2026-10-07T15:03:35.845000Z</time>
      </trkpt>
      <trkpt lat="52.27317" lon="10.516567">
        <time>2026-10-07T15:03:47.845000Z</time>
      </trkpt>
      <trkpt lat="52.273121" lon="10.517006">
        <time>2026-10-07T15:03:59.845000Z</time>
      </trkpt>
      <trkpt lat="52.273103" lon="10.517225">
        <time>2026-10-07T15:04:05.845000Z</time>
      </trkpt>
      <trkpt lat="52.273043" lon="10.517444">
        <time>2026-10-07T15:04:11.845000Z</time>
      </trkpt>
      <trkpt lat="52.273029" lon="10.517946">
        <time>2026-10-07T15:04:23.845000Z</time>
      </trkpt>
      <trkpt lat="52.273033" lon="10.518414">
        <time>2026-10-07T15:04:35.845000Z</time>
      </trkpt>
      <trkpt lat="52.273087" lon="10.518933">
        <time>2026-10-07T15:04:50.845000Z</time>
      </trkpt>
      <trkpt lat="52.273157" lon="10.519245">
        <time>2026-10-07T15:04:59.845000Z</time>
      </trkpt>
      <trkpt lat="52.273142" lon="10.519344">
        <time>2026-10-07T15:05:02.845000Z</time>
      </trkpt>
      <trkpt lat="52.273005" lon="10.519758">
        <time>2026-10-07T15:05:14.845000Z</time>
      </trkpt>
      <trkpt lat="52.272916" lon="10.520066">
        <time>2026-10-07T15:05:23.845000Z</time>
      </trkpt>
      <trkpt lat="52.272802" lon="10.520329">
        <time>2026-10-07T15:05:32.845000Z</time>
      </trkpt>
      <trkpt lat="52.272673" lon="10.520831">
        <time>2026-10-07T15:05:47.845000Z</time>
      </trkpt>
      <trkpt lat="52.272539" lon="10.521228">
        <time>2026-10-07T15:05:59.845000Z</time>
      </trkpt>
      <trkpt lat="52.272434" lon="10.521545">
        <time>2026-10-07T15:06:08.845000Z</time>
      </trkpt>
      <trkpt lat="52.272328" lon="10.521723">
        <time>2026-10-07T15:06:14.845000Z</time>
      </trkpt>
      <trkpt lat="52.272152" lon="10.522148">
        <time>2026-10-07T15:06:26.845000Z</time>
      </trkpt>
      <trkpt lat="52.272094" lon="10.522233">
        <time>2026-10-07T15:06:29.845000Z</time>
      </trkpt>
      <trkpt lat="52.271951" lon="10.522291">
        <time>2026-10-07T15:06:35.845000Z</time>
      </trkpt>
      <trkpt lat="52.271813" lon="10.522302">
        <time>2026-10-07T15:06:41.845000Z</time>
      </trkpt>
      <trkpt lat="52.271743" lon="10.522274">
        <time>2026-10-07T15:06:44.845000Z</time>
      </trkpt>
      <trkpt lat="52.271592" lon="10.522051">
        <time>2026-10-07T15:06:53.845000Z</time>
      </trkpt>
      <trkpt lat="52.271534" lon="10.522009">
        <time>2026-10-07T15:06:56.845000Z</time>
      </trkpt>
      <trkpt lat="52.271394" lon="10.522107">
        <time>2026-10-07T15:07:02.845000Z</time>
      </trkpt>
      <trkpt lat="52.271192" lon="10.522314">
        <time>2026-10-07T15:07:11.845000Z</time>
      </trkpt>
      <trkpt lat="52.270915" lon="10.522399">
        <time>2026-10-07T15:07:23.945000Z</time>
      </trkpt>
      <trkpt lat="52.27066" lon="10.522508">
        <time>2026-10-07T15:07:35.945000Z</time>
      </trkpt>
      <trkpt lat="52.270477" lon="10.522748">
        <time>2026-10-07T15:07:44.945000Z</time>
      </trkpt>
      <trkpt lat="52.270225" lon="10.52295">
        <time>2026-10-07T15:07:56.945000Z</time>
      </trkpt>
      <trkpt lat="52.270018" lon="10.523077">
        <time>2026-10-07T15:08:14.945000Z</time>
      </trkpt>
      <trkpt lat="52.270018" lon="10.523077">
        <time>2026-10-07T15:08:20.745000Z</time>
      </trkpt>
    </trkseg>
  </trk>
</gpx>