<?xml version="1.0" encoding="UTF-8"?>
<gpx xmlns="http://www.topografix.com/GPX/1/1" xmlns:gpxtpx="http://www.garmin.com/xmlschemas/TrackPointExtension/v1" xmlns:xsi="http://www.w3.org/2001/XMLSchema-instance" xsi:schemaLocation="http://www.topografix.com/GPX/1/1 http://www.topografix.com/GPX/1/1/gpx.xsd" version="1.1" creator="gpx.py -- https://github.com/tkrajina/gpxpy">
  <trk>
    <name>gpx from keep</name>
    <type>Run</type>
    <trkseg>
      <trkpt lat="52.27015" lon="10.523282">
        <time>2026-09-27T08:57:08.538000Z</time>
      </trkpt>
      <trkpt lat="52.270414" lon="10.522995">
        <time>2026-09-27T08:57:26.538000Z</time>
      </trkpt>
      <trkpt lat="52.270456" lon="10.522905">
        <time>2026-09-27T08:57:29.538000Z</time>
      </trkpt>
      <trkpt lat="52.270643" lon="10.522568">
        <time>2026-09-27T08:57:41.538000Z</time>
      </trkpt>
      <trkpt lat="52.270719" lon="10.522612">
        <time>2026-09-27T08:57:44.538000Z</time>
      </trkpt>
      <trkpt lat="52.270995" lon="10.522477">
        <time>2026-09-27T08:57:56.538000Z</time>
      </trkpt>
      <trkpt lat="52.271197" lon="10.522378">
        <time>2026-09-27T08:58:05.538000Z</time>
      </trkpt>
      <trkpt lat="52.271418" lon="10.522063">
        <time>2026-09-27T08:58:17.538000Z</time>
      </trkpt>
      <trkpt lat="52.271479" lon="10.521989">
        <time>2026-09-27T08:58:20.538000Z</time>
      </trkpt>
      <trkpt lat="52.271617" lon="10.521988">
        <time>2026-09-27T08:58:26.538000Z</time>
      </trkpt>
      <trkpt lat="52.271696" lon="10.522043">
        <time>2026-09-27T08:58:29.538000Z</time>
      </trkpt>
      <trkpt lat="52.271823" lon="10.522258">
        <time>2026-09-27T08:58:35.538000Z</time>
      </trkpt>
      <trkpt lat="52.271932" lon="10.522303">
        <time>2026-09-27T08:58:41.538000Z</time>
      </trkpt>
      <trkpt lat="52.272055" lon="10.522257">
        <time>2026-09-27T08:58:47.538000Z</time>
      </trkpt>
      <trkpt lat="52.272118" lon="10.522185">
        <time>2026-09-27T08:58:50.538000Z</time>
      </trkpt>
      <trkpt lat="52.272319" lon="10.521723">
        <time>2026-09-27T08:59:02.538000Z</time>
      </trkpt>
      <trkpt lat="52.272378" lon="10.521565">
        <time>2026-09-27T08:59:05.538000Z</time>
      </trkpt>
      <trkpt lat="52.272413" lon="10.521517">
        <time>2026-09-27T08:59:08.538000Z</time>
      </trkpt>
      <trkpt lat="52.272496" lon="10.521234">
        <time>2026-09-27T08:59:14.538000Z</time>
      </trkpt>
      <trkpt lat="52.272546" lon="10.521116">
        <time>2026-09-27T08:59:17.638000Z</time>
      </trkpt>
      <trkpt lat="52.272575" lon="10.520995">
        <time>2026-09-27T08:59:20.638000Z</time>
      </trkpt>
      <trkpt lat="52.272621" lon="10.520898">
        <time>2026-09-27T08:59:23.638000Z</time>
      </trkpt>
      <trkpt lat="52.272756" lon="10.520462">
        <time>2026-09-27T08:59:35.638000Z</time>
      </trkpt>
      <trkpt lat="52.272934" lon="10.520056">
        <time>2026-09-27T08:59:47.638000Z</time>
      </trkpt>
      <trkpt lat="52.273066" lon="10.51966">
        <time>2026-09-27T08:59:59.638000Z</time>
      </trkpt>
      <trkpt lat="52.273097" lon="10.519556">
        <time>2026-09-27T09:00:02.638000Z</time>
      </trkpt>
      <trkpt lat="52.273193" lon="10.519361">
        <time>2026-09-27T09:00:14.638000Z</time>
      </trkpt>
      <trkpt lat="52.27319" lon="10.519276">
        <time>2026-09-27T09:00:17.638000Z</time>
      </trkpt>
      <trkpt lat="52.273087" lon="10.519086">
        <time>2026-09-27T09:00:23.638000Z</time>
      </trkpt>
      <trkpt lat="52.272988" lon="10.518777">
        <time>2026-09-27T09:00:32.638000Z</time>
      </trkpt>
      <trkpt lat="52.273026" lon="10.518329">
        <time>2026-09-27T09:00:44.638000Z</time>
      </trkpt>
      <trkpt lat="52.273097" lon="10.517868">
        <time>2026-09-27T09:00:56.638000Z</time>
      </trkpt>
      <trkpt lat="52.273136" lon="10.517646">
        <time>2026-09-27T09:01:02.638000Z</time>
      </trkpt>
      <trkpt lat="52.273152" lon="10.517266">
        <time>2026-09-27T09:01:11.638000Z</time>
      </trkpt>
      <trkpt lat="52.273194" lon="10.51693">
        <time>2026-09-27T09:01:20.638000Z</time>
      </trkpt>
      <trkpt lat="52.273195" lon="10.516399">
        <time>2026-09-27T09:01:35.638000Z</time>
      </trkpt>
      <trkpt lat="52.273204" lon="10.516176">
        <time>2026-09-27T09:01:41.638000Z</time>
      </trkpt>
      <trkpt lat="52.27325" lon="10.515922">
        <time>2026-09-27T09:01:47.638000Z</time>
      </trkpt>
      <trkpt lat="52.273243" lon="10.515811">
        <time>2026-09-27T09:01:50.638000Z</time>
      </trkpt>
      <trkpt lat="52.27321" lon="10.515744">
        <time>2026-09-27T09:01:53.638000Z</time>
      </trkpt>
      <trkpt lat="52.273144" lon="10.515718">
        <time>2026-09-27T09:01:56.638000Z</time>
      </trkpt>
      <trkpt lat="52.273111" lon="10.515639">
        <time>2026-09-27T09:01:59.638000Z</time>
      </trkpt>
      <trkpt lat="52.273196" lon="10.51528">
        <time>2026-09-27T09:02:11.638000Z</time>
      </trkpt>
      <trkpt lat="52.27323" lon="10.515044">
        <time>2026-09-27T09:02:17.638000Z</time>
      </trkpt>
      <trkpt lat="52.27338" lon="10.51462">
        <time>2026-09-27T09:02:29.638000Z</time>
      </trkpt>
      <trkpt lat="52.273574" lon="10.5143">
        <time>2026-09-27T09:02:41.638000Z</time>
      </trkpt>
      <trkpt lat="52.273727" lon="10.514093">
        <time>2026-09-27T09:02:50.638000Z</time>
      </trkpt>
      <trkpt lat="52.273834" lon="10.514015">
        <time>2026-09-27T09:02:56.638000Z</time>
      </trkpt>
      <trkpt lat="52.27396148526376" lon="10.514000444113478">
        <time>2026-09-27T09:03:02.638000Z</time>
      </trkpt>
      <trkpt lat="52.274233" lon="10.51383">
        <time>2026-09-27T09:03:14.638000Z</time>
      </trkpt>
      <trkpt lat="52.274363" lon="10.513751">
        <time>2026-09-27T09:03:20.638000Z</time>
      </trkpt>
      <trkpt lat="52.274443" lon="10.513752">
        <time>2026-09-27T09:03:23.638000Z</time>
      </trkpt>
      <trkpt lat="52.274629" lon="10.513869">
        <time>2026-09-27T09:03:32.638000Z</time>
      </trkpt>
      <trkpt lat="52.274944" lon="10.513706">
        <time>2026-09-27T09:03:47.638000Z</time>
      </trkpt>
      <trkpt lat="52.275195" lon="10.513588">
        <time>2026-09-27T09:03:59.638000Z</time>
      </trkpt>
      <trkpt lat="52.27541" lon="10.513438">
        <time>2026-09-27T09:04:11.638000Z</time>
      </trkpt>
      <trkpt lat="52.275698" lon="10.513295">
        <time>2026-09-27T09:04:26.638000Z</time>
      </trkpt>
      <trkpt lat="52.276032" lon="10.513225">
        <time>2026-09-27T09:04:38.638000Z</time>
      </trkpt>
      <trkpt lat="52.27636" lon="10.513228">
        <time>2026-09-27T09:04:53.638000Z</time>
      </trkpt>
      <trkpt lat="52.276632" lon="10.513192">
        <time>2026-09-27T09:05:05.638000Z</time>
      </trkpt>
      <trkpt lat="52.276955" lon="10.513202">
        <time>2026-09-27T09:05:20.638000Z</time>
      </trkpt>
      <trkpt lat="52.277231" lon="10.513177">
        <time>2026-09-27T09:05:32.638000Z</time>
      </trkpt>
      <trkpt lat="52.277561" lon="10.513177">
        <time>2026-09-27T09:05:47.638000Z</time>
      </trkpt>
      <trkpt lat="52.277808" lon="10.513139">
        <time>2026-09-27T09:05:59.638000Z</time>
      </trkpt>
      <trkpt lat="52.278087" lon="10.513193">
        <time>2026-09-27T09:06:11.638000Z</time>
      </trkpt>
      <trkpt lat="52.278388" lon="10.513133">
        <time>2026-09-27T09:06:23.638000Z</time>
      </trkpt>
      <trkpt lat="52.278724" lon="10.51315">
        <time>2026-09-27T09:06:38.638000Z</time>
      </trkpt>
      <trkpt lat="52.279061" lon="10.513121">
        <time>2026-09-27T09:06:53.638000Z</time>
      </trkpt>
      <trkpt lat="52.279331" lon="10.513113">
        <time>2026-09-27T09:07:05.638000Z</time>
      </trkpt>
      <trkpt lat="52.27938" lon="10.513137">
        <time>2026-09-27T09:07:08.638000Z</time>
      </trkpt>
      <trkpt lat="52.27968" lon="10.513133">
        <time>2026-09-27T09:07:20.638000Z</time>
      </trkpt>
      <trkpt lat="52.280005" lon="10.513121">
        <time>2026-09-27T09:07:35.638000Z</time>
      </trkpt>
      <trkpt lat="52.28034" lon="10.51313">
        <time>2026-09-27T09:07:50.638000Z</time>
      </trkpt>
      <trkpt lat="52.280619" lon="10.513124">
        <time>2026-09-27T09:08:02.638000Z</time>
      </trkpt>
      <trkpt lat="52.280927" lon="10.513124">
        <time>2026-09-27T09:08:14.638000Z</time>
      </trkpt>
      <trkpt lat="52.281214" lon="10.513108">
        <time>2026-09-27T09:08:26.638000Z</time>
      </trkpt>
      <trkpt lat="52.281489" lon="10.513118">
        <time>2026-09-27T09:08:38.638000Z</time>
      </trkpt>
      <trkpt lat="52.281588" lon="10.513127">
        <time>2026-09-27T09:08:44.638000Z</time>
      </trkpt>
      <trkpt lat="52.281641042029705" lon="10.513186172370776">
        <time>2026-09-27T09:08:47.638000Z</time>
      </trkpt>
      <trkpt lat="52.281704" lon="10.513153">
        <time>2026-09-27T09:08:50.638000Z</time>
      </trkpt>
      <trkpt lat="52.281838" lon="10.513147">
        <time>2026-09-27T09:08:56.638000Z</time>
      </trkpt>
      <trkpt lat="52.282163" lon="10.513105">
        <time>2026-09-27T09:09:11.738000Z</time>
      </trkpt>
      <trkpt lat="52.282408" lon="10.513076">
        <time>2026-09-27T09:09:23.738000Z</time>
      </trkpt>
      <trkpt lat="52.282685" lon="10.513087">
        <time>2026-09-27T09:09:35.738000Z</time>
      </trkpt>
      <trkpt lat="52.283018" lon="10.513082">
        <time>2026-09-27T09:09:50.738000Z</time>
      </trkpt>
      <trkpt lat="52.283307" lon="10.513069">
        <time>2026-09-27T09:10:02.738000Z</time>
      </trkpt>
      <trkpt lat="52.283639" lon="10.513078">
        <time>2026-09-27T09:10:17.738000Z</time>
      </trkpt>
      <trkpt lat="52.283976" lon="10.513064">
        <time>2026-09-27T09:10:32.738000Z</time>
      </trkpt>
      <trkpt lat="52.284247" lon="10.51306">
        <time>2026-09-27T09:10:44.738000Z</time>
      </trkpt>
      <trkpt lat="52.284521" lon="10.513048">
        <time>2026-09-27T09:10:56.738000Z</time>
      </trkpt>
      <trkpt lat="52.28487" lon="10.51306">
        <time>2026-09-27T09:11:11.738000Z</time>
      </trkpt>
      <trkpt lat="52.285148" lon="10.513051">
        <time>2026-09-27T09:11:23.738000Z</time>
      </trkpt>
      <trkpt lat="52.285457" lon="10.513036">
        <time>2026-09-27T09:11:38.738000Z</time>
      </trkpt>
      <trkpt lat="52.285736" lon="10.513037">
        <time>2026-09-27T09:11:50.738000Z</time>
      </trkpt>
      <trkpt lat="52.286023" lon="10.51302">
        <time>2026-09-27T09:12:05.738000Z</time>
      </trkpt>
      <trkpt lat="52.286325" lon="10.513026">
        <time>2026-09-27T09:12:17.738000Z</time>
      </trkpt>
      <trkpt lat="52.286618" lon="10.513022">
        <time>2026-09-27T09:12:29.738000Z</time>
      </trkpt>
      <trkpt lat="52.286943" lon="10.513018">
        <time>2026-09-27T09:12:44.738000Z</time>
      </trkpt>
      <trkpt lat="52.287054" lon="10.513065">
        <time>2026-09-27T09:12:50.738000Z</time>
      </trkpt>
      <trkpt lat="52.287382" lon="10.513084">
        <time>2026-09-27T09:13:05.738000Z</time>
      </trkpt>
      <trkpt lat="52.287711" lon="10.513119">
        <time>2026-09-27T09:13:20.738000Z</time>
      </trkpt>
      <trkpt lat="52.288016" lon="10.513134">
        <time>2026-09-27T09:13:35.738000Z</time>
      </trkpt>
      <trkpt lat="52.288323" lon="10.513158">
        <time>2026-09-27T09:13:50.738000Z</time>
      </trkpt>
      <trkpt lat="52.28864" lon="10.513137">
        <time>2026-09-27T09:14:05.738000Z</time>
      </trkpt>
      <trkpt lat="52.288768" lon="10.513059">
        <time>2026-09-27T09:14:11.738000Z</time>
      </trkpt>
      <trkpt lat="52.288898" lon="10.512857">
        <time>2026-09-27T09:14:20.738000Z</time>
      </trkpt>
      <trkpt lat="52.288993" lon="10.512494">
        <time>2026-09-27T09:14:32.738000Z</time>
      </trkpt>
      <trkpt lat="52.289047" lon="10.511989">
        <time>2026-09-27T09:14:47.838000Z</time>
      </trkpt>
      <trkpt lat="52.289082" lon="10.511533">
        <time>2026-09-27T09:14:59.838000Z</time>
      </trkpt>
      <trkpt lat="52.289074" lon="10.510997">
        <time>2026-09-27T09:15:14.838000Z</time>
      </trkpt>
      <trkpt lat="52.289114" lon="10.510803">
        <time>2026-09-27T09:15:20.838000Z</time>
      </trkpt>
      <trkpt lat="52.289107" lon="10.510354">
        <time>2026-09-27T09:15:32.838000Z</time>
      </trkpt>
      <trkpt lat="52.289079" lon="10.509864">
        <time>2026-09-27T09:15:44.838000Z</time>
      </trkpt>
      <trkpt lat="52.289061" lon="10.509395">
        <time>2026-09-27T09:15:56.838000Z</time>
      </trkpt>
      <trkpt lat="52.289047" lon="10.508946">
        <time>2026-09-27T09:16:08.838000Z</time>
      </trkpt>
      <trkpt lat="52.289064" lon="10.508509">
        <time>2026-09-27T09:16:20.838000Z</time>
      </trkpt>
      <trkpt lat="52.289153" lon="10.507994">
        <time>2026-09-27T09:16:35.838000Z</time>
      </trkpt>
      <trkpt lat="52.289236" lon="10.507473">
        <time>2026-09-27T09:16:50.838000Z</time>
      </trkpt>
      <trkpt lat="52.289318" lon="10.506976">
        <time>2026-09-27T09:17:05.838000Z</time>
      </trkpt>
      <trkpt lat="52.289416" lon="10.506515">
        <time>2026-09-27T09:17:20.838000Z</time>
      </trkpt>
      <trkpt lat="52.289524" lon="10.506083">
        <time>2026-09-27T09:17:32.838000Z</time>
      </trkpt>
      <trkpt lat="52.289656" lon="10.505589">
        <time>2026-09-27T09:17:47.838000Z</time>
      </trkpt>
      <trkpt lat="52.289689" lon="10.505507">
        <time>2026-09-27T09:17:50.838000Z</time>
      </trkpt>
      <trkpt lat="52.289733" lon="10.505455">
        <time>2026-09-27T09:17:53.838000Z</time>
      </trkpt>
      <trkpt lat="52.28981" lon="10.505293">
        <time>2026-09-27T09:17:59.838000Z</time>
      </trkpt>
      <trkpt lat="52.290109" lon="10.505063">
        <time>2026-09-27T09:18:14.838000Z</time>
      </trkpt>
      <trkpt lat="52.290267" lon="10.504911">
        <time>2026-09-27T09:18:23.838000Z</time>
      </trkpt>
      <trkpt lat="52.290345" lon="10.504748">
        <time>2026-09-27T09:18:29.838000Z</time>
      </trkpt>
      <trkpt lat="52.290559" lon="10.504374">
        <time>2026-09-27T09:18:44.838000Z</time>
      </trkpt>
      <trkpt lat="52.290661" lon="10.504113">
        <time>2026-09-27T09:18:53.838000Z</time>
      </trkpt>
      <trkpt lat="52.290645" lon="10.503605">
        <time>2026-09-27T09:19:05.838000Z</time>
      </trkpt>
      <trkpt lat="52.290563" lon="10.503454">
        <time>2026-09-27T09:19:11.838000Z</time>
      </trkpt>
      <trkpt lat="52.290311" lon="10.503144">
        <time>2026-09-27T09:19:23.838000Z</time>
      </trkpt>
      <trkpt lat="52.29006" lon="10.502907">
        <time>2026-09-27T09:19:35.938000Z</time>
      </trkpt>
      <trkpt lat="52.28994" lon="10.502776">
        <time>2026-09-27T09:19:41.938000Z</time>
      </trkpt>
      <trkpt lat="52.289776" lon="10.502523">
        <time>2026-09-27T09:19:50.938000Z</time>
      </trkpt>
      <trkpt lat="52.28971" lon="10.502497">
        <time>2026-09-27T09:19:53.938000Z</time>
      </trkpt>
      <trkpt lat="52.289473" lon="10.502667">
        <time>2026-09-27T09:20:05.938000Z</time>
      </trkpt>
      <trkpt lat="52.289285" lon="10.502707">
        <time>2026-09-27T09:20:14.938000Z</time>
      </trkpt>
      <trkpt lat="52.289221" lon="10.502692">
        <time>2026-09-27T09:20:17.938000Z</time>
      </trkpt>
      <trkpt lat="52.289165" lon="10.502636">
        <time>2026-09-27T09:20:20.938000Z</time>
      </trkpt>
      <trkpt lat="52.289017" lon="10.502249">
        <time>2026-09-27T09:20:32.938000Z</time>
      </trkpt>
      <trkpt lat="52.288876" lon="10.501867">
        <time>2026-09-27T09:20:44.938000Z</time>
      </trkpt>
      <trkpt lat="52.288708" lon="10.501491">
        <time>2026-09-27T09:20:56.938000Z</time>
      </trkpt>
      <trkpt lat="52.288476" lon="10.501128">
        <time>2026-09-27T09:21:11.938000Z</time>
      </trkpt>
      <trkpt lat="52.28824" lon="10.501">
        <time>2026-09-27T09:21:23.938000Z</time>
      </trkpt>
      <trkpt lat="52.288081" lon="10.500954">
        <time>2026-09-27T09:21:32.938000Z</time>
      </trkpt>
      <trkpt lat="52.288014" lon="10.500963">
        <time>2026-09-27T09:21:35.938000Z</time>
      </trkpt>
      <trkpt lat="52.287935" lon="10.500933">
        <time>2026-09-27T09:21:38.938000Z</time>
      </trkpt>
      <trkpt lat="52.287863" lon="10.500945">
        <time>2026-09-27T09:21:41.938000Z</time>
      </trkpt>
      <trkpt lat="52.287724" lon="10.501065">
        <time>2026-09-27T09:21:47.938000Z</time>
      </trkpt>
      <trkpt lat="52.287516" lon="10.501389">
        <time>2026-09-27T09:21:59.938000Z</time>
      </trkpt>
      <trkpt lat="52.28734597229334" lon="10.501735279313214">
        <time>2026-09-27T09:22:11.938000Z</time>
      </trkpt>
      <trkpt lat="52.287198" lon="10.502107">
        <time>2026-09-27T09:22:23.938000Z</time>
      </trkpt>
      <trkpt lat="52.28707" lon="10.502571">
        <time>2026-09-27T09:22:38.938000Z</time>
      </trkpt>
      <trkpt lat="52.28704" lon="10.502669">
        <time>2026-09-27T09:22:41.938000Z</time>
      </trkpt>
      <trkpt lat="52.286989" lon="10.503074">
        <time>2026-09-27T09:22:53.938000Z</time>
      </trkpt>
      <trkpt lat="52.286889" lon="10.503552">
        <time>2026-09-27T09:23:08.938000Z</time>
      </trkpt>
      <trkpt lat="52.28684" lon="10.50375">
        <time>2026-09-27T09:23:14.938000Z</time>
      </trkpt>
      <trkpt lat="52.286808" lon="10.503982">
        <time>2026-09-27T09:23:20.938000Z</time>
      </trkpt>
      <trkpt lat="52.28673" lon="10.50435">
        <time>2026-09-27T09:23:29.938000Z</time>
      </trkpt>
      <trkpt lat="52.286725" lon="10.504827">
        <time>2026-09-27T09:23:41.938000Z</time>
      </trkpt>
      <trkpt lat="52.286717" lon="10.505314">
        <time>2026-09-27T09:23:53.938000Z</time>
      </trkpt>
      <trkpt lat="52.286725" lon="10.505653">
        <time>2026-09-27T09:24:02.938000Z</time>
      </trkpt>
      <trkpt lat="52.28677" lon="10.506143">
        <time>2026-09-27T09:24:15.038000Z</time>
      </trkpt>
      <trkpt lat="52.28676" lon="10.506593">
        <time>2026-09-27T09:24:27.038000Z</time>
      </trkpt>
      <trkpt lat="52.286759" lon="10.506983">
        <time>2026-09-27T09:24:36.038000Z</time>
      </trkpt>
      <trkpt lat="52.286749" lon="10.507331">
        <time>2026-09-27T09:24:45.038000Z</time>
      </trkpt>
      <trkpt lat="52.286765" lon="10.507563">
        <time>2026-09-27T09:24:51.038000Z</time>
      </trkpt>
      <trkpt lat="52.286749" lon="10.5077">
        <time>2026-09-27T09:24:57.038000Z</time>
      </trkpt>
      <trkpt lat="52.286592" lon="10.508178">
        <time>2026-09-27T09:25:12.038000Z</time>
      </trkpt>
      <trkpt lat="52.286507" lon="10.50855">
        <time>2026-09-27T09:25:21.038000Z</time>
      </trkpt>
      <trkpt lat="52.286494" lon="10.508662">
        <time>2026-09-27T09:25:24.038000Z</time>
      </trkpt>
      <trkpt lat="52.286507" lon="10.509154">
        <time>2026-09-27T09:25:36.038000Z</time>
      </trkpt>
      <trkpt lat="52.28655" lon="10.509646">
        <time>2026-09-27T09:25:48.038000Z</time>
      </trkpt>
      <trkpt lat="52.286595" lon="10.510094">
        <time>2026-09-27T09:26:00.038000Z</time>
      </trkpt>
      <trkpt lat="52.286631" lon="10.510618">
        <time>2026-09-27T09:26:15.038000Z</time>
      </trkpt>
      <trkpt lat="52.286649" lon="10.510789">
        <time>2026-09-27T09:26:21.038000Z</time>
      </trkpt>
      <trkpt lat="52.286741" lon="10.511131">
        <time>2026-09-27T09:26:33.038000Z</time>
      </trkpt>
      <trkpt lat="52.286894" lon="10.511531">
        <time>2026-09-27T09:26:45.038000Z</time>
      </trkpt>
      <trkpt lat="52.287052" lon="10.511923">
        <time>2026-09-27T09:26:57.038000Z</time>
      </trkpt>
      <trkpt lat="52.287138" lon="10.512114">
        <time>2026-09-27T09:27:03.038000Z</time>
      </trkpt>
      <trkpt lat="52.287358" lon="10.512412">
        <time>2026-09-27T09:27:15.038000Z</time>
      </trkpt>
      <trkpt lat="52.287629" lon="10.512684">
        <time>2026-09-27T09:27:30.038000Z</time>
      </trkpt>
      <trkpt lat="52.287805" lon="10.512829">
        <time>2026-09-27T09:27:39.138000Z</time>
      </trkpt>
      <trkpt lat="52.288125" lon="10.512914">
        <time>2026-09-27T09:27:54.138000Z</time>
      </trkpt>
      <trkpt lat="52.288444" lon="10.513034">
        <time>2026-09-27T09:28:09.138000Z</time>
      </trkpt>
      <trkpt lat="52.288696" lon="10.513107">
        <time>2026-09-27T09:28:21.138000Z</time>
      </trkpt>
      <trkpt lat="52.288766" lon="10.513082">
        <time>2026-09-27T09:28:24.138000Z</time>
      </trkpt>
      <trkpt lat="52.288929" lon="10.512873">
        <time>2026-09-27T09:28:33.138000Z</time>
      </trkpt>
      <trkpt lat="52.289029" lon="10.512386">
        <time>2026-09-27T09:28:48.138000Z</time>
      </trkpt>
      <trkpt lat="52.289068" lon="10.511947">
        <time>2026-09-27T09:29:00.138000Z</time>
      </trkpt>
      <trkpt lat="52.28909" lon="10.511505">
        <time>2026-09-27T09:29:12.138000Z</time>
      </trkpt>
      <trkpt lat="52.289084" lon="10.510988">
        <time>2026-09-27T09:29:27.138000Z</time>
      </trkpt>
      <trkpt lat="52.28913" lon="10.5108">
        <time>2026-09-27T09:29:33.138000Z</time>
      </trkpt>
      <trkpt lat="52.289117" lon="10.510347">
        <time>2026-09-27T09:29:45.138000Z</time>
      </trkpt>
      <trkpt lat="52.289085" lon="10.509893">
        <time>2026-09-27T09:29:57.138000Z</time>
      </trkpt>
      <trkpt lat="52.289072" lon="10.509446">
        <time>2026-09-27T09:30:09.138000Z</time>
      </trkpt>
      <trkpt lat="52.289061" lon="10.508981">
        <time>2026-09-27T09:30:21.138000Z</time>
      </trkpt>
      <trkpt lat="52.289056" lon="10.508742">
        <time>2026-09-27T09:30:27.138000Z</time>
      </trkpt>
      <trkpt lat="52.289122" lon="10.508246">
        <time>2026-09-27T09:30:39.138000Z</time>
      </trkpt>
      <trkpt lat="52.28919" lon="10.507782">
        <time>2026-09-27T09:30:51.238000Z</time>
      </trkpt>
      <trkpt lat="52.289259" lon="10.50735">
        <time>2026-09-27T09:31:03.238000Z</time>
      </trkpt>
      <trkpt lat="52.289315" lon="10.506936">
        <time>2026-09-27T09:31:15.238000Z</time>
      </trkpt>
      <trkpt lat="52.289349" lon="10.506848">
        <time>2026-09-27T09:31:18.238000Z</time>
      </trkpt>
      <trkpt lat="52.289453" lon="10.506368">
        <time>2026-09-27T09:31:30.238000Z</time>
      </trkpt>
      <trkpt lat="52.289567" lon="10.50592">
        <time>2026-09-27T09:31:42.238000Z</time>
      </trkpt>
      <trkpt lat="52.28969" lon="10.505501">
        <time>2026-09-27T09:31:54.238000Z</time>
      </trkpt>
      <trkpt lat="52.289846" lon="10.505273">
        <time>2026-09-27T09:32:03.238000Z</time>
      </trkpt>
      <trkpt lat="52.290101" lon="10.505098">
        <time>2026-09-27T09:32:15.238000Z</time>
      </trkpt>
      <trkpt lat="52.290275" lon="10.504933">
        <time>2026-09-27T09:32:24.238000Z</time>
      </trkpt>
      <trkpt lat="52.290472" lon="10.504557">
        <time>2026-09-27T09:32:39.238000Z</time>
      </trkpt>
      <trkpt lat="52.290627" lon="10.504232">
        <time>2026-09-27T09:32:51.238000Z</time>
      </trkpt>
      <trkpt lat="52.290653" lon="10.504138">
        <time>2026-09-27T09:32:54.238000Z</time>
      </trkpt>
      <trkpt lat="52.290641" lon="10.503654">
        <time>2026-09-27T09:33:06.238000Z</time>
      </trkpt>
      <trkpt lat="52.290574" lon="10.50345">
        <time>2026-09-27T09:33:12.238000Z</time>
      </trkpt>
      <trkpt lat="52.290351" lon="10.503153">
        <time>2026-09-27T09:33:24.238000Z</time>
      </trkpt>
      <trkpt lat="52.290094" lon="10.502911">
        <time>2026-09-27T09:33:36.238000Z</time>
      </trkpt>
      <trkpt lat="52.289866" lon="10.502693">
        <time>2026-09-27T09:33:48.238000Z</time>
      </trkpt>
      <trkpt lat="52.289792" lon="10.50257">
        <time>2026-09-27T09:33:54.238000Z</time>
      </trkpt>
      <trkpt lat="52.28969" lon="10.502515">
        <time>2026-09-27T09:34:00.238000Z</time>
      </trkpt>
      <trkpt lat="52.289407" lon="10.502645">
        <time>2026-09-27T09:34:15.338000Z</time>
      </trkpt>
      <trkpt lat="52.289255" lon="10.502678">
        <time>2026-09-27T09:34:21.338000Z</time>
      </trkpt>
      <trkpt lat="52.289197" lon="10.50266">
        <time>2026-09-27T09:34:24.338000Z</time>
      </trkpt>
      <trkpt lat="52.28908" lon="10.502492">
        <time>2026-09-27T09:34:33.338000Z</time>
      </trkpt>
      <trkpt lat="52.289048" lon="10.502413">
        <time>2026-09-27T09:34:36.338000Z</time>
      </trkpt>
      <trkpt lat="52.288899" lon="10.501914">
        <time>2026-09-27T09:34:48.338000Z</time>
      </trkpt>
      <trkpt lat="52.288706" lon="10.501508">
        <time>2026-09-27T09:35:00.338000Z</time>
      </trkpt>
      <trkpt lat="52.288534" lon="10.5012">
        <time>2026-09-27T09:35:12.338000Z</time>
      </trkpt>
      <trkpt lat="52.288304" lon="10.501015">
        <time>2026-09-27T09:35:24.338000Z</time>
      </trkpt>
      <trkpt lat="52.288082" lon="10.500898">
        <time>2026-09-27T09:35:36.338000Z</time>
      </trkpt>
      <trkpt lat="52.28793" lon="10.500906">
        <time>2026-09-27T09:35:42.338000Z</time>
      </trkpt>
      <trkpt lat="52.287676" lon="10.501153">
        <time>2026-09-27T09:35:54.338000Z</time>
      </trkpt>
      <trkpt lat="52.287489" lon="10.501387">
        <time>2026-09-27T09:36:06.338000Z</time>
      </trkpt>
      <trkpt lat="52.287319" lon="10.501838">
        <time>2026-09-27T09:36:21.338000Z</time>
      </trkpt>
      <trkpt lat="52.287159" lon="10.50223">
        <time>2026-09-27T09:36:33.338000Z</time>
      </trkpt>
      <trkpt lat="52.28706" lon="10.502639">
        <time>2026-09-27T09:36:45.438000Z</time>
      </trkpt>
      <trkpt lat="52.286973" lon="10.503173">
        <time>2026-09-27T09:37:00.438000Z</time>
      </trkpt>
      <trkpt lat="52.286906" lon="10.503345">
        <time>2026-09-27T09:37:06.438000Z</time>
      </trkpt>
      <trkpt lat="52.286885" lon="10.503447">
        <time>2026-09-27T09:37:09.438000Z</time>
      </trkpt>
      <trkpt lat="52.286854" lon="10.503925">
        <time>2026-09-27T09:37:21.438000Z</time>
      </trkpt>
      <trkpt lat="52.286748" lon="10.504396">
        <time>2026-09-27T09:37:33.438000Z</time>
      </trkpt>
      <trkpt lat="52.286716" lon="10.504736">
        <time>2026-09-27T09:37:42.438000Z</time>
      </trkpt>
      <trkpt lat="52.286727" lon="10.50497">
        <time>2026-09-27T09:37:48.438000Z</time>
      </trkpt>
      <trkpt lat="52.28671" lon="10.505479">
        <time>2026-09-27T09:38:03.538000Z</time>
      </trkpt>
      <trkpt lat="52.286768" lon="10.505984">
        <time>2026-09-27T09:38:15.538000Z</time>
      </trkpt>
      <trkpt lat="52.286782" lon="10.506505">
        <time>2026-09-27T09:38:30.538000Z</time>
      </trkpt>
      <trkpt lat="52.28677" lon="10.507012">
        <time>2026-09-27T09:38:45.538000Z</time>
      </trkpt>
      <trkpt lat="52.286757" lon="10.507217">
        <time>2026-09-27T09:38:51.538000Z</time>
      </trkpt>
      <trkpt lat="52.286777" lon="10.507538">
        <time>2026-09-27T09:39:00.538000Z</time>
      </trkpt>
      <trkpt lat="52.286716" lon="10.507831">
        <time>2026-09-27T09:39:09.538000Z</time>
      </trkpt>
      <trkpt lat="52.286566" lon="10.508223">
        <time>2026-09-27T09:39:21.538000Z</time>
      </trkpt>
      <trkpt lat="52.286491" lon="10.508709">
        <time>2026-09-27T09:39:36.538000Z</time>
      </trkpt>
      <trkpt lat="52.286502" lon="10.509223">
        <time>2026-09-27T09:39:51.538000Z</time>
      </trkpt>
      <trkpt lat="52.286534" lon="10.509665">
        <time>2026-09-27T09:40:03.538000Z</time>
      </trkpt>
      <trkpt lat="52.286577" lon="10.510125">
        <time>2026-09-27T09:40:15.538000Z</time>
      </trkpt>
      <trkpt lat="52.286585" lon="10.510439">
        <time>2026-09-27T09:40:24.538000Z</time>
      </trkpt>
      <trkpt lat="52.286643" lon="10.510811">
        <time>2026-09-27T09:40:36.638000Z</time>
      </trkpt>
      <trkpt lat="52.286708" lon="10.510979">
        <time>2026-09-27T09:40:42.638000Z</time>
      </trkpt>
      <trkpt lat="52.286722" lon="10.511077">
        <time>2026-09-27T09:40:45.638000Z</time>
      </trkpt>
      <trkpt lat="52.286895" lon="10.511515">
        <time>2026-09-27T09:41:00.638000Z</time>
      </trkpt>
      <trkpt lat="52.287078" lon="10.511969">
        <time>2026-09-27T09:41:15.638000Z</time>
      </trkpt>
      <trkpt lat="52.28728" lon="10.512296">
        <time>2026-09-27T09:41:27.638000Z</time>
      </trkpt>
      <trkpt lat="52.287539" lon="10.512601">
        <time>2026-09-27T09:41:42.638000Z</time>
      </trkpt>
      <trkpt lat="52.28781" lon="10.512823">
        <time>2026-09-27T09:41:57.638000Z</time>
      </trkpt>
      <trkpt lat="52.288112" lon="10.512918">
        <time>2026-09-27T09:42:12.638000Z</time>
      </trkpt>
      <trkpt lat="52.288414" lon="10.513015">
        <time>2026-09-27T09:42:27.638000Z</time>
      </trkpt>
      <trkpt lat="52.28868" lon="10.513119">
        <time>2026-09-27T09:42:39.638000Z</time>
      </trkpt>
      <trkpt lat="52.288812" lon="10.51303">
        <time>2026-09-27T09:42:45.638000Z</time>
      </trkpt>
      <trkpt lat="52.288915" lon="10.512885">
        <time>2026-09-27T09:42:51.638000Z</time>
      </trkpt>
      <trkpt lat="52.289025" lon="10.512455">
        <time>2026-09-27T09:43:03.638000Z</time>
      </trkpt>
      <trkpt lat="52.289067" lon="10.511986">
        <time>2026-09-27T09:43:15.638000Z</time>
      </trkpt>
      <trkpt lat="52.289089" lon="10.51153">
        <time>2026-09-27T09:43:27.638000Z</time>
      </trkpt>
      <trkpt lat="52.289079" lon="10.510994">
        <time>2026-09-27T09:43:42.638000Z</time>
      </trkpt>
      <trkpt lat="52.289138" lon="10.510705">
        <time>2026-09-27T09:43:51.638000Z</time>
      </trkpt>
      <trkpt lat="52.289112" lon="10.5102">
        <time>2026-09-27T09:44:06.638000Z</time>
      </trkpt>
      <trkpt lat="52.289083" lon="10.509666">
        <time>2026-09-27T09:44:21.638000Z</time>
      </trkpt>
      <trkpt lat="52.289071" lon="10.509212">
        <time>2026-09-27T09:44:33.638000Z</time>
      </trkpt>
      <trkpt lat="52.289058" lon="10.508668">
        <time>2026-09-27T09:44:48.638000Z</time>
      </trkpt>
      <trkpt lat="52.289064" lon="10.508546">
        <time>2026-09-27T09:45:00.638000Z</time>
      </trkpt>
      <trkpt lat="52.289146" lon="10.508092">
        <time>2026-09-27T09:45:12.638000Z</time>
      </trkpt>
      <trkpt lat="52.289216" lon="10.507666">
        <time>2026-09-27T09:45:24.638000Z</time>
      </trkpt>
      <trkpt lat="52.289285" lon="10.507239">
        <time>2026-09-27T09:45:36.638000Z</time>
      </trkpt>
      <trkpt lat="52.28936" lon="10.50676">
        <time>2026-09-27T09:45:51.638000Z</time>
      </trkpt>
      <trkpt lat="52.289479" lon="10.506241">
        <time>2026-09-27T09:46:06.638000Z</time>
      </trkpt>
      <trkpt lat="52.289619" lon="10.50576">
        <time>2026-09-27T09:46:21.638000Z</time>
      </trkpt>
      <trkpt lat="52.289674" lon="10.505575">
        <time>2026-09-27T09:46:27.638000Z</time>
      </trkpt>
      <trkpt lat="52.289838" lon="10.505271">
        <time>2026-09-27T09:46:39.638000Z</time>
      </trkpt>
      <trkpt lat="52.290101" lon="10.505066">
        <time>2026-09-27T09:46:51.638000Z</time>
      </trkpt>
      <trkpt lat="52.290287" lon="10.50491">
        <time>2026-09-27T09:47:03.638000Z</time>
      </trkpt>
      <trkpt lat="52.290483" lon="10.504551">
        <time>2026-09-27T09:47:18.638000Z</time>
      </trkpt>
      <trkpt lat="52.290636" lon="10.504235">
        <time>2026-09-27T09:47:30.638000Z</time>
      </trkpt>
      <trkpt lat="52.290657" lon="10.504144">
        <time>2026-09-27T09:47:33.638000Z</time>
      </trkpt>
      <trkpt lat="52.290637" lon="10.503622">
        <time>2026-09-27T09:47:48.638000Z</time>
      </trkpt>
      <trkpt lat="52.290523" lon="10.503369">
        <time>2026-09-27T09:47:57.638000Z</time>
      </trkpt>
      <trkpt lat="52.290271" lon="10.503093">
        <time>2026-09-27T09:48:12.638000Z</time>
      </trkpt>
      <trkpt lat="52.290004" lon="10.502825">
        <time>2026-09-27T09:48:27.638000Z</time>
      </trkpt>
      <trkpt lat="52.289805" lon="10.502557">
        <time>2026-09-27T09:48:39.638000Z</time>
      </trkpt>
      <trkpt lat="52.289706" lon="10.502504">
        <time>2026-09-27T09:48:45.638000Z</time>
      </trkpt>
      <trkpt lat="52.289418" lon="10.502669">
        <time>2026-09-27T09:49:00.638000Z</time>
      </trkpt>
      <trkpt lat="52.28928" lon="10.502701">
        <time>2026-09-27T09:49:06.638000Z</time>
      </trkpt>
      <trkpt lat="52.289219" lon="10.502666">
        <time>2026-09-27T09:49:09.638000Z</time>
      </trkpt>
      <trkpt lat="52.289047" lon="10.50234">
        <time>2026-09-27T09:49:24.638000Z</time>
      </trkpt>
      <trkpt lat="52.288966" lon="10.50206">
        <time>2026-09-27T09:49:33.638000Z</time>
      </trkpt>
      <trkpt lat="52.288911" lon="10.50198">
        <time>2026-09-27T09:49:36.638000Z</time>
      </trkpt>
      <trkpt lat="52.288752" lon="10.501599">
        <time>2026-09-27T09:49:48.638000Z</time>
      </trkpt>
      <trkpt lat="52.28867" lon="10.501429">
        <time>2026-09-27T09:49:54.638000Z</time>
      </trkpt>
      <trkpt lat="52.288424" lon="10.50115">
        <time>2026-09-27T09:50:09.638000Z</time>
      </trkpt>
      <trkpt lat="52.288295" lon="10.501032">
        <time>2026-09-27T09:50:15.638000Z</time>
      </trkpt>
      <trkpt lat="52.288042" lon="10.500938">
        <time>2026-09-27T09:50:27.638000Z</time>
      </trkpt>
      <trkpt lat="52.287899" lon="10.500967">
        <time>2026-09-27T09:50:33.638000Z</time>
      </trkpt>
      <trkpt lat="52.287632" lon="10.501231">
        <time>2026-09-27T09:50:48.638000Z</time>
      </trkpt>
      <trkpt lat="52.287488" lon="10.501448">
        <time>2026-09-27T09:50:57.638000Z</time>
      </trkpt>
      <trkpt lat="52.287336" lon="10.501763">
        <time>2026-09-27T09:51:09.638000Z</time>
      </trkpt>
      <trkpt lat="52.287202" lon="10.502195">
        <time>2026-09-27T09:51:24.738000Z</time>
      </trkpt>
      <trkpt lat="52.28708" lon="10.50264">
        <time>2026-09-27T09:51:39.738000Z</time>
      </trkpt>
      <trkpt lat="52.287045" lon="10.502815">
        <time>2026-09-27T09:51:45.738000Z</time>
      </trkpt>
      <trkpt lat="52.286965" lon="10.503083">
        <time>2026-09-27T09:51:54.738000Z</time>
      </trkpt>
      <trkpt lat="52.286939" lon="10.503255">
        <time>2026-09-27T09:52:00.738000Z</time>
      </trkpt>
      <trkpt lat="52.286923" lon="10.503532">
        <time>2026-09-27T09:52:09.738000Z</time>
      </trkpt>
      <trkpt lat="52.28687" lon="10.503921">
        <time>2026-09-27T09:52:21.738000Z</time>
      </trkpt>
      <trkpt lat="52.286814" lon="10.504115">
        <time>2026-09-27T09:52:27.738000Z</time>
      </trkpt>
      <trkpt lat="52.286784" lon="10.504321">
        <time>2026-09-27T09:52:33.738000Z</time>
      </trkpt>
      <trkpt lat="52.286786" lon="10.504427">
        <time>2026-09-27T09:52:36.738000Z</time>
      </trkpt>
      <trkpt lat="52.286742" lon="10.504668">
        <time>2026-09-27T09:52:42.738000Z</time>
      </trkpt>
      <trkpt lat="52.286743" lon="10.50516">
        <time>2026-09-27T09:52:54.738000Z</time>
      </trkpt>
      <trkpt lat="52.28671612425877" lon="10.505606195603796">
        <time>2026-09-27T09:53:06.738000Z</time>
      </trkpt>
      <trkpt lat="52.286767" lon="10.505816">
        <time>2026-09-27T09:53:12.738000Z</time>
      </trkpt>
      <trkpt lat="52.286771" lon="10.506345">
        <time>2026-09-27T09:53:27.738000Z</time>
      </trkpt>
      <trkpt lat="52.286765" lon="10.506851">
        <time>2026-09-27T09:53:42.738000Z</time>
      </trkpt>
      <trkpt lat="52.286744" lon="10.507131">
        <time>2026-09-27T09:53:51.738000Z</time>
      </trkpt>
      <trkpt lat="52.286758" lon="10.507613">
        <time>2026-09-27T09:54:06.738000Z</time>
      </trkpt>
      <trkpt lat="52.286622" lon="10.508115">
        <time>2026-09-27T09:54:21.738000Z</time>
      </trkpt>
      <trkpt lat="52.286518" lon="10.508451">
        <time>2026-09-27T09:54:30.738000Z</time>
      </trkpt>
      <trkpt lat="52.286469" lon="10.508988">
        <time>2026-09-27T09:54:45.738000Z</time>
      </trkpt>
      <trkpt lat="52.286525" lon="10.509535">
        <time>2026-09-27T09:55:00.738000Z</time>
      </trkpt>
      <trkpt lat="52.286556" lon="10.509998">
        <time>2026-09-27T09:55:12.738000Z</time>
      </trkpt>
      <trkpt lat="52.286596" lon="10.510436">
        <time>2026-09-27T09:55:24.738000Z</time>
      </trkpt>
      <trkpt lat="52.286617" lon="10.510645">
        <time>2026-09-27T09:55:30.738000Z</time>
      </trkpt>
      <trkpt lat="52.286644" lon="10.510747">
        <time>2026-09-27T09:55:33.738000Z</time>
      </trkpt>
      <trkpt lat="52.286741" lon="10.510998">
        <time>2026-09-27T09:55:42.738000Z</time>
      </trkpt>
      <trkpt lat="52.286867" lon="10.511482">
        <time>2026-09-27T09:56:00.738000Z</time>
      </trkpt>
      <trkpt lat="52.287022" lon="10.511864">
        <time>2026-09-27T09:56:12.738000Z</time>
      </trkpt>
      <trkpt lat="52.287105" lon="10.512059">
        <time>2026-09-27T09:56:18.738000Z</time>
      </trkpt>
      <trkpt lat="52.287219" lon="10.512223">
        <time>2026-09-27T09:56:24.738000Z</time>
      </trkpt>
      <trkpt lat="52.287381" lon="10.512484">
        <time>2026-09-27T09:56:36.738000Z</time>
      </trkpt>
      <trkpt lat="52.287658" lon="10.512743">
        <time>2026-09-27T09:56:51.738000Z</time>
      </trkpt>
      <trkpt lat="52.28791" lon="10.512891">
        <time>2026-09-27T09:57:03.738000Z</time>
      </trkpt>
      <trkpt lat="52.288187" lon="10.512924">
        <time>2026-09-27T09:57:15.738000Z</time>
      </trkpt>
      <trkpt lat="52.288473" lon="10.513041">
        <time>2026-09-27T09:57:30.738000Z</time>
      </trkpt>
      <trkpt lat="52.288654" lon="10.513104">
        <time>2026-09-27T09:57:39.738000Z</time>
      </trkpt>
      <trkpt lat="52.288721" lon="10.513103">
        <time>2026-09-27T09:57:42.738000Z</time>
      </trkpt>
      <trkpt lat="52.288778" lon="10.513073">
        <time>2026-09-27T09:57:45.738000Z</time>
      </trkpt>
      <trkpt lat="52.288911" lon="10.512893">
        <time>2026-09-27T09:57:54.738000Z</time>
      </trkpt>
      <trkpt lat="52.289004" lon="10.512644">
        <time>2026-09-27T09:58:03.738000Z</time>
      </trkpt>
      <trkpt lat="52.289055" lon="10.512111">
        <time>2026-09-27T09:58:18.838000Z</time>
      </trkpt>
      <trkpt lat="52.289091" lon="10.51161">
        <time>2026-09-27T09:58:33.838000Z</time>
      </trkpt>
      <trkpt lat="52.289083" lon="10.511107">
        <time>2026-09-27T09:58:48.838000Z</time>
      </trkpt>
      <trkpt lat="52.289147" lon="10.51069">
        <time>2026-09-27T09:59:00.838000Z</time>
      </trkpt>
      <trkpt lat="52.289118" lon="10.510248">
        <time>2026-09-27T09:59:12.838000Z</time>
      </trkpt>
      <trkpt lat="52.289092" lon="10.509789">
        <time>2026-09-27T09:59:24.838000Z</time>
      </trkpt>
      <trkpt lat="52.289076" lon="10.509332">
        <time>2026-09-27T09:59:36.838000Z</time>
      </trkpt>
      <trkpt lat="52.289069" lon="10.50887">
        <time>2026-09-27T09:59:48.838000Z</time>
      </trkpt>
      <trkpt lat="52.289085" lon="10.508519">
        <time>2026-09-27T09:59:57.838000Z</time>
      </trkpt>
      <trkpt lat="52.289158" lon="10.508043">
        <time>2026-09-27T10:00:09.838000Z</time>
      </trkpt>
      <trkpt lat="52.289227" lon="10.507604">
        <time>2026-09-27T10:00:21.838000Z</time>
      </trkpt>
      <trkpt lat="52.289292" lon="10.507167">
        <time>2026-09-27T10:00:33.838000Z</time>
      </trkpt>
      <trkpt lat="52.289372" lon="10.506688">
        <time>2026-09-27T10:00:48.838000Z</time>
      </trkpt>
      <trkpt lat="52.289485" lon="10.506243">
        <time>2026-09-27T10:01:03.838000Z</time>
      </trkpt>
      <trkpt lat="52.289603" lon="10.505815">
        <time>2026-09-27T10:01:15.838000Z</time>
      </trkpt>
      <trkpt lat="52.289726" lon="10.505439">
        <time>2026-09-27T10:01:27.838000Z</time>
      </trkpt>
      <trkpt lat="52.289949" lon="10.505179">
        <time>2026-09-27T10:01:42.838000Z</time>
      </trkpt>
      <trkpt lat="52.29024" lon="10.504947">
        <time>2026-09-27T10:01:57.838000Z</time>
      </trkpt>
      <trkpt lat="52.290376" lon="10.504767">
        <time>2026-09-27T10:02:06.838000Z</time>
      </trkpt>
      <trkpt lat="52.290563" lon="10.504402">
        <time>2026-09-27T10:02:21.838000Z</time>
      </trkpt>
      <trkpt lat="52.290667" lon="10.504187">
        <time>2026-09-27T10:02:30.838000Z</time>
      </trkpt>
      <trkpt lat="52.290656" lon="10.50371">
        <time>2026-09-27T10:02:45.838000Z</time>
      </trkpt>
      <trkpt lat="52.290612" lon="10.503528">
        <time>2026-09-27T10:02:51.838000Z</time>
      </trkpt>
      <trkpt lat="52.290483" lon="10.503314">
        <time>2026-09-27T10:03:00.838000Z</time>
      </trkpt>
      <trkpt lat="52.290264" lon="10.503125">
        <time>2026-09-27T10:03:12.838000Z</time>
      </trkpt>
      <trkpt lat="52.290046" lon="10.502865">
        <time>2026-09-27T10:03:24.838000Z</time>
      </trkpt>
      <trkpt lat="52.289813" lon="10.50258">
        <time>2026-09-27T10:03:39.838000Z</time>
      </trkpt>
      <trkpt lat="52.289709" lon="10.502505">
        <time>2026-09-27T10:03:45.938000Z</time>
      </trkpt>
      <trkpt lat="52.289413" lon="10.502695">
        <time>2026-09-27T10:04:00.938000Z</time>
      </trkpt>
      <trkpt lat="52.289301" lon="10.502693">
        <time>2026-09-27T10:04:06.938000Z</time>
      </trkpt>
      <trkpt lat="52.289235" lon="10.502668">
        <time>2026-09-27T10:04:09.938000Z</time>
      </trkpt>
      <trkpt lat="52.289182" lon="10.502616">
        <time>2026-09-27T10:04:12.938000Z</time>
      </trkpt>
      <trkpt lat="52.289019" lon="10.502232">
        <time>2026-09-27T10:04:27.938000Z</time>
      </trkpt>
      <trkpt lat="52.288867" lon="10.501856">
        <time>2026-09-27T10:04:39.938000Z</time>
      </trkpt>
      <trkpt lat="52.288802" lon="10.501675">
        <time>2026-09-27T10:04:45.938000Z</time>
      </trkpt>
      <trkpt lat="52.288609" lon="10.501333">
        <time>2026-09-27T10:05:00.938000Z</time>
      </trkpt>
      <trkpt lat="52.288359" lon="10.501069">
        <time>2026-09-27T10:05:15.938000Z</time>
      </trkpt>
      <trkpt lat="52.288084" lon="10.500945">
        <time>2026-09-27T10:05:30.938000Z</time>
      </trkpt>
      <trkpt lat="52.28796" lon="10.500921">
        <time>2026-09-27T10:05:36.938000Z</time>
      </trkpt>
      <trkpt lat="52.287839" lon="10.500972">
        <time>2026-09-27T10:05:42.938000Z</time>
      </trkpt>
      <trkpt lat="52.287555" lon="10.501307">
        <time>2026-09-27T10:06:00.938000Z</time>
      </trkpt>
      <trkpt lat="52.287392" lon="10.501679">
        <time>2026-09-27T10:06:15.938000Z</time>
      </trkpt>
      <trkpt lat="52.287224" lon="10.502114">
        <time>2026-09-27T10:06:30.938000Z</time>
      </trkpt>
      <trkpt lat="52.287113" lon="10.502527">
        <time>2026-09-27T10:06:45.938000Z</time>
      </trkpt>
      <trkpt lat="52.287088" lon="10.502616">
        <time>2026-09-27T10:06:48.938000Z</time>
      </trkpt>
      <trkpt lat="52.287067" lon="10.502819">
        <time>2026-09-27T10:06:54.938000Z</time>
      </trkpt>
      <trkpt lat="52.287039" lon="10.502901">
        <time>2026-09-27T10:06:57.938000Z</time>
      </trkpt>
      <trkpt lat="52.286934" lon="10.503397">
        <time>2026-09-27T10:07:15.938000Z</time>
      </trkpt>
      <trkpt lat="52.28687" lon="10.503834">
        <time>2026-09-27T10:07:30.938000Z</time>
      </trkpt>
      <trkpt lat="52.286776" lon="10.504253">
        <time>2026-09-27T10:07:42.938000Z</time>
      </trkpt>
      <trkpt lat="52.286757" lon="10.504569">
        <time>2026-09-27T10:07:51.938000Z</time>
      </trkpt>
      <trkpt lat="52.286717" lon="10.504795">
        <time>2026-09-27T10:07:57.938000Z</time>
      </trkpt>
      <trkpt lat="52.286724" lon="10.50532">
        <time>2026-09-27T10:08:13.038000Z</time>
      </trkpt>
      <trkpt lat="52.286774" lon="10.505602">
        <time>2026-09-27T10:08:22.038000Z</time>
      </trkpt>
      <trkpt lat="52.286768" lon="10.505711">
        <time>2026-09-27T10:08:25.038000Z</time>
      </trkpt>
      <trkpt lat="52.286789" lon="10.505814">
        <time>2026-09-27T10:08:28.038000Z</time>
      </trkpt>
      <trkpt lat="52.286769" lon="10.506347">
        <time>2026-09-27T10:08:43.038000Z</time>
      </trkpt>
      <trkpt lat="52.286754" lon="10.506889">
        <time>2026-09-27T10:08:58.038000Z</time>
      </trkpt>
      <trkpt lat="52.28673" lon="10.507089">
        <time>2026-09-27T10:09:04.038000Z</time>
      </trkpt>
      <trkpt lat="52.286753" lon="10.507572">
        <time>2026-09-27T10:09:19.038000Z</time>
      </trkpt>
      <trkpt lat="52.286618" lon="10.50807">
        <time>2026-09-27T10:09:37.038000Z</time>
      </trkpt>
      <trkpt lat="52.286506" lon="10.508505">
        <time>2026-09-27T10:09:49.038000Z</time>
      </trkpt>
      <trkpt lat="52.286474" lon="10.509026">
        <time>2026-09-27T10:10:04.038000Z</time>
      </trkpt>
      <trkpt lat="52.286525" lon="10.509551">
        <time>2026-09-27T10:10:19.038000Z</time>
      </trkpt>
      <trkpt lat="52.286565" lon="10.510055">
        <time>2026-09-27T10:10:34.038000Z</time>
      </trkpt>
      <trkpt lat="52.286599" lon="10.510521">
        <time>2026-09-27T10:10:49.038000Z</time>
      </trkpt>
      <trkpt lat="52.286668" lon="10.510921">
        <time>2026-09-27T10:11:04.038000Z</time>
      </trkpt>
      <trkpt lat="52.286827" lon="10.511344">
        <time>2026-09-27T10:11:19.038000Z</time>
      </trkpt>
      <trkpt lat="52.286874" lon="10.511501">
        <time>2026-09-27T10:11:25.038000Z</time>
      </trkpt>
      <trkpt lat="52.286992" lon="10.511737">
        <time>2026-09-27T10:11:34.038000Z</time>
      </trkpt>
      <trkpt lat="52.287163" lon="10.512097">
        <time>2026-09-27T10:11:46.038000Z</time>
      </trkpt>
      <trkpt lat="52.2872" lon="10.512167">
        <time>2026-09-27T10:11:49.038000Z</time>
      </trkpt>
      <trkpt lat="52.287215" lon="10.512243">
        <time>2026-09-27T10:11:52.038000Z</time>
      </trkpt>
      <trkpt lat="52.287294" lon="10.512377">
        <time>2026-09-27T10:11:58.038000Z</time>
      </trkpt>
      <trkpt lat="52.287562" lon="10.51264">
        <time>2026-09-27T10:12:13.038000Z</time>
      </trkpt>
      <trkpt lat="52.287642" lon="10.512762">
        <time>2026-09-27T10:12:19.038000Z</time>
      </trkpt>
      <trkpt lat="52.287891" lon="10.512896">
        <time>2026-09-27T10:12:31.138000Z</time>
      </trkpt>
      <trkpt lat="52.288208" lon="10.512934">
        <time>2026-09-27T10:12:46.138000Z</time>
      </trkpt>
      <trkpt lat="52.288466" lon="10.513058">
        <time>2026-09-27T10:13:01.138000Z</time>
      </trkpt>
      <trkpt lat="52.28866" lon="10.513116">
        <time>2026-09-27T10:13:10.138000Z</time>
      </trkpt>
      <trkpt lat="52.288785" lon="10.513072">
        <time>2026-09-27T10:13:16.138000Z</time>
      </trkpt>
      <trkpt lat="52.288959" lon="10.512808">
        <time>2026-09-27T10:13:28.138000Z</time>
      </trkpt>
      <trkpt lat="52.289026" lon="10.512527">
        <time>2026-09-27T10:13:37.138000Z</time>
      </trkpt>
      <trkpt lat="52.289071" lon="10.512015">
        <time>2026-09-27T10:13:52.138000Z</time>
      </trkpt>
      <trkpt lat="52.289089" lon="10.511531">
        <time>2026-09-27T10:14:07.138000Z</time>
      </trkpt>
      <trkpt lat="52.289085" lon="10.511066">
        <time>2026-09-27T10:14:22.138000Z</time>
      </trkpt>
      <trkpt lat="52.28914" lon="10.510708">
        <time>2026-09-27T10:14:34.138000Z</time>
      </trkpt>
      <trkpt lat="52.289116" lon="10.510219">
        <time>2026-09-27T10:14:49.138000Z</time>
      </trkpt>
      <trkpt lat="52.289095" lon="10.509688">
        <time>2026-09-27T10:15:04.138000Z</time>
      </trkpt>
      <trkpt lat="52.289073" lon="10.509155">
        <time>2026-09-27T10:15:19.138000Z</time>
      </trkpt>
      <trkpt lat="52.289074" lon="10.508634">
        <time>2026-09-27T10:15:34.138000Z</time>
      </trkpt>
      <trkpt lat="52.289159" lon="10.508128">
        <time>2026-09-27T10:15:49.138000Z</time>
      </trkpt>
      <trkpt lat="52.289236" lon="10.507623">
        <time>2026-09-27T10:16:04.138000Z</time>
      </trkpt>
      <trkpt lat="52.289315" lon="10.507138">
        <time>2026-09-27T10:16:19.138000Z</time>
      </trkpt>
      <trkpt lat="52.289344" lon="10.507057">
        <time>2026-09-27T10:16:22.238000Z</time>
      </trkpt>
      <trkpt lat="52.289411" lon="10.506551">
        <time>2026-09-27T10:16:37.238000Z</time>
      </trkpt>
      <trkpt lat="52.289522" lon="10.506112">
        <time>2026-09-27T10:16:52.238000Z</time>
      </trkpt>
      <trkpt lat="52.289642" lon="10.505682">
        <time>2026-09-27T10:17:07.238000Z</time>
      </trkpt>
      <trkpt lat="52.289799" lon="10.505324">
        <time>2026-09-27T10:17:22.238000Z</time>
      </trkpt>
      <trkpt lat="52.290063" lon="10.505118">
        <time>2026-09-27T10:17:37.238000Z</time>
      </trkpt>
      <trkpt lat="52.290299" lon="10.50487">
        <time>2026-09-27T10:17:52.238000Z</time>
      </trkpt>
      <trkpt lat="52.290517" lon="10.504467">
        <time>2026-09-27T10:18:10.238000Z</time>
      </trkpt>
      <trkpt lat="52.290659" lon="10.504184">
        <time>2026-09-27T10:18:22.238000Z</time>
      </trkpt>
      <trkpt lat="52.29067" lon="10.504074">
        <time>2026-09-27T10:18:25.238000Z</time>
      </trkpt>
      <trkpt lat="52.290648" lon="10.503831">
        <time>2026-09-27T10:18:31.238000Z</time>
      </trkpt>
      <trkpt lat="52.290659" lon="10.50372">
        <time>2026-09-27T10:18:34.238000Z</time>
      </trkpt>
      <trkpt lat="52.290635" lon="10.503607">
        <time>2026-09-27T10:18:37.238000Z</time>
      </trkpt>
      <trkpt lat="52.290479" lon="10.503304">
        <time>2026-09-27T10:18:49.238000Z</time>
      </trkpt>
      <trkpt lat="52.290233" lon="10.503033">
        <time>2026-09-27T10:19:04.238000Z</time>
      </trkpt>
      <trkpt lat="52.28996" lon="10.502852">
        <time>2026-09-27T10:19:16.238000Z</time>
      </trkpt>
      <trkpt lat="52.289784" lon="10.502581">
        <time>2026-09-27T10:19:31.238000Z</time>
      </trkpt>
      <trkpt lat="52.289743" lon="10.502545">
        <time>2026-09-27T10:19:34.238000Z</time>
      </trkpt>
      <trkpt lat="52.289646" lon="10.502555">
        <time>2026-09-27T10:19:40.238000Z</time>
      </trkpt>
      <trkpt lat="52.289387" lon="10.502713">
        <time>2026-09-27T10:19:52.238000Z</time>
      </trkpt>
      <trkpt lat="52.289272" lon="10.502731">
        <time>2026-09-27T10:19:58.238000Z</time>
      </trkpt>
      <trkpt lat="52.289206" lon="10.502693">
        <time>2026-09-27T10:20:01.238000Z</time>
      </trkpt>
      <trkpt lat="52.289162" lon="10.502636">
        <time>2026-09-27T10:20:04.238000Z</time>
      </trkpt>
      <trkpt lat="52.288989" lon="10.502195">
        <time>2026-09-27T10:20:19.338000Z</time>
      </trkpt>
      <trkpt lat="52.288832" lon="10.501829">
        <time>2026-09-27T10:20:31.338000Z</time>
      </trkpt>
      <trkpt lat="52.28865" lon="10.501438">
        <time>2026-09-27T10:20:46.338000Z</time>
      </trkpt>
      <trkpt lat="52.288487" lon="10.501179">
        <time>2026-09-27T10:20:58.338000Z</time>
      </trkpt>
      <trkpt lat="52.288273" lon="10.501023">
        <time>2026-09-27T10:21:10.338000Z</time>
      </trkpt>
      <trkpt lat="52.287951" lon="10.500938">
        <time>2026-09-27T10:21:28.338000Z</time>
      </trkpt>
      <trkpt lat="52.287826" lon="10.500968">
        <time>2026-09-27T10:21:34.338000Z</time>
      </trkpt>
      <trkpt lat="52.2876" lon="10.501272">
        <time>2026-09-27T10:21:52.338000Z</time>
      </trkpt>
      <trkpt lat="52.287401" lon="10.501599">
        <time>2026-09-27T10:22:07.338000Z</time>
      </trkpt>
      <trkpt lat="52.287235" lon="10.502011">
        <time>2026-09-27T10:22:22.338000Z</time>
      </trkpt>
      <trkpt lat="52.287128" lon="10.502471">
        <time>2026-09-27T10:22:37.338000Z</time>
      </trkpt>
      <trkpt lat="52.287024" lon="10.502953">
        <time>2026-09-27T10:22:52.338000Z</time>
      </trkpt>
      <trkpt lat="52.286927" lon="10.503375">
        <time>2026-09-27T10:23:07.338000Z</time>
      </trkpt>
      <trkpt lat="52.286827" lon="10.503826">
        <time>2026-09-27T10:23:22.438000Z</time>
      </trkpt>
      <trkpt lat="52.286803" lon="10.504028">
        <time>2026-09-27T10:23:28.438000Z</time>
      </trkpt>
      <trkpt lat="52.286724" lon="10.504537">
        <time>2026-09-27T10:23:43.438000Z</time>
      </trkpt>
      <trkpt lat="52.2867" lon="10.505063">
        <time>2026-09-27T10:23:58.438000Z</time>
      </trkpt>
      <trkpt lat="52.286751" lon="10.505369">
        <time>2026-09-27T10:24:07.438000Z</time>
      </trkpt>
      <trkpt lat="52.286761" lon="10.505822">
        <time>2026-09-27T10:24:22.438000Z</time>
      </trkpt>
      <trkpt lat="52.286766" lon="10.50621">
        <time>2026-09-27T10:24:34.438000Z</time>
      </trkpt>
      <trkpt lat="52.286754" lon="10.506736">
        <time>2026-09-27T10:24:49.438000Z</time>
      </trkpt>
      <trkpt lat="52.286746" lon="10.507245">
        <time>2026-09-27T10:25:04.438000Z</time>
      </trkpt>
      <trkpt lat="52.286765" lon="10.507552">
        <time>2026-09-27T10:25:13.438000Z</time>
      </trkpt>
      <trkpt lat="52.286749" lon="10.507648">
        <time>2026-09-27T10:25:16.438000Z</time>
      </trkpt>
      <trkpt lat="52.286597" lon="10.508078">
        <time>2026-09-27T10:25:31.438000Z</time>
      </trkpt>
      <trkpt lat="52.286478" lon="10.508481">
        <time>2026-09-27T10:25:43.438000Z</time>
      </trkpt>
      <trkpt lat="52.286449" lon="10.508785">
        <time>2026-09-27T10:25:52.438000Z</time>
      </trkpt>
      <trkpt lat="52.286476" lon="10.508896">
        <time>2026-09-27T10:25:55.438000Z</time>
      </trkpt>
      <trkpt lat="52.28652" lon="10.50935">
        <time>2026-09-27T10:26:07.438000Z</time>
      </trkpt>
      <trkpt lat="52.286567" lon="10.509868">
        <time>2026-09-27T10:26:22.438000Z</time>
      </trkpt>
      <trkpt lat="52.286614" lon="10.510357">
        <time>2026-09-27T10:26:37.538000Z</time>
      </trkpt>
      <trkpt lat="52.286599" lon="10.510679">
        <time>2026-09-27T10:26:49.538000Z</time>
      </trkpt>
      <trkpt lat="52.286556" lon="10.510881">
        <time>2026-09-27T10:26:58.538000Z</time>
      </trkpt>
      <trkpt lat="52.286422" lon="10.511355">
        <time>2026-09-27T10:27:13.538000Z</time>
      </trkpt>
      <trkpt lat="52.286357" lon="10.511677">
        <time>2026-09-27T10:27:22.538000Z</time>
      </trkpt>
      <trkpt lat="52.28628" lon="10.511841">
        <time>2026-09-27T10:27:28.538000Z</time>
      </trkpt>
      <trkpt lat="52.286197" lon="10.512055">
        <time>2026-09-27T10:27:37.538000Z</time>
      </trkpt>
      <trkpt lat="52.286097" lon="10.512196">
        <time>2026-09-27T10:27:43.538000Z</time>
      </trkpt>
      <trkpt lat="52.28592" lon="10.512569">
        <time>2026-09-27T10:27:55.538000Z</time>
      </trkpt>
      <trkpt lat="52.285656" lon="10.512948">
        <time>2026-09-27T10:28:10.538000Z</time>
      </trkpt>
      <trkpt lat="52.285522" lon="10.513013">
        <time>2026-09-27T10:28:16.538000Z</time>
      </trkpt>
      <trkpt lat="52.285231" lon="10.513036">
        <time>2026-09-27T10:28:31.538000Z</time>
      </trkpt>
      <trkpt lat="52.284919" lon="10.513024">
        <time>2026-09-27T10:28:46.538000Z</time>
      </trkpt>
      <trkpt lat="52.284739" lon="10.513011">
        <time>2026-09-27T10:28:55.538000Z</time>
      </trkpt>
      <trkpt lat="52.284401" lon="10.513034">
        <time>2026-09-27T10:29:10.538000Z</time>
      </trkpt>
      <trkpt lat="52.284113" lon="10.513042">
        <time>2026-09-27T10:29:22.538000Z</time>
      </trkpt>
      <trkpt lat="52.283777" lon="10.513055">
        <time>2026-09-27T10:29:37.538000Z</time>
      </trkpt>
      <trkpt lat="52.283453" lon="10.513056">
        <time>2026-09-27T10:29:52.538000Z</time>
      </trkpt>
      <trkpt lat="52.283131" lon="10.51306">
        <time>2026-09-27T10:30:07.538000Z</time>
      </trkpt>
      <trkpt lat="52.282857" lon="10.513062">
        <time>2026-09-27T10:30:22.538000Z</time>
      </trkpt>
      <trkpt lat="52.282551" lon="10.513088">
        <time>2026-09-27T10:30:37.638000Z</time>
      </trkpt>
      <trkpt lat="52.282272" lon="10.513079">
        <time>2026-09-27T10:30:49.638000Z</time>
      </trkpt>
      <trkpt lat="52.281939" lon="10.513101">
        <time>2026-09-27T10:31:04.638000Z</time>
      </trkpt>
      <trkpt lat="52.281787653656004" lon="10.513103077550607">
        <time>2026-09-27T10:31:13.638000Z</time>
      </trkpt>
      <trkpt lat="52.28174061523834" lon="10.51318744203191">
        <time>2026-09-27T10:31:22.638000Z</time>
      </trkpt>
      <trkpt lat="52.28163348146657" lon="10.513189992402003">
        <time>2026-09-27T10:31:25.638000Z</time>
      </trkpt>
      <trkpt lat="52.281321" lon="10.513122">
        <time>2026-09-27T10:31:37.638000Z</time>
      </trkpt>
      <trkpt lat="52.281032" lon="10.513124">
        <time>2026-09-27T10:31:52.638000Z</time>
      </trkpt>
      <trkpt lat="52.280707" lon="10.51312">
        <time>2026-09-27T10:32:07.638000Z</time>
      </trkpt>
      <trkpt lat="52.280368" lon="10.513124">
        <time>2026-09-27T10:32:22.638000Z</time>
      </trkpt>
      <trkpt lat="52.280286" lon="10.513133">
        <time>2026-09-27T10:32:25.638000Z</time>
      </trkpt>
      <trkpt lat="52.279948" lon="10.513123">
        <time>2026-09-27T10:32:40.638000Z</time>
      </trkpt>
      <trkpt lat="52.279679" lon="10.51313">
        <time>2026-09-27T10:32:52.638000Z</time>
      </trkpt>
      <trkpt lat="52.279586" lon="10.513167">
        <time>2026-09-27T10:32:55.638000Z</time>
      </trkpt>
      <trkpt lat="52.279376" lon="10.513181">
        <time>2026-09-27T10:33:04.638000Z</time>
      </trkpt>
      <trkpt lat="52.279081" lon="10.513136">
        <time>2026-09-27T10:33:16.638000Z</time>
      </trkpt>
      <trkpt lat="52.278807" lon="10.513154">
        <time>2026-09-27T10:33:28.638000Z</time>
      </trkpt>
      <trkpt lat="52.278491" lon="10.513174">
        <time>2026-09-27T10:33:40.638000Z</time>
      </trkpt>
      <trkpt lat="52.278153" lon="10.513153">
        <time>2026-09-27T10:33:55.638000Z</time>
      </trkpt>
      <trkpt lat="52.27794" lon="10.513159">
        <time>2026-09-27T10:34:04.638000Z</time>
      </trkpt>
      <trkpt lat="52.277802" lon="10.513136">
        <time>2026-09-27T10:34:10.638000Z</time>
      </trkpt>
      <trkpt lat="52.277526" lon="10.513176">
        <time>2026-09-27T10:34:22.638000Z</time>
      </trkpt>
      <trkpt lat="52.277231" lon="10.51318">
        <time>2026-09-27T10:34:34.638000Z</time>
      </trkpt>
      <trkpt lat="52.276967" lon="10.513235">
        <time>2026-09-27T10:34:46.638000Z</time>
      </trkpt>
      <trkpt lat="52.27671" lon="10.513178">
        <time>2026-09-27T10:34:58.638000Z</time>
      </trkpt>
      <trkpt lat="52.276616" lon="10.513209">
        <time>2026-09-27T10:35:04.638000Z</time>
      </trkpt>
      <trkpt lat="52.276357" lon="10.513169">
        <time>2026-09-27T10:35:16.638000Z</time>
      </trkpt>
      <trkpt lat="52.276027" lon="10.513214">
        <time>2026-09-27T10:35:28.638000Z</time>
      </trkpt>
      <trkpt lat="52.275869" lon="10.513193">
        <time>2026-09-27T10:35:34.638000Z</time>
      </trkpt>
      <trkpt lat="52.275579" lon="10.513334">
        <time>2026-09-27T10:35:49.638000Z</time>
      </trkpt>
      <trkpt lat="52.275312" lon="10.513472">
        <time>2026-09-27T10:36:04.638000Z</time>
      </trkpt>
      <trkpt lat="52.275003" lon="10.51365">
        <time>2026-09-27T10:36:19.638000Z</time>
      </trkpt>
      <trkpt lat="52.274862" lon="10.513738">
        <time>2026-09-27T10:36:28.638000Z</time>
      </trkpt>
      <trkpt lat="52.2748" lon="10.513811">
        <time>2026-09-27T10:36:31.638000Z</time>
      </trkpt>
      <trkpt lat="52.274633" lon="10.513832">
        <time>2026-09-27T10:36:40.638000Z</time>
      </trkpt>
      <trkpt lat="52.274385" lon="10.513743">
        <time>2026-09-27T10:36:52.638000Z</time>
      </trkpt>
      <trkpt lat="52.274115" lon="10.513899">
        <time>2026-09-27T10:37:07.638000Z</time>
      </trkpt>
      <trkpt lat="52.27401004913256" lon="10.513936217967807">
        <time>2026-09-27T10:37:13.638000Z</time>
      </trkpt>
      <trkpt lat="52.273829" lon="10.514153">
        <time>2026-09-27T10:37:19.638000Z</time>
      </trkpt>
      <trkpt lat="52.273771" lon="10.514091">
        <time>2026-09-27T10:37:25.638000Z</time>
      </trkpt>
      <trkpt lat="52.273515" lon="10.514364">
        <time>2026-09-27T10:37:43.638000Z</time>
      </trkpt>
      <trkpt lat="52.273395" lon="10.514565">
        <time>2026-09-27T10:37:52.638000Z</time>
      </trkpt>
      <trkpt lat="52.273329" lon="10.514861">
        <time>2026-09-27T10:38:01.738000Z</time>
      </trkpt>
      <trkpt lat="52.273205" lon="10.515183">
        <time>2026-09-27T10:38:10.738000Z</time>
      </trkpt>
      <trkpt lat="52.273191" lon="10.515387">
        <time>2026-09-27T10:38:19.738000Z</time>
      </trkpt>
      <trkpt lat="52.273165" lon="10.515466">
        <time>2026-09-27T10:38:22.738000Z</time>
      </trkpt>
      <trkpt lat="52.273164" lon="10.51556">
        <time>2026-09-27T10:38:25.738000Z</time>
      </trkpt>
      <trkpt lat="52.273184" lon="10.515651">
        <time>2026-09-27T10:38:28.738000Z</time>
      </trkpt>
      <trkpt lat="52.27324" lon="10.515727">
        <time>2026-09-27T10:38:31.738000Z</time>
      </trkpt>
      <trkpt lat="52.273234" lon="10.516113">
        <time>2026-09-27T10:38:43.738000Z</time>
      </trkpt>
      <trkpt lat="52.273247" lon="10.516204">
        <time>2026-09-27T10:38:46.738000Z</time>
      </trkpt>
      <trkpt lat="52.273244" lon="10.516486">
        <time>2026-09-27T10:38:55.738000Z</time>
      </trkpt>
      <trkpt lat="52.273217" lon="10.516699">
        <time>2026-09-27T10:39:01.738000Z</time>
      </trkpt>
      <trkpt lat="52.273223" lon="10.51708">
        <time>2026-09-27T10:39:13.738000Z</time>
      </trkpt>
      <trkpt lat="52.273149" lon="10.517393">
        <time>2026-09-27T10:39:22.738000Z</time>
      </trkpt>
      <trkpt lat="52.27318" lon="10.517579">
        <time>2026-09-27T10:39:28.738000Z</time>
      </trkpt>
      <trkpt lat="52.273176" lon="10.517795">
        <time>2026-09-27T10:39:34.738000Z</time>
      </trkpt>
      <trkpt lat="52.273138" lon="10.517974">
        <time>2026-09-27T10:39:40.738000Z</time>
      </trkpt>
      <trkpt lat="52.27314305951584" lon="10.518056179739295">
        <time>2026-09-27T10:39:43.738000Z</time>
      </trkpt>
      <trkpt lat="52.273109" lon="10.518295">
        <time>2026-09-27T10:39:49.738000Z</time>
      </trkpt>
      <trkpt lat="52.273076" lon="10.518405">
        <time>2026-09-27T10:39:52.738000Z</time>
      </trkpt>
      <trkpt lat="52.2731" lon="10.518494">
        <time>2026-09-27T10:39:55.738000Z</time>
      </trkpt>
      <trkpt lat="52.273096" lon="10.518805">
        <time>2026-09-27T10:40:04.738000Z</time>
      </trkpt>
      <trkpt lat="52.273134" lon="10.518932">
        <time>2026-09-27T10:40:10.738000Z</time>
      </trkpt>
      <trkpt lat="52.273182" lon="10.519234">
        <time>2026-09-27T10:40:19.738000Z</time>
      </trkpt>
      <trkpt lat="52.273182" lon="10.519332">
        <time>2026-09-27T10:40:22.738000Z</time>
      </trkpt>
      <trkpt lat="52.273045" lon="10.519725">
        <time>2026-09-27T10:40:34.738000Z</time>
      </trkpt>
      <trkpt lat="52.27289" lon="10.52011">
        <time>2026-09-27T10:40:46.738000Z</time>
      </trkpt>
      <trkpt lat="52.272751" lon="10.52052">
        <time>2026-09-27T10:40:58.738000Z</time>
      </trkpt>
      <trkpt lat="52.272597" lon="10.520967">
        <time>2026-09-27T10:41:13.738000Z</time>
      </trkpt>
      <trkpt lat="52.272451" lon="10.521298">
        <time>2026-09-27T10:41:25.738000Z</time>
      </trkpt>
      <trkpt lat="52.272333" lon="10.521739">
        <time>2026-09-27T10:41:37.738000Z</time>
      </trkpt>
      <trkpt lat="52.272176" lon="10.522133">
        <time>2026-09-27T10:41:49.738000Z</time>
      </trkpt>
      <trkpt lat="52.272132" lon="10.522216">
        <time>2026-09-27T10:41:52.738000Z</time>
      </trkpt>
      <trkpt lat="52.272076" lon="10.522274">
        <time>2026-09-27T10:41:55.738000Z</time>
      </trkpt>
      <trkpt lat="52.272030120168075" lon="10.522357310396771">
        <time>2026-09-27T10:41:58.738000Z</time>
      </trkpt>
      <trkpt lat="52.27175" lon="10.522292">
        <time>2026-09-27T10:42:13.738000Z</time>
      </trkpt>
      <trkpt lat="52.271587" lon="10.522062">
        <time>2026-09-27T10:42:25.738000Z</time>
      </trkpt>
      <trkpt lat="52.271515" lon="10.522025">
        <time>2026-09-27T10:42:28.738000Z</time>
      </trkpt>
      <trkpt lat="52.27145" lon="10.522046">
        <time>2026-09-27T10:42:31.738000Z</time>
      </trkpt>
      <trkpt lat="52.271255" lon="10.522344">
        <time>2026-09-27T10:42:43.738000Z</time>
      </trkpt>
      <trkpt lat="52.271133" lon="10.522439">
        <time>2026-09-27T10:42:49.738000Z</time>
      </trkpt>
      <trkpt lat="52.270954" lon="10.522451">
        <time>2026-09-27T10:42:58.738000Z</time>
      </trkpt>
      <trkpt lat="52.270882" lon="10.522478">
        <time>2026-09-27T10:43:01.738000Z</time>
      </trkpt>
      <trkpt lat="52.270701994681765" lon="10.522588334402384">
        <time>2026-09-27T10:43:10.838000Z</time>
      </trkpt>
      <trkpt lat="52.270464" lon="10.522859">
        <time>2026-09-27T10:43:25.838000Z</time>
      </trkpt>
      <trkpt lat="52.27021" lon="10.523019">
        <time>2026-09-27T10:43:37.838000Z</time>
      </trkpt>
      <trkpt lat="52.27002979375263" lon="10.523143911246978">
        <time>2026-09-27T10:43:46.838000Z</time>
      </trkpt>
      <trkpt lat="52.269976" lon="10.523113">
        <time>2026-09-27T10:43:49.838000Z</time>
      </trkpt>
      <trkpt lat="52.269883" lon="10.522887">
        <time>2026-09-27T10:44:01.838000Z</time>
      </trkpt>
    </trkseg>
  </trk>
</gpx>