<?xml version="1.0" encoding="UTF-8"?>
<gpx xmlns="http://www.topografix.com/GPX/1/1" xmlns:gpxtpx="http://www.garmin.com/xmlschemas/TrackPointExtension/v1" xmlns:xsi="http://www.w3.org/2001/XMLSchema-instance" xsi:schemaLocation="http://www.topografix.com/GPX/1/1 http://www.topografix.com/GPX/1/1/gpx.xsd" version="1.1" creator="gpx.py -- https://github.com/tkrajina/gpxpy">
  <trk>
    <name>gpx from keep</name>
    <type>Run</type>
    <trkseg>
      <trkpt lat="52.269872" lon="10.522674">
        <time>2026-08-02T09:25:42.703000Z</time>
      </trkpt>
      <trkpt lat="52.269925" lon="10.522735">
        <time>2026-08-02T09:25:48.703000Z</time>
      </trkpt>
      <trkpt lat="52.269978" lon="10.522877">
        <time>2026-08-02T09:25:57.703000Z</time>
      </trkpt>
      <trkpt lat="52.269998" lon="10.522981">
        <time>2026-08-02T09:26:00.703000Z</time>
      </trkpt>
      <trkpt lat="52.2701" lon="10.523025">
        <time>2026-08-02T09:26:06.703000Z</time>
      </trkpt>
      <trkpt lat="52.270377" lon="10.52285">
        <time>2026-08-02T09:26:21.703000Z</time>
      </trkpt>
      <trkpt lat="52.27072" lon="10.522643">
        <time>2026-08-02T09:26:33.703000Z</time>
      </trkpt>
      <trkpt lat="52.270855" lon="10.522548">
        <time>2026-08-02T09:26:39.703000Z</time>
      </trkpt>
      <trkpt lat="52.27095" lon="10.522423">
        <time>2026-08-02T09:26:45.703000Z</time>
      </trkpt>
      <trkpt lat="52.271216" lon="10.522344">
        <time>2026-08-02T09:26:54.703000Z</time>
      </trkpt>
      <trkpt lat="52.271476" lon="10.522044">
        <time>2026-08-02T09:27:06.803000Z</time>
      </trkpt>
      <trkpt lat="52.271517" lon="10.521977">
        <time>2026-08-02T09:27:09.703000Z</time>
      </trkpt>
      <trkpt lat="52.271568" lon="10.521972">
        <time>2026-08-02T09:27:12.703000Z</time>
      </trkpt>
      <trkpt lat="52.27163" lon="10.522043">
        <time>2026-08-02T09:27:15.803000Z</time>
      </trkpt>
      <trkpt lat="52.271716" lon="10.522225">
        <time>2026-08-02T09:27:21.803000Z</time>
      </trkpt>
      <trkpt lat="52.271772" lon="10.52228">
        <time>2026-08-02T09:27:24.803000Z</time>
      </trkpt>
      <trkpt lat="52.271825" lon="10.522285">
        <time>2026-08-02T09:27:27.803000Z</time>
      </trkpt>
      <trkpt lat="52.271871" lon="10.522319">
        <time>2026-08-02T09:27:30.803000Z</time>
      </trkpt>
      <trkpt lat="52.272042" lon="10.522278">
        <time>2026-08-02T09:27:42.803000Z</time>
      </trkpt>
      <trkpt lat="52.272192" lon="10.522104">
        <time>2026-08-02T09:27:51.803000Z</time>
      </trkpt>
      <trkpt lat="52.272368" lon="10.521601">
        <time>2026-08-02T09:28:03.803000Z</time>
      </trkpt>
      <trkpt lat="52.272493" lon="10.521163">
        <time>2026-08-02T09:28:15.803000Z</time>
      </trkpt>
      <trkpt lat="52.272607" lon="10.520835">
        <time>2026-08-02T09:28:24.803000Z</time>
      </trkpt>
      <trkpt lat="52.272777" lon="10.520396">
        <time>2026-08-02T09:28:36.803000Z</time>
      </trkpt>
      <trkpt lat="52.272932" lon="10.519956">
        <time>2026-08-02T09:28:48.803000Z</time>
      </trkpt>
      <trkpt lat="52.273006" lon="10.519719">
        <time>2026-08-02T09:28:54.803000Z</time>
      </trkpt>
      <trkpt lat="52.27304" lon="10.519531">
        <time>2026-08-02T09:29:00.803000Z</time>
      </trkpt>
      <trkpt lat="52.273123" lon="10.519327">
        <time>2026-08-02T09:29:06.803000Z</time>
      </trkpt>
      <trkpt lat="52.273122" lon="10.519203">
        <time>2026-08-02T09:29:12.803000Z</time>
      </trkpt>
      <trkpt lat="52.273102" lon="10.519112">
        <time>2026-08-02T09:29:15.803000Z</time>
      </trkpt>
      <trkpt lat="52.273027" lon="10.518931">
        <time>2026-08-02T09:29:21.803000Z</time>
      </trkpt>
      <trkpt lat="52.273013" lon="10.518796">
        <time>2026-08-02T09:29:24.803000Z</time>
      </trkpt>
      <trkpt lat="52.273034" lon="10.518218">
        <time>2026-08-02T09:29:36.803000Z</time>
      </trkpt>
      <trkpt lat="52.273092" lon="10.517644">
        <time>2026-08-02T09:29:48.803000Z</time>
      </trkpt>
      <trkpt lat="52.273122" lon="10.517121">
        <time>2026-08-02T09:30:00.803000Z</time>
      </trkpt>
      <trkpt lat="52.273135" lon="10.516887">
        <time>2026-08-02T09:30:06.803000Z</time>
      </trkpt>
      <trkpt lat="52.273197" lon="10.516408">
        <time>2026-08-02T09:30:18.803000Z</time>
      </trkpt>
      <trkpt lat="52.273241" lon="10.516084">
        <time>2026-08-02T09:30:24.803000Z</time>
      </trkpt>
      <trkpt lat="52.273245" lon="10.515895">
        <time>2026-08-02T09:30:27.803000Z</time>
      </trkpt>
      <trkpt lat="52.273232" lon="10.515813">
        <time>2026-08-02T09:30:30.803000Z</time>
      </trkpt>
      <trkpt lat="52.273179" lon="10.515746">
        <time>2026-08-02T09:30:33.803000Z</time>
      </trkpt>
      <trkpt lat="52.273144" lon="10.515664">
        <time>2026-08-02T09:30:36.803000Z</time>
      </trkpt>
      <trkpt lat="52.27318" lon="10.515108">
        <time>2026-08-02T09:30:48.803000Z</time>
      </trkpt>
      <trkpt lat="52.273299" lon="10.514713">
        <time>2026-08-02T09:31:00.803000Z</time>
      </trkpt>
      <trkpt lat="52.273488" lon="10.514338">
        <time>2026-08-02T09:31:12.903000Z</time>
      </trkpt>
      <trkpt lat="52.273728" lon="10.514013">
        <time>2026-08-02T09:31:24.803000Z</time>
      </trkpt>
      <trkpt lat="52.274028" lon="10.513887">
        <time>2026-08-02T09:31:39.803000Z</time>
      </trkpt>
      <trkpt lat="52.27432" lon="10.513743">
        <time>2026-08-02T09:31:51.803000Z</time>
      </trkpt>
      <trkpt lat="52.274383" lon="10.513733">
        <time>2026-08-02T09:31:54.803000Z</time>
      </trkpt>
      <trkpt lat="52.274561" lon="10.513825">
        <time>2026-08-02T09:32:03.803000Z</time>
      </trkpt>
      <trkpt lat="52.274819" lon="10.513728">
        <time>2026-08-02T09:32:15.803000Z</time>
      </trkpt>
      <trkpt lat="52.275078" lon="10.513556">
        <time>2026-08-02T09:32:27.803000Z</time>
      </trkpt>
      <trkpt lat="52.27537" lon="10.513414">
        <time>2026-08-02T09:32:39.803000Z</time>
      </trkpt>
      <trkpt lat="52.275629" lon="10.513278">
        <time>2026-08-02T09:32:48.803000Z</time>
      </trkpt>
      <trkpt lat="52.275713" lon="10.513238">
        <time>2026-08-02T09:32:51.803000Z</time>
      </trkpt>
      <trkpt lat="52.276031" lon="10.51317">
        <time>2026-08-02T09:33:03.803000Z</time>
      </trkpt>
      <trkpt lat="52.27625" lon="10.513139">
        <time>2026-08-02T09:33:12.803000Z</time>
      </trkpt>
      <trkpt lat="52.276529" lon="10.513164">
        <time>2026-08-02T09:33:24.803000Z</time>
      </trkpt>
      <trkpt lat="52.276817" lon="10.513172">
        <time>2026-08-02T09:33:36.803000Z</time>
      </trkpt>
      <trkpt lat="52.2771" lon="10.513173">
        <time>2026-08-02T09:33:48.803000Z</time>
      </trkpt>
      <trkpt lat="52.277419" lon="10.513151">
        <time>2026-08-02T09:34:03.903000Z</time>
      </trkpt>
      <trkpt lat="52.277542" lon="10.513158">
        <time>2026-08-02T09:34:09.903000Z</time>
      </trkpt>
      <trkpt lat="52.277832" lon="10.513111">
        <time>2026-08-02T09:34:21.903000Z</time>
      </trkpt>
      <trkpt lat="52.278136" lon="10.513131">
        <time>2026-08-02T09:34:33.903000Z</time>
      </trkpt>
      <trkpt lat="52.278453" lon="10.513134">
        <time>2026-08-02T09:34:48.903000Z</time>
      </trkpt>
      <trkpt lat="52.278761" lon="10.51318">
        <time>2026-08-02T09:35:00.903000Z</time>
      </trkpt>
      <trkpt lat="52.279061" lon="10.513113">
        <time>2026-08-02T09:35:15.903000Z</time>
      </trkpt>
      <trkpt lat="52.27936" lon="10.513162">
        <time>2026-08-02T09:35:27.903000Z</time>
      </trkpt>
      <trkpt lat="52.279687" lon="10.51315">
        <time>2026-08-02T09:35:42.903000Z</time>
      </trkpt>
      <trkpt lat="52.280007" lon="10.513141">
        <time>2026-08-02T09:35:54.903000Z</time>
      </trkpt>
      <trkpt lat="52.280316" lon="10.513104">
        <time>2026-08-02T09:36:09.903000Z</time>
      </trkpt>
      <trkpt lat="52.28061" lon="10.51311">
        <time>2026-08-02T09:36:21.903000Z</time>
      </trkpt>
      <trkpt lat="52.280906" lon="10.513102">
        <time>2026-08-02T09:36:33.903000Z</time>
      </trkpt>
      <trkpt lat="52.281199" lon="10.513089">
        <time>2026-08-02T09:36:45.903000Z</time>
      </trkpt>
      <trkpt lat="52.281481" lon="10.513077">
        <time>2026-08-02T09:36:57.903000Z</time>
      </trkpt>
      <trkpt lat="52.281707" lon="10.513114">
        <time>2026-08-02T09:37:09.903000Z</time>
      </trkpt>
      <trkpt lat="52.281995" lon="10.513087">
        <time>2026-08-02T09:37:18.903000Z</time>
      </trkpt>
      <trkpt lat="52.282313" lon="10.513065">
        <time>2026-08-02T09:37:33.903000Z</time>
      </trkpt>
      <trkpt lat="52.282639" lon="10.513047">
        <time>2026-08-02T09:37:48.903000Z</time>
      </trkpt>
      <trkpt lat="52.28296" lon="10.513052">
        <time>2026-08-02T09:38:00.903000Z</time>
      </trkpt>
      <trkpt lat="52.283232" lon="10.513048">
        <time>2026-08-02T09:38:09.903000Z</time>
      </trkpt>
      <trkpt lat="52.283581" lon="10.513041">
        <time>2026-08-02T09:38:21.903000Z</time>
      </trkpt>
      <trkpt lat="52.283902" lon="10.513042">
        <time>2026-08-02T09:38:33.903000Z</time>
      </trkpt>
      <trkpt lat="52.284232" lon="10.513041">
        <time>2026-08-02T09:38:45.903000Z</time>
      </trkpt>
      <trkpt lat="52.284521" lon="10.513033">
        <time>2026-08-02T09:38:57.903000Z</time>
      </trkpt>
      <trkpt lat="52.284818" lon="10.513027">
        <time>2026-08-02T09:39:12.903000Z</time>
      </trkpt>
      <trkpt lat="52.285115" lon="10.513043">
        <time>2026-08-02T09:39:28.003000Z</time>
      </trkpt>
      <trkpt lat="52.285387" lon="10.513028">
        <time>2026-08-02T09:39:40.003000Z</time>
      </trkpt>
      <trkpt lat="52.2857" lon="10.513013">
        <time>2026-08-02T09:39:52.003000Z</time>
      </trkpt>
      <trkpt lat="52.286003" lon="10.512997">
        <time>2026-08-02T09:40:07.003000Z</time>
      </trkpt>
      <trkpt lat="52.286313" lon="10.512971">
        <time>2026-08-02T09:40:22.003000Z</time>
      </trkpt>
      <trkpt lat="52.286604" lon="10.512999">
        <time>2026-08-02T09:40:34.003000Z</time>
      </trkpt>
      <trkpt lat="52.286914" lon="10.513014">
        <time>2026-08-02T09:40:46.003000Z</time>
      </trkpt>
      <trkpt lat="52.287223" lon="10.513054">
        <time>2026-08-02T09:40:58.003000Z</time>
      </trkpt>
      <trkpt lat="52.287532" lon="10.513066">
        <time>2026-08-02T09:41:10.003000Z</time>
      </trkpt>
      <trkpt lat="52.287824" lon="10.513091">
        <time>2026-08-02T09:41:22.003000Z</time>
      </trkpt>
      <trkpt lat="52.288111" lon="10.513126">
        <time>2026-08-02T09:41:34.003000Z</time>
      </trkpt>
      <trkpt lat="52.288393" lon="10.513147">
        <time>2026-08-02T09:41:46.003000Z</time>
      </trkpt>
      <trkpt lat="52.288669" lon="10.513125">
        <time>2026-08-02T09:41:58.003000Z</time>
      </trkpt>
      <trkpt lat="52.288797" lon="10.513065">
        <time>2026-08-02T09:42:04.003000Z</time>
      </trkpt>
      <trkpt lat="52.288936" lon="10.512842">
        <time>2026-08-02T09:42:13.003000Z</time>
      </trkpt>
      <trkpt lat="52.289055" lon="10.512374">
        <time>2026-08-02T09:42:28.003000Z</time>
      </trkpt>
      <trkpt lat="52.289079" lon="10.511855">
        <time>2026-08-02T09:42:43.003000Z</time>
      </trkpt>
      <trkpt lat="52.289088" lon="10.511412">
        <time>2026-08-02T09:42:55.003000Z</time>
      </trkpt>
      <trkpt lat="52.289083" lon="10.510979">
        <time>2026-08-02T09:43:07.003000Z</time>
      </trkpt>
      <trkpt lat="52.289136" lon="10.510775">
        <time>2026-08-02T09:43:13.003000Z</time>
      </trkpt>
      <trkpt lat="52.289143" lon="10.510327">
        <time>2026-08-02T09:43:25.003000Z</time>
      </trkpt>
      <trkpt lat="52.289124" lon="10.509849">
        <time>2026-08-02T09:43:37.003000Z</time>
      </trkpt>
      <trkpt lat="52.28909" lon="10.509336">
        <time>2026-08-02T09:43:49.003000Z</time>
      </trkpt>
      <trkpt lat="52.289087" lon="10.508806">
        <time>2026-08-02T09:44:01.003000Z</time>
      </trkpt>
      <trkpt lat="52.289133" lon="10.50836">
        <time>2026-08-02T09:44:10.103000Z</time>
      </trkpt>
      <trkpt lat="52.289209" lon="10.507804">
        <time>2026-08-02T09:44:22.103000Z</time>
      </trkpt>
      <trkpt lat="52.289273" lon="10.507307">
        <time>2026-08-02T09:44:34.103000Z</time>
      </trkpt>
      <trkpt lat="52.289358" lon="10.506836">
        <time>2026-08-02T09:44:46.103000Z</time>
      </trkpt>
      <trkpt lat="52.28944" lon="10.506415">
        <time>2026-08-02T09:44:58.103000Z</time>
      </trkpt>
      <trkpt lat="52.289555" lon="10.506013">
        <time>2026-08-02T09:45:13.103000Z</time>
      </trkpt>
      <trkpt lat="52.289626" lon="10.505806">
        <time>2026-08-02T09:45:22.103000Z</time>
      </trkpt>
      <trkpt lat="52.289673" lon="10.505585">
        <time>2026-08-02T09:45:28.103000Z</time>
      </trkpt>
      <trkpt lat="52.289791" lon="10.505327">
        <time>2026-08-02T09:45:37.103000Z</time>
      </trkpt>
      <trkpt lat="52.289842" lon="10.50525">
        <time>2026-08-02T09:45:40.103000Z</time>
      </trkpt>
      <trkpt lat="52.290099" lon="10.505077">
        <time>2026-08-02T09:45:52.103000Z</time>
      </trkpt>
      <trkpt lat="52.290271" lon="10.504918">
        <time>2026-08-02T09:46:01.103000Z</time>
      </trkpt>
      <trkpt lat="52.290482" lon="10.504561">
        <time>2026-08-02T09:46:16.103000Z</time>
      </trkpt>
      <trkpt lat="52.290631" lon="10.504253">
        <time>2026-08-02T09:46:28.103000Z</time>
      </trkpt>
      <trkpt lat="52.290661" lon="10.504064">
        <time>2026-08-02T09:46:34.103000Z</time>
      </trkpt>
      <trkpt lat="52.290657" lon="10.50374">
        <time>2026-08-02T09:46:43.103000Z</time>
      </trkpt>
      <trkpt lat="52.290634" lon="10.503608">
        <time>2026-08-02T09:46:46.103000Z</time>
      </trkpt>
      <trkpt lat="52.290547" lon="10.503408">
        <time>2026-08-02T09:46:52.103000Z</time>
      </trkpt>
      <trkpt lat="52.290287" lon="10.50308">
        <time>2026-08-02T09:47:04.103000Z</time>
      </trkpt>
      <trkpt lat="52.290029" lon="10.502851">
        <time>2026-08-02T09:47:16.103000Z</time>
      </trkpt>
      <trkpt lat="52.289907" lon="10.502733">
        <time>2026-08-02T09:47:22.103000Z</time>
      </trkpt>
      <trkpt lat="52.289747" lon="10.502532">
        <time>2026-08-02T09:47:31.103000Z</time>
      </trkpt>
      <trkpt lat="52.289698" lon="10.502526">
        <time>2026-08-02T09:47:34.103000Z</time>
      </trkpt>
      <trkpt lat="52.289488" lon="10.502632">
        <time>2026-08-02T09:47:46.103000Z</time>
      </trkpt>
      <trkpt lat="52.289264" lon="10.50267">
        <time>2026-08-02T09:47:55.103000Z</time>
      </trkpt>
      <trkpt lat="52.289204" lon="10.50264">
        <time>2026-08-02T09:47:58.103000Z</time>
      </trkpt>
      <trkpt lat="52.289099" lon="10.502427">
        <time>2026-08-02T09:48:07.103000Z</time>
      </trkpt>
      <trkpt lat="52.288934" lon="10.501953">
        <time>2026-08-02T09:48:22.103000Z</time>
      </trkpt>
      <trkpt lat="52.288737" lon="10.501536">
        <time>2026-08-02T09:48:34.203000Z</time>
      </trkpt>
      <trkpt lat="52.28865" lon="10.501351">
        <time>2026-08-02T09:48:40.203000Z</time>
      </trkpt>
      <trkpt lat="52.288434" lon="10.501092">
        <time>2026-08-02T09:48:52.203000Z</time>
      </trkpt>
      <trkpt lat="52.288119" lon="10.50096">
        <time>2026-08-02T09:49:07.203000Z</time>
      </trkpt>
      <trkpt lat="52.287939" lon="10.500919">
        <time>2026-08-02T09:49:16.203000Z</time>
      </trkpt>
      <trkpt lat="52.287819" lon="10.500991">
        <time>2026-08-02T09:49:22.203000Z</time>
      </trkpt>
      <trkpt lat="52.287595" lon="10.501245">
        <time>2026-08-02T09:49:34.203000Z</time>
      </trkpt>
      <trkpt lat="52.287562" lon="10.50132">
        <time>2026-08-02T09:49:37.203000Z</time>
      </trkpt>
      <trkpt lat="52.287426" lon="10.501528">
        <time>2026-08-02T09:49:46.203000Z</time>
      </trkpt>
      <trkpt lat="52.287266" lon="10.501929">
        <time>2026-08-02T09:49:58.203000Z</time>
      </trkpt>
      <trkpt lat="52.28713" lon="10.50241">
        <time>2026-08-02T09:50:10.203000Z</time>
      </trkpt>
      <trkpt lat="52.287035" lon="10.502851">
        <time>2026-08-02T09:50:22.203000Z</time>
      </trkpt>
      <trkpt lat="52.286942" lon="10.503345">
        <time>2026-08-02T09:50:37.203000Z</time>
      </trkpt>
      <trkpt lat="52.286856" lon="10.503781">
        <time>2026-08-02T09:50:52.203000Z</time>
      </trkpt>
      <trkpt lat="52.286748" lon="10.504331">
        <time>2026-08-02T09:51:07.203000Z</time>
      </trkpt>
      <trkpt lat="52.286724" lon="10.504849">
        <time>2026-08-02T09:51:19.203000Z</time>
      </trkpt>
      <trkpt lat="52.286744" lon="10.505289">
        <time>2026-08-02T09:51:34.203000Z</time>
      </trkpt>
      <trkpt lat="52.286764" lon="10.505754">
        <time>2026-08-02T09:51:49.203000Z</time>
      </trkpt>
      <trkpt lat="52.286773" lon="10.506274">
        <time>2026-08-02T09:52:04.203000Z</time>
      </trkpt>
      <trkpt lat="52.286773" lon="10.506789">
        <time>2026-08-02T09:52:19.303000Z</time>
      </trkpt>
      <trkpt lat="52.286752" lon="10.507262">
        <time>2026-08-02T09:52:31.303000Z</time>
      </trkpt>
      <trkpt lat="52.286757" lon="10.507566">
        <time>2026-08-02T09:52:40.303000Z</time>
      </trkpt>
      <trkpt lat="52.286597" lon="10.508007">
        <time>2026-08-02T09:52:58.303000Z</time>
      </trkpt>
      <trkpt lat="52.286505" lon="10.50833">
        <time>2026-08-02T09:53:07.303000Z</time>
      </trkpt>
      <trkpt lat="52.286476" lon="10.508777">
        <time>2026-08-02T09:53:19.303000Z</time>
      </trkpt>
      <trkpt lat="52.286487" lon="10.509121">
        <time>2026-08-02T09:53:28.303000Z</time>
      </trkpt>
      <trkpt lat="52.286528" lon="10.509649">
        <time>2026-08-02T09:53:43.303000Z</time>
      </trkpt>
      <trkpt lat="52.286585" lon="10.510164">
        <time>2026-08-02T09:53:58.303000Z</time>
      </trkpt>
      <trkpt lat="52.286614" lon="10.510586">
        <time>2026-08-02T09:54:10.303000Z</time>
      </trkpt>
      <trkpt lat="52.286593" lon="10.510691">
        <time>2026-08-02T09:54:13.303000Z</time>
      </trkpt>
      <trkpt lat="52.286479" lon="10.511177">
        <time>2026-08-02T09:54:31.303000Z</time>
      </trkpt>
      <trkpt lat="52.286335" lon="10.511632">
        <time>2026-08-02T09:54:46.303000Z</time>
      </trkpt>
      <trkpt lat="52.286198" lon="10.512023">
        <time>2026-08-02T09:54:58.303000Z</time>
      </trkpt>
      <trkpt lat="52.285984" lon="10.512373">
        <time>2026-08-02T09:55:13.303000Z</time>
      </trkpt>
      <trkpt lat="52.285761" lon="10.512723">
        <time>2026-08-02T09:55:28.303000Z</time>
      </trkpt>
      <trkpt lat="52.285596" lon="10.512911">
        <time>2026-08-02T09:55:37.303000Z</time>
      </trkpt>
      <trkpt lat="52.285456" lon="10.512965">
        <time>2026-08-02T09:55:43.303000Z</time>
      </trkpt>
      <trkpt lat="52.285119" lon="10.512969">
        <time>2026-08-02T09:55:58.303000Z</time>
      </trkpt>
      <trkpt lat="52.284794" lon="10.513013">
        <time>2026-08-02T09:56:13.303000Z</time>
      </trkpt>
      <trkpt lat="52.284472" lon="10.513002">
        <time>2026-08-02T09:56:28.403000Z</time>
      </trkpt>
      <trkpt lat="52.284135" lon="10.512988">
        <time>2026-08-02T09:56:43.403000Z</time>
      </trkpt>
      <trkpt lat="52.283812" lon="10.513029">
        <time>2026-08-02T09:56:58.403000Z</time>
      </trkpt>
      <trkpt lat="52.283517" lon="10.51301">
        <time>2026-08-02T09:57:10.403000Z</time>
      </trkpt>
      <trkpt lat="52.283213" lon="10.512985">
        <time>2026-08-02T09:57:22.403000Z</time>
      </trkpt>
      <trkpt lat="52.282899" lon="10.51301">
        <time>2026-08-02T09:57:34.403000Z</time>
      </trkpt>
      <trkpt lat="52.282583" lon="10.513012">
        <time>2026-08-02T09:57:49.403000Z</time>
      </trkpt>
      <trkpt lat="52.282243" lon="10.513051">
        <time>2026-08-02T09:58:01.403000Z</time>
      </trkpt>
      <trkpt lat="52.281956" lon="10.513053">
        <time>2026-08-02T09:58:13.403000Z</time>
      </trkpt>
      <trkpt lat="52.281679" lon="10.513048">
        <time>2026-08-02T09:58:25.403000Z</time>
      </trkpt>
      <trkpt lat="52.281428" lon="10.513026">
        <time>2026-08-02T09:58:37.403000Z</time>
      </trkpt>
      <trkpt lat="52.281137" lon="10.51308">
        <time>2026-08-02T09:58:52.403000Z</time>
      </trkpt>
      <trkpt lat="52.280952" lon="10.513099">
        <time>2026-08-02T09:59:01.403000Z</time>
      </trkpt>
      <trkpt lat="52.28063" lon="10.513076">
        <time>2026-08-02T09:59:16.403000Z</time>
      </trkpt>
      <trkpt lat="52.280347" lon="10.513057">
        <time>2026-08-02T09:59:31.503000Z</time>
      </trkpt>
      <trkpt lat="52.280066" lon="10.513097">
        <time>2026-08-02T09:59:43.503000Z</time>
      </trkpt>
      <trkpt lat="52.279745" lon="10.513095">
        <time>2026-08-02T10:00:01.503000Z</time>
      </trkpt>
      <trkpt lat="52.279397" lon="10.513135">
        <time>2026-08-02T10:00:13.503000Z</time>
      </trkpt>
      <trkpt lat="52.279076" lon="10.513125">
        <time>2026-08-02T10:00:28.503000Z</time>
      </trkpt>
      <trkpt lat="52.278791" lon="10.51309">
        <time>2026-08-02T10:00:43.503000Z</time>
      </trkpt>
      <trkpt lat="52.278486" lon="10.513124">
        <time>2026-08-02T10:00:55.503000Z</time>
      </trkpt>
      <trkpt lat="52.278197" lon="10.513111">
        <time>2026-08-02T10:01:07.503000Z</time>
      </trkpt>
      <trkpt lat="52.277906" lon="10.513133">
        <time>2026-08-02T10:01:19.503000Z</time>
      </trkpt>
      <trkpt lat="52.277593" lon="10.513142">
        <time>2026-08-02T10:01:34.503000Z</time>
      </trkpt>
      <trkpt lat="52.277263" lon="10.513134">
        <time>2026-08-02T10:01:49.503000Z</time>
      </trkpt>
      <trkpt lat="52.276925" lon="10.513147">
        <time>2026-08-02T10:02:04.503000Z</time>
      </trkpt>
      <trkpt lat="52.276652" lon="10.513125">
        <time>2026-08-02T10:02:16.503000Z</time>
      </trkpt>
      <trkpt lat="52.27632" lon="10.513142">
        <time>2026-08-02T10:02:31.503000Z</time>
      </trkpt>
      <trkpt lat="52.275984" lon="10.513167">
        <time>2026-08-02T10:02:43.503000Z</time>
      </trkpt>
      <trkpt lat="52.27579" lon="10.513181">
        <time>2026-08-02T10:02:52.503000Z</time>
      </trkpt>
      <trkpt lat="52.275492" lon="10.513353">
        <time>2026-08-02T10:03:10.603000Z</time>
      </trkpt>
      <trkpt lat="52.27522" lon="10.513496">
        <time>2026-08-02T10:03:22.603000Z</time>
      </trkpt>
      <trkpt lat="52.274936" lon="10.513648">
        <time>2026-08-02T10:03:37.603000Z</time>
      </trkpt>
      <trkpt lat="52.274699" lon="10.513753">
        <time>2026-08-02T10:03:49.603000Z</time>
      </trkpt>
      <trkpt lat="52.274442" lon="10.513688">
        <time>2026-08-02T10:04:01.603000Z</time>
      </trkpt>
      <trkpt lat="52.27413" lon="10.513829">
        <time>2026-08-02T10:04:16.603000Z</time>
      </trkpt>
      <trkpt lat="52.273897" lon="10.513905">
        <time>2026-08-02T10:04:28.603000Z</time>
      </trkpt>
      <trkpt lat="52.273663" lon="10.514129">
        <time>2026-08-02T10:04:40.603000Z</time>
      </trkpt>
      <trkpt lat="52.273442" lon="10.514448">
        <time>2026-08-02T10:04:55.603000Z</time>
      </trkpt>
      <trkpt lat="52.273385" lon="10.514529">
        <time>2026-08-02T10:04:58.603000Z</time>
      </trkpt>
      <trkpt lat="52.273261" lon="10.514968">
        <time>2026-08-02T10:05:10.603000Z</time>
      </trkpt>
      <trkpt lat="52.273188" lon="10.515252">
        <time>2026-08-02T10:05:19.603000Z</time>
      </trkpt>
      <trkpt lat="52.273158" lon="10.515568">
        <time>2026-08-02T10:05:31.603000Z</time>
      </trkpt>
      <trkpt lat="52.273178" lon="10.515642">
        <time>2026-08-02T10:05:34.603000Z</time>
      </trkpt>
      <trkpt lat="52.273218" lon="10.5157">
        <time>2026-08-02T10:05:37.603000Z</time>
      </trkpt>
      <trkpt lat="52.273237" lon="10.515799">
        <time>2026-08-02T10:05:40.603000Z</time>
      </trkpt>
      <trkpt lat="52.273202" lon="10.516111">
        <time>2026-08-02T10:05:52.603000Z</time>
      </trkpt>
      <trkpt lat="52.273171" lon="10.516644">
        <time>2026-08-02T10:06:07.603000Z</time>
      </trkpt>
      <trkpt lat="52.27313" lon="10.517153">
        <time>2026-08-02T10:06:22.603000Z</time>
      </trkpt>
      <trkpt lat="52.273106" lon="10.517474">
        <time>2026-08-02T10:06:31.603000Z</time>
      </trkpt>
      <trkpt lat="52.273099" lon="10.51798">
        <time>2026-08-02T10:06:46.703000Z</time>
      </trkpt>
      <trkpt lat="52.273075" lon="10.518336">
        <time>2026-08-02T10:06:55.703000Z</time>
      </trkpt>
      <trkpt lat="52.273083" lon="10.51843">
        <time>2026-08-02T10:06:58.703000Z</time>
      </trkpt>
      <trkpt lat="52.273065" lon="10.51879">
        <time>2026-08-02T10:07:07.703000Z</time>
      </trkpt>
      <trkpt lat="52.273182" lon="10.519206">
        <time>2026-08-02T10:07:19.703000Z</time>
      </trkpt>
      <trkpt lat="52.273221" lon="10.519378">
        <time>2026-08-02T10:07:25.703000Z</time>
      </trkpt>
      <trkpt lat="52.273197" lon="10.519458">
        <time>2026-08-02T10:07:28.703000Z</time>
      </trkpt>
      <trkpt lat="52.273125" lon="10.519579">
        <time>2026-08-02T10:07:34.703000Z</time>
      </trkpt>
      <trkpt lat="52.272951" lon="10.520001">
        <time>2026-08-02T10:07:46.703000Z</time>
      </trkpt>
      <trkpt lat="52.272788" lon="10.520418">
        <time>2026-08-02T10:08:01.703000Z</time>
      </trkpt>
      <trkpt lat="52.272615" lon="10.520848">
        <time>2026-08-02T10:08:16.703000Z</time>
      </trkpt>
      <trkpt lat="52.272464" lon="10.521251">
        <time>2026-08-02T10:08:28.703000Z</time>
      </trkpt>
      <trkpt lat="52.272335" lon="10.521644">
        <time>2026-08-02T10:08:40.703000Z</time>
      </trkpt>
      <trkpt lat="52.272153" lon="10.522118">
        <time>2026-08-02T10:08:55.703000Z</time>
      </trkpt>
      <trkpt lat="52.272117" lon="10.522238">
        <time>2026-08-02T10:08:58.703000Z</time>
      </trkpt>
      <trkpt lat="52.272075" lon="10.522292">
        <time>2026-08-02T10:09:01.703000Z</time>
      </trkpt>
      <trkpt lat="52.271798" lon="10.522292">
        <time>2026-08-02T10:09:16.703000Z</time>
      </trkpt>
      <trkpt lat="52.271605" lon="10.521999">
        <time>2026-08-02T10:09:28.703000Z</time>
      </trkpt>
      <trkpt lat="52.271547" lon="10.521962">
        <time>2026-08-02T10:09:31.703000Z</time>
      </trkpt>
      <trkpt lat="52.271432" lon="10.522047">
        <time>2026-08-02T10:09:37.703000Z</time>
      </trkpt>
      <trkpt lat="52.2712" lon="10.522346">
        <time>2026-08-02T10:09:49.703000Z</time>
      </trkpt>
      <trkpt lat="52.270931" lon="10.52245">
        <time>2026-08-02T10:10:01.703000Z</time>
      </trkpt>
      <trkpt lat="52.270794" lon="10.522531">
        <time>2026-08-02T10:10:07.703000Z</time>
      </trkpt>
      <trkpt lat="52.270507" lon="10.522767">
        <time>2026-08-02T10:10:19.703000Z</time>
      </trkpt>
      <trkpt lat="52.270219" lon="10.522985">
        <time>2026-08-02T10:10:31.803000Z</time>
      </trkpt>
      <trkpt lat="52.270085" lon="10.523105">
        <time>2026-08-02T10:10:40.803000Z</time>
      </trkpt>
      <trkpt lat="52.270018" lon="10.523128">
        <time>2026-08-02T10:10:46.803000Z</time>
      </trkpt>
      <trkpt lat="52.269951" lon="10.52309">
        <time>2026-08-02T10:10:52.803000Z</time>
      </trkpt>
    </trkseg>
  </trk>
</gpx>