<?xml version="1.0" encoding="UTF-8"?>
<gpx xmlns="http://www.topografix.com/GPX/1/1" xmlns:gpxtpx="http://www.garmin.com/xmlschemas/TrackPointExtension/v1" xmlns:xsi="http://www.w3.org/2001/XMLSchema-instance" xsi:schemaLocation="http://www.topografix.com/GPX/1/1 http://www.topografix.com/GPX/1/1/gpx.xsd" version="1.1" creator="gpx.py -- https://github.com/tkrajina/gpxpy">
  <trk>
    <name>gpx from keep</name>
    <type>Run</type>
    <trkseg>
      <trkpt lat="52.26977" lon="10.522938">
        <time>2026-09-16T14:13:57.314000Z</time>
      </trkpt>
      <trkpt lat="52.269902" lon="10.522742">
        <time>2026-09-16T14:14:00.814000Z</time>
      </trkpt>
      <trkpt lat="52.269962" lon="10.522846">
        <time>2026-09-16T14:14:09.814000Z</time>
      </trkpt>
      <trkpt lat="52.270052" lon="10.52288">
        <time>2026-09-16T14:14:15.814000Z</time>
      </trkpt>
      <trkpt lat="52.270093" lon="10.522949">
        <time>2026-09-16T14:14:18.814000Z</time>
      </trkpt>
      <trkpt lat="52.270183" lon="10.522942">
        <time>2026-09-16T14:14:24.814000Z</time>
      </trkpt>
      <trkpt lat="52.270284" lon="10.522803">
        <time>2026-09-16T14:14:30.814000Z</time>
      </trkpt>
      <trkpt lat="52.270513" lon="10.522654">
        <time>2026-09-16T14:14:39.814000Z</time>
      </trkpt>
      <trkpt lat="52.270652" lon="10.522614">
        <time>2026-09-16T14:14:45.814000Z</time>
      </trkpt>
      <trkpt lat="52.270924" lon="10.522444">
        <time>2026-09-16T14:14:57.814000Z</time>
      </trkpt>
      <trkpt lat="52.271213" lon="10.522388">
        <time>2026-09-16T14:15:09.814000Z</time>
      </trkpt>
      <trkpt lat="52.271451" lon="10.522086">
        <time>2026-09-16T14:15:24.914000Z</time>
      </trkpt>
      <trkpt lat="52.271487" lon="10.522041">
        <time>2026-09-16T14:15:27.914000Z</time>
      </trkpt>
      <trkpt lat="52.271592" lon="10.522035">
        <time>2026-09-16T14:15:33.914000Z</time>
      </trkpt>
      <trkpt lat="52.271757" lon="10.522246">
        <time>2026-09-16T14:15:45.914000Z</time>
      </trkpt>
      <trkpt lat="52.271902" lon="10.522267">
        <time>2026-09-16T14:15:51.914000Z</time>
      </trkpt>
      <trkpt lat="52.272008" lon="10.522254">
        <time>2026-09-16T14:15:54.914000Z</time>
      </trkpt>
      <trkpt lat="52.27209" lon="10.522203">
        <time>2026-09-16T14:15:57.914000Z</time>
      </trkpt>
      <trkpt lat="52.272149" lon="10.522109">
        <time>2026-09-16T14:16:00.914000Z</time>
      </trkpt>
      <trkpt lat="52.272305" lon="10.521704">
        <time>2026-09-16T14:16:12.914000Z</time>
      </trkpt>
      <trkpt lat="52.272483" lon="10.521204">
        <time>2026-09-16T14:16:27.914000Z</time>
      </trkpt>
      <trkpt lat="52.272649" lon="10.520823">
        <time>2026-09-16T14:16:39.914000Z</time>
      </trkpt>
      <trkpt lat="52.272812" lon="10.520379">
        <time>2026-09-16T14:16:54.914000Z</time>
      </trkpt>
      <trkpt lat="52.27295" lon="10.519986">
        <time>2026-09-16T14:17:06.914000Z</time>
      </trkpt>
      <trkpt lat="52.273037" lon="10.51966">
        <time>2026-09-16T14:17:15.914000Z</time>
      </trkpt>
      <trkpt lat="52.273153" lon="10.519281">
        <time>2026-09-16T14:17:30.914000Z</time>
      </trkpt>
      <trkpt lat="52.273102" lon="10.519149">
        <time>2026-09-16T14:17:36.914000Z</time>
      </trkpt>
      <trkpt lat="52.273083" lon="10.518899">
        <time>2026-09-16T14:17:45.914000Z</time>
      </trkpt>
      <trkpt lat="52.273095" lon="10.518355">
        <time>2026-09-16T14:18:00.914000Z</time>
      </trkpt>
      <trkpt lat="52.273158" lon="10.517885">
        <time>2026-09-16T14:18:15.914000Z</time>
      </trkpt>
      <trkpt lat="52.273163352594686" lon="10.51764594642284">
        <time>2026-09-16T14:18:21.914000Z</time>
      </trkpt>
      <trkpt lat="52.27319898189952" lon="10.517181989689766">
        <time>2026-09-16T14:18:33.914000Z</time>
      </trkpt>
      <trkpt lat="52.273261" lon="10.516729">
        <time>2026-09-16T14:18:45.914000Z</time>
      </trkpt>
      <trkpt lat="52.273277" lon="10.516267">
        <time>2026-09-16T14:18:54.914000Z</time>
      </trkpt>
      <trkpt lat="52.27328" lon="10.51605">
        <time>2026-09-16T14:19:00.914000Z</time>
      </trkpt>
      <trkpt lat="52.273264" lon="10.515928">
        <time>2026-09-16T14:19:03.914000Z</time>
      </trkpt>
      <trkpt lat="52.273161" lon="10.515747">
        <time>2026-09-16T14:19:12.914000Z</time>
      </trkpt>
      <trkpt lat="52.27322" lon="10.51526">
        <time>2026-09-16T14:19:27.914000Z</time>
      </trkpt>
      <trkpt lat="52.273344" lon="10.514829">
        <time>2026-09-16T14:19:39.914000Z</time>
      </trkpt>
      <trkpt lat="52.273383" lon="10.514699">
        <time>2026-09-16T14:19:42.914000Z</time>
      </trkpt>
      <trkpt lat="52.273602" lon="10.514318">
        <time>2026-09-16T14:19:58.014000Z</time>
      </trkpt>
      <trkpt lat="52.273807" lon="10.514101">
        <time>2026-09-16T14:20:10.014000Z</time>
      </trkpt>
      <trkpt lat="52.274072" lon="10.514034">
        <time>2026-09-16T14:20:22.014000Z</time>
      </trkpt>
      <trkpt lat="52.274343" lon="10.51381">
        <time>2026-09-16T14:20:34.014000Z</time>
      </trkpt>
      <trkpt lat="52.27441" lon="10.513792">
        <time>2026-09-16T14:20:37.014000Z</time>
      </trkpt>
      <trkpt lat="52.274552" lon="10.51386">
        <time>2026-09-16T14:20:46.014000Z</time>
      </trkpt>
      <trkpt lat="52.274753" lon="10.51381">
        <time>2026-09-16T14:20:55.014000Z</time>
      </trkpt>
      <trkpt lat="52.275064" lon="10.513667">
        <time>2026-09-16T14:21:10.014000Z</time>
      </trkpt>
      <trkpt lat="52.275331" lon="10.513517">
        <time>2026-09-16T14:21:25.014000Z</time>
      </trkpt>
      <trkpt lat="52.275604" lon="10.513344">
        <time>2026-09-16T14:21:40.014000Z</time>
      </trkpt>
      <trkpt lat="52.275893" lon="10.513259">
        <time>2026-09-16T14:21:52.014000Z</time>
      </trkpt>
      <trkpt lat="52.276176" lon="10.513224">
        <time>2026-09-16T14:22:04.014000Z</time>
      </trkpt>
      <trkpt lat="52.276463" lon="10.51322">
        <time>2026-09-16T14:22:16.014000Z</time>
      </trkpt>
      <trkpt lat="52.276789" lon="10.513217">
        <time>2026-09-16T14:22:31.014000Z</time>
      </trkpt>
      <trkpt lat="52.277118" lon="10.513206">
        <time>2026-09-16T14:22:46.014000Z</time>
      </trkpt>
      <trkpt lat="52.277429" lon="10.51313">
        <time>2026-09-16T14:23:01.014000Z</time>
      </trkpt>
      <trkpt lat="52.27774" lon="10.513157">
        <time>2026-09-16T14:23:19.014000Z</time>
      </trkpt>
      <trkpt lat="52.278024" lon="10.513189">
        <time>2026-09-16T14:23:31.014000Z</time>
      </trkpt>
      <trkpt lat="52.278354" lon="10.513176">
        <time>2026-09-16T14:23:46.014000Z</time>
      </trkpt>
      <trkpt lat="52.27867" lon="10.513155">
        <time>2026-09-16T14:24:01.014000Z</time>
      </trkpt>
      <trkpt lat="52.278974" lon="10.513138">
        <time>2026-09-16T14:24:16.014000Z</time>
      </trkpt>
      <trkpt lat="52.27927" lon="10.513136">
        <time>2026-09-16T14:24:31.114000Z</time>
      </trkpt>
      <trkpt lat="52.279559" lon="10.513145">
        <time>2026-09-16T14:24:46.114000Z</time>
      </trkpt>
      <trkpt lat="52.279833" lon="10.513117">
        <time>2026-09-16T14:24:58.114000Z</time>
      </trkpt>
      <trkpt lat="52.280118" lon="10.513109">
        <time>2026-09-16T14:25:13.114000Z</time>
      </trkpt>
      <trkpt lat="52.280429" lon="10.513119">
        <time>2026-09-16T14:25:28.114000Z</time>
      </trkpt>
      <trkpt lat="52.280735" lon="10.513137">
        <time>2026-09-16T14:25:43.114000Z</time>
      </trkpt>
      <trkpt lat="52.28103" lon="10.513121">
        <time>2026-09-16T14:25:58.114000Z</time>
      </trkpt>
      <trkpt lat="52.281328" lon="10.513118">
        <time>2026-09-16T14:26:13.114000Z</time>
      </trkpt>
      <trkpt lat="52.281625" lon="10.513094">
        <time>2026-09-16T14:26:28.114000Z</time>
      </trkpt>
      <trkpt lat="52.281937" lon="10.513102">
        <time>2026-09-16T14:26:43.114000Z</time>
      </trkpt>
      <trkpt lat="52.282219" lon="10.513101">
        <time>2026-09-16T14:26:58.114000Z</time>
      </trkpt>
      <trkpt lat="52.28253" lon="10.513084">
        <time>2026-09-16T14:27:13.114000Z</time>
      </trkpt>
      <trkpt lat="52.282813" lon="10.513075">
        <time>2026-09-16T14:27:28.114000Z</time>
      </trkpt>
      <trkpt lat="52.283135" lon="10.513066">
        <time>2026-09-16T14:27:40.114000Z</time>
      </trkpt>
      <trkpt lat="52.283461" lon="10.513083">
        <time>2026-09-16T14:27:52.114000Z</time>
      </trkpt>
      <trkpt lat="52.283738" lon="10.513056">
        <time>2026-09-16T14:28:04.114000Z</time>
      </trkpt>
      <trkpt lat="52.284014" lon="10.513063">
        <time>2026-09-16T14:28:16.114000Z</time>
      </trkpt>
      <trkpt lat="52.28433" lon="10.513055">
        <time>2026-09-16T14:28:31.114000Z</time>
      </trkpt>
      <trkpt lat="52.284637" lon="10.51305">
        <time>2026-09-16T14:28:46.114000Z</time>
      </trkpt>
      <trkpt lat="52.284956" lon="10.51307">
        <time>2026-09-16T14:29:01.214000Z</time>
      </trkpt>
      <trkpt lat="52.285272" lon="10.513047">
        <time>2026-09-16T14:29:16.214000Z</time>
      </trkpt>
      <trkpt lat="52.285585" lon="10.513029">
        <time>2026-09-16T14:29:31.214000Z</time>
      </trkpt>
      <trkpt lat="52.285901" lon="10.513031">
        <time>2026-09-16T14:29:46.214000Z</time>
      </trkpt>
      <trkpt lat="52.286171" lon="10.513019">
        <time>2026-09-16T14:30:01.214000Z</time>
      </trkpt>
      <trkpt lat="52.286441" lon="10.513038">
        <time>2026-09-16T14:30:13.214000Z</time>
      </trkpt>
      <trkpt lat="52.286742" lon="10.513032">
        <time>2026-09-16T14:30:28.214000Z</time>
      </trkpt>
      <trkpt lat="52.287026" lon="10.513054">
        <time>2026-09-16T14:30:43.214000Z</time>
      </trkpt>
      <trkpt lat="52.287378" lon="10.513095">
        <time>2026-09-16T14:30:58.214000Z</time>
      </trkpt>
      <trkpt lat="52.287702" lon="10.513122">
        <time>2026-09-16T14:31:10.214000Z</time>
      </trkpt>
      <trkpt lat="52.287977" lon="10.513137">
        <time>2026-09-16T14:31:22.214000Z</time>
      </trkpt>
      <trkpt lat="52.288306" lon="10.513181">
        <time>2026-09-16T14:31:37.214000Z</time>
      </trkpt>
      <trkpt lat="52.288629" lon="10.513142">
        <time>2026-09-16T14:31:52.214000Z</time>
      </trkpt>
      <trkpt lat="52.288747" lon="10.513095">
        <time>2026-09-16T14:31:58.214000Z</time>
      </trkpt>
      <trkpt lat="52.288927" lon="10.512801">
        <time>2026-09-16T14:32:10.214000Z</time>
      </trkpt>
      <trkpt lat="52.288998" lon="10.512559">
        <time>2026-09-16T14:32:19.214000Z</time>
      </trkpt>
      <trkpt lat="52.289052" lon="10.51204">
        <time>2026-09-16T14:32:34.214000Z</time>
      </trkpt>
      <trkpt lat="52.289071" lon="10.511518">
        <time>2026-09-16T14:32:49.314000Z</time>
      </trkpt>
      <trkpt lat="52.289063" lon="10.511021">
        <time>2026-09-16T14:33:04.314000Z</time>
      </trkpt>
      <trkpt lat="52.289123" lon="10.510746">
        <time>2026-09-16T14:33:13.314000Z</time>
      </trkpt>
      <trkpt lat="52.28909" lon="10.510273">
        <time>2026-09-16T14:33:28.314000Z</time>
      </trkpt>
      <trkpt lat="52.28906" lon="10.509776">
        <time>2026-09-16T14:33:43.314000Z</time>
      </trkpt>
      <trkpt lat="52.289055" lon="10.509272">
        <time>2026-09-16T14:33:58.314000Z</time>
      </trkpt>
      <trkpt lat="52.28905" lon="10.508751">
        <time>2026-09-16T14:34:13.314000Z</time>
      </trkpt>
      <trkpt lat="52.28912" lon="10.508224">
        <time>2026-09-16T14:34:28.314000Z</time>
      </trkpt>
      <trkpt lat="52.289191" lon="10.507794">
        <time>2026-09-16T14:34:40.314000Z</time>
      </trkpt>
      <trkpt lat="52.289265" lon="10.507333">
        <time>2026-09-16T14:34:52.314000Z</time>
      </trkpt>
      <trkpt lat="52.28934" lon="10.506837">
        <time>2026-09-16T14:35:07.314000Z</time>
      </trkpt>
      <trkpt lat="52.289445" lon="10.506367">
        <time>2026-09-16T14:35:22.314000Z</time>
      </trkpt>
      <trkpt lat="52.289559" lon="10.505952">
        <time>2026-09-16T14:35:34.314000Z</time>
      </trkpt>
      <trkpt lat="52.289698" lon="10.505467">
        <time>2026-09-16T14:35:49.314000Z</time>
      </trkpt>
      <trkpt lat="52.289785" lon="10.505312">
        <time>2026-09-16T14:35:55.314000Z</time>
      </trkpt>
      <trkpt lat="52.290046" lon="10.505121">
        <time>2026-09-16T14:36:10.314000Z</time>
      </trkpt>
      <trkpt lat="52.290262" lon="10.50492">
        <time>2026-09-16T14:36:22.314000Z</time>
      </trkpt>
      <trkpt lat="52.290443" lon="10.504654">
        <time>2026-09-16T14:36:34.314000Z</time>
      </trkpt>
      <trkpt lat="52.290626" lon="10.504246">
        <time>2026-09-16T14:36:46.314000Z</time>
      </trkpt>
      <trkpt lat="52.290663" lon="10.504156">
        <time>2026-09-16T14:36:49.314000Z</time>
      </trkpt>
      <trkpt lat="52.290668" lon="10.50404">
        <time>2026-09-16T14:36:52.314000Z</time>
      </trkpt>
      <trkpt lat="52.29063" lon="10.503682">
        <time>2026-09-16T14:37:01.414000Z</time>
      </trkpt>
      <trkpt lat="52.290559" lon="10.503456">
        <time>2026-09-16T14:37:07.414000Z</time>
      </trkpt>
      <trkpt lat="52.290443" lon="10.50328">
        <time>2026-09-16T14:37:13.414000Z</time>
      </trkpt>
      <trkpt lat="52.290185" lon="10.503036">
        <time>2026-09-16T14:37:25.414000Z</time>
      </trkpt>
      <trkpt lat="52.289932" lon="10.502763">
        <time>2026-09-16T14:37:37.414000Z</time>
      </trkpt>
      <trkpt lat="52.28978" lon="10.50253">
        <time>2026-09-16T14:37:46.414000Z</time>
      </trkpt>
      <trkpt lat="52.289697" lon="10.502481">
        <time>2026-09-16T14:37:49.414000Z</time>
      </trkpt>
      <trkpt lat="52.289445" lon="10.502657">
        <time>2026-09-16T14:38:01.414000Z</time>
      </trkpt>
      <trkpt lat="52.289312" lon="10.5027">
        <time>2026-09-16T14:38:07.414000Z</time>
      </trkpt>
      <trkpt lat="52.289185" lon="10.502663">
        <time>2026-09-16T14:38:13.414000Z</time>
      </trkpt>
      <trkpt lat="52.289138" lon="10.502591">
        <time>2026-09-16T14:38:16.414000Z</time>
      </trkpt>
      <trkpt lat="52.289043" lon="10.502292">
        <time>2026-09-16T14:38:28.414000Z</time>
      </trkpt>
      <trkpt lat="52.289028" lon="10.502204">
        <time>2026-09-16T14:38:31.414000Z</time>
      </trkpt>
      <trkpt lat="52.288869" lon="10.50181">
        <time>2026-09-16T14:38:43.414000Z</time>
      </trkpt>
      <trkpt lat="52.288665" lon="10.501388">
        <time>2026-09-16T14:38:55.414000Z</time>
      </trkpt>
      <trkpt lat="52.288441" lon="10.501107">
        <time>2026-09-16T14:39:07.414000Z</time>
      </trkpt>
      <trkpt lat="52.288135" lon="10.500982">
        <time>2026-09-16T14:39:22.414000Z</time>
      </trkpt>
      <trkpt lat="52.28788" lon="10.500916">
        <time>2026-09-16T14:39:34.414000Z</time>
      </trkpt>
      <trkpt lat="52.28781889391763" lon="10.500938312547577">
        <time>2026-09-16T14:39:37.414000Z</time>
      </trkpt>
      <trkpt lat="52.287586" lon="10.50126">
        <time>2026-09-16T14:39:52.414000Z</time>
      </trkpt>
      <trkpt lat="52.287396" lon="10.501616">
        <time>2026-09-16T14:40:07.414000Z</time>
      </trkpt>
      <trkpt lat="52.287213" lon="10.50202">
        <time>2026-09-16T14:40:22.414000Z</time>
      </trkpt>
      <trkpt lat="52.287094" lon="10.502509">
        <time>2026-09-16T14:40:37.414000Z</time>
      </trkpt>
      <trkpt lat="52.287006" lon="10.502943">
        <time>2026-09-16T14:40:52.414000Z</time>
      </trkpt>
      <trkpt lat="52.286905" lon="10.503424">
        <time>2026-09-16T14:41:07.414000Z</time>
      </trkpt>
      <trkpt lat="52.286813" lon="10.503846">
        <time>2026-09-16T14:41:19.514000Z</time>
      </trkpt>
      <trkpt lat="52.28674" lon="10.504319">
        <time>2026-09-16T14:41:34.514000Z</time>
      </trkpt>
      <trkpt lat="52.286698" lon="10.504756">
        <time>2026-09-16T14:41:46.514000Z</time>
      </trkpt>
      <trkpt lat="52.286696" lon="10.505264">
        <time>2026-09-16T14:41:58.514000Z</time>
      </trkpt>
      <trkpt lat="52.286725" lon="10.505736">
        <time>2026-09-16T14:42:10.514000Z</time>
      </trkpt>
      <trkpt lat="52.286753" lon="10.506209">
        <time>2026-09-16T14:42:25.514000Z</time>
      </trkpt>
      <trkpt lat="52.286747" lon="10.506751">
        <time>2026-09-16T14:42:40.514000Z</time>
      </trkpt>
      <trkpt lat="52.286729" lon="10.507186">
        <time>2026-09-16T14:42:52.514000Z</time>
      </trkpt>
      <trkpt lat="52.286744" lon="10.507405">
        <time>2026-09-16T14:42:58.514000Z</time>
      </trkpt>
      <trkpt lat="52.286707" lon="10.507685">
        <time>2026-09-16T14:43:07.514000Z</time>
      </trkpt>
      <trkpt lat="52.286559" lon="10.508142">
        <time>2026-09-16T14:43:22.514000Z</time>
      </trkpt>
      <trkpt lat="52.286487" lon="10.508585">
        <time>2026-09-16T14:43:34.514000Z</time>
      </trkpt>
      <trkpt lat="52.286465" lon="10.508788">
        <time>2026-09-16T14:43:40.514000Z</time>
      </trkpt>
      <trkpt lat="52.286489" lon="10.509306">
        <time>2026-09-16T14:43:55.514000Z</time>
      </trkpt>
      <trkpt lat="52.286529" lon="10.509746">
        <time>2026-09-16T14:44:07.514000Z</time>
      </trkpt>
      <trkpt lat="52.286575" lon="10.510251">
        <time>2026-09-16T14:44:22.514000Z</time>
      </trkpt>
      <trkpt lat="52.286607" lon="10.51065">
        <time>2026-09-16T14:44:34.514000Z</time>
      </trkpt>
      <trkpt lat="52.286592" lon="10.510755">
        <time>2026-09-16T14:44:37.514000Z</time>
      </trkpt>
      <trkpt lat="52.286443" lon="10.511294">
        <time>2026-09-16T14:44:58.514000Z</time>
      </trkpt>
      <trkpt lat="52.286292" lon="10.511731">
        <time>2026-09-16T14:45:13.514000Z</time>
      </trkpt>
      <trkpt lat="52.286128" lon="10.512103">
        <time>2026-09-16T14:45:25.514000Z</time>
      </trkpt>
      <trkpt lat="52.285911" lon="10.51247">
        <time>2026-09-16T14:45:37.514000Z</time>
      </trkpt>
      <trkpt lat="52.285714" lon="10.512799">
        <time>2026-09-16T14:45:49.514000Z</time>
      </trkpt>
      <trkpt lat="52.285613" lon="10.512991">
        <time>2026-09-16T14:45:55.514000Z</time>
      </trkpt>
      <trkpt lat="52.285538" lon="10.513038">
        <time>2026-09-16T14:45:58.514000Z</time>
      </trkpt>
      <trkpt lat="52.285337" lon="10.512994">
        <time>2026-09-16T14:46:07.514000Z</time>
      </trkpt>
      <trkpt lat="52.285013" lon="10.513009">
        <time>2026-09-16T14:46:22.514000Z</time>
      </trkpt>
      <trkpt lat="52.284692" lon="10.513015">
        <time>2026-09-16T14:46:37.514000Z</time>
      </trkpt>
      <trkpt lat="52.28438" lon="10.513022">
        <time>2026-09-16T14:46:52.514000Z</time>
      </trkpt>
      <trkpt lat="52.284071" lon="10.51303">
        <time>2026-09-16T14:47:07.514000Z</time>
      </trkpt>
      <trkpt lat="52.28377" lon="10.51303">
        <time>2026-09-16T14:47:22.514000Z</time>
      </trkpt>
      <trkpt lat="52.283455" lon="10.513031">
        <time>2026-09-16T14:47:37.514000Z</time>
      </trkpt>
      <trkpt lat="52.283125" lon="10.513018">
        <time>2026-09-16T14:47:52.614000Z</time>
      </trkpt>
      <trkpt lat="52.282854" lon="10.513031">
        <time>2026-09-16T14:48:04.614000Z</time>
      </trkpt>
      <trkpt lat="52.282557" lon="10.513">
        <time>2026-09-16T14:48:19.614000Z</time>
      </trkpt>
      <trkpt lat="52.282262" lon="10.513025">
        <time>2026-09-16T14:48:31.614000Z</time>
      </trkpt>
      <trkpt lat="52.281988" lon="10.513056">
        <time>2026-09-16T14:48:43.614000Z</time>
      </trkpt>
      <trkpt lat="52.281676" lon="10.513043">
        <time>2026-09-16T14:48:58.614000Z</time>
      </trkpt>
      <trkpt lat="52.281547" lon="10.513024">
        <time>2026-09-16T14:49:04.614000Z</time>
      </trkpt>
      <trkpt lat="52.281277" lon="10.513098">
        <time>2026-09-16T14:49:16.614000Z</time>
      </trkpt>
      <trkpt lat="52.280964" lon="10.5131">
        <time>2026-09-16T14:49:31.614000Z</time>
      </trkpt>
      <trkpt lat="52.280654" lon="10.513121">
        <time>2026-09-16T14:49:46.614000Z</time>
      </trkpt>
      <trkpt lat="52.280338" lon="10.513123">
        <time>2026-09-16T14:50:01.614000Z</time>
      </trkpt>
      <trkpt lat="52.280013" lon="10.513122">
        <time>2026-09-16T14:50:16.614000Z</time>
      </trkpt>
      <trkpt lat="52.279687" lon="10.513152">
        <time>2026-09-16T14:50:34.614000Z</time>
      </trkpt>
      <trkpt lat="52.279414" lon="10.513175">
        <time>2026-09-16T14:50:46.614000Z</time>
      </trkpt>
      <trkpt lat="52.279267" lon="10.513173">
        <time>2026-09-16T14:50:52.614000Z</time>
      </trkpt>
      <trkpt lat="52.278973" lon="10.513167">
        <time>2026-09-16T14:51:04.614000Z</time>
      </trkpt>
      <trkpt lat="52.278693" lon="10.513149">
        <time>2026-09-16T14:51:16.614000Z</time>
      </trkpt>
      <trkpt lat="52.278386" lon="10.513144">
        <time>2026-09-16T14:51:28.614000Z</time>
      </trkpt>
      <trkpt lat="52.27809" lon="10.51314">
        <time>2026-09-16T14:51:40.614000Z</time>
      </trkpt>
      <trkpt lat="52.277799" lon="10.513137">
        <time>2026-09-16T14:51:52.614000Z</time>
      </trkpt>
      <trkpt lat="52.277681" lon="10.513161">
        <time>2026-09-16T14:51:58.614000Z</time>
      </trkpt>
      <trkpt lat="52.277345" lon="10.513125">
        <time>2026-09-16T14:52:16.614000Z</time>
      </trkpt>
      <trkpt lat="52.277015" lon="10.513146">
        <time>2026-09-16T14:52:31.614000Z</time>
      </trkpt>
      <trkpt lat="52.276693" lon="10.513144">
        <time>2026-09-16T14:52:46.614000Z</time>
      </trkpt>
      <trkpt lat="52.276372" lon="10.513162">
        <time>2026-09-16T14:53:01.614000Z</time>
      </trkpt>
      <trkpt lat="52.276088" lon="10.513209">
        <time>2026-09-16T14:53:13.614000Z</time>
      </trkpt>
      <trkpt lat="52.275792" lon="10.513222">
        <time>2026-09-16T14:53:28.614000Z</time>
      </trkpt>
      <trkpt lat="52.275505" lon="10.513342">
        <time>2026-09-16T14:53:43.614000Z</time>
      </trkpt>
      <trkpt lat="52.275199" lon="10.51348">
        <time>2026-09-16T14:53:58.714000Z</time>
      </trkpt>
      <trkpt lat="52.27491" lon="10.513642">
        <time>2026-09-16T14:54:10.614000Z</time>
      </trkpt>
      <trkpt lat="52.274657" lon="10.51378">
        <time>2026-09-16T14:54:22.714000Z</time>
      </trkpt>
      <trkpt lat="52.274416" lon="10.513692">
        <time>2026-09-16T14:54:34.714000Z</time>
      </trkpt>
      <trkpt lat="52.274126" lon="10.513849">
        <time>2026-09-16T14:54:49.714000Z</time>
      </trkpt>
      <trkpt lat="52.27386" lon="10.51395">
        <time>2026-09-16T14:55:04.714000Z</time>
      </trkpt>
      <trkpt lat="52.273589" lon="10.514243">
        <time>2026-09-16T14:55:19.714000Z</time>
      </trkpt>
      <trkpt lat="52.273351" lon="10.514588">
        <time>2026-09-16T14:55:34.714000Z</time>
      </trkpt>
      <trkpt lat="52.273314" lon="10.514677">
        <time>2026-09-16T14:55:37.714000Z</time>
      </trkpt>
      <trkpt lat="52.273212" lon="10.51509">
        <time>2026-09-16T14:55:52.714000Z</time>
      </trkpt>
      <trkpt lat="52.273171" lon="10.51526">
        <time>2026-09-16T14:55:58.714000Z</time>
      </trkpt>
      <trkpt lat="52.273161" lon="10.515527">
        <time>2026-09-16T14:56:07.714000Z</time>
      </trkpt>
      <trkpt lat="52.273213" lon="10.515737">
        <time>2026-09-16T14:56:13.714000Z</time>
      </trkpt>
      <trkpt lat="52.27319" lon="10.516184">
        <time>2026-09-16T14:56:25.714000Z</time>
      </trkpt>
      <trkpt lat="52.273163" lon="10.516527">
        <time>2026-09-16T14:56:34.714000Z</time>
      </trkpt>
      <trkpt lat="52.273139" lon="10.517014">
        <time>2026-09-16T14:56:49.714000Z</time>
      </trkpt>
      <trkpt lat="52.273142" lon="10.517494">
        <time>2026-09-16T14:57:04.714000Z</time>
      </trkpt>
      <trkpt lat="52.273115" lon="10.51804">
        <time>2026-09-16T14:57:16.714000Z</time>
      </trkpt>
      <trkpt lat="52.27311" lon="10.518495">
        <time>2026-09-16T14:57:31.714000Z</time>
      </trkpt>
      <trkpt lat="52.273092" lon="10.518719">
        <time>2026-09-16T14:57:37.714000Z</time>
      </trkpt>
      <trkpt lat="52.273131" lon="10.518988">
        <time>2026-09-16T14:57:46.714000Z</time>
      </trkpt>
      <trkpt lat="52.273209" lon="10.519306">
        <time>2026-09-16T14:57:55.714000Z</time>
      </trkpt>
      <trkpt lat="52.273194" lon="10.51941">
        <time>2026-09-16T14:57:58.714000Z</time>
      </trkpt>
      <trkpt lat="52.273018" lon="10.519837">
        <time>2026-09-16T14:58:13.714000Z</time>
      </trkpt>
      <trkpt lat="52.272846" lon="10.520219">
        <time>2026-09-16T14:58:28.714000Z</time>
      </trkpt>
      <trkpt lat="52.272677" lon="10.520652">
        <time>2026-09-16T14:58:43.814000Z</time>
      </trkpt>
      <trkpt lat="52.272536" lon="10.521032">
        <time>2026-09-16T14:58:55.814000Z</time>
      </trkpt>
      <trkpt lat="52.27239" lon="10.521504">
        <time>2026-09-16T14:59:10.814000Z</time>
      </trkpt>
      <trkpt lat="52.272245" lon="10.521852">
        <time>2026-09-16T14:59:22.814000Z</time>
      </trkpt>
      <trkpt lat="52.27214" lon="10.522154">
        <time>2026-09-16T14:59:31.814000Z</time>
      </trkpt>
      <trkpt lat="52.272091" lon="10.52223">
        <time>2026-09-16T14:59:34.814000Z</time>
      </trkpt>
      <trkpt lat="52.272024" lon="10.522271">
        <time>2026-09-16T14:59:37.814000Z</time>
      </trkpt>
      <trkpt lat="52.271811" lon="10.522294">
        <time>2026-09-16T14:59:46.814000Z</time>
      </trkpt>
      <trkpt lat="52.271744" lon="10.522278">
        <time>2026-09-16T14:59:49.814000Z</time>
      </trkpt>
      <trkpt lat="52.271555" lon="10.521985">
        <time>2026-09-16T15:00:01.814000Z</time>
      </trkpt>
      <trkpt lat="52.2715" lon="10.521941">
        <time>2026-09-16T15:00:04.814000Z</time>
      </trkpt>
      <trkpt lat="52.271271" lon="10.522239">
        <time>2026-09-16T15:00:19.814000Z</time>
      </trkpt>
      <trkpt lat="52.271114" lon="10.522371">
        <time>2026-09-16T15:00:25.814000Z</time>
      </trkpt>
      <trkpt lat="52.270886" lon="10.522447">
        <time>2026-09-16T15:00:34.814000Z</time>
      </trkpt>
      <trkpt lat="52.270684" lon="10.522582">
        <time>2026-09-16T15:00:43.814000Z</time>
      </trkpt>
      <trkpt lat="52.270525" lon="10.52276">
        <time>2026-09-16T15:00:52.814000Z</time>
      </trkpt>
      <trkpt lat="52.270275" lon="10.522936">
        <time>2026-09-16T15:01:04.814000Z</time>
      </trkpt>
      <trkpt lat="52.27015" lon="10.523017">
        <time>2026-09-16T15:01:10.814000Z</time>
      </trkpt>
      <trkpt lat="52.27015" lon="10.523017">
        <time>2026-09-16T15:01:16.714000Z</time>
      </trkpt>
    </trkseg>
  </trk>
</gpx>