<?xml version="1.0" encoding="UTF-8"?>
<gpx xmlns="http://www.topografix.com/GPX/1/1" xmlns:gpxtpx="http://www.garmin.com/xmlschemas/TrackPointExtension/v1" xmlns:xsi="http://www.w3.org/2001/XMLSchema-instance" xsi:schemaLocation="http://www.topografix.com/GPX/1/1 http://www.topografix.com/GPX/1/1/gpx.xsd" version="1.1" creator="gpx.py -- https://github.com/tkrajina/gpxpy">
  <trk>
    <name>gpx from keep</name>
    <type>Run</type>
    <trkseg>
      <trkpt lat="52.268853" lon="10.522193">
        <time>2026-07-29T05:34:01.841000Z</time>
      </trkpt>
      <trkpt lat="52.269895" lon="10.522778">
        <time>2026-07-29T05:34:16.741000Z</time>
      </trkpt>
      <trkpt lat="52.2701" lon="10.522989">
        <time>2026-07-29T05:34:28.741000Z</time>
      </trkpt>
      <trkpt lat="52.270207" lon="10.523002">
        <time>2026-07-29T05:34:31.741000Z</time>
      </trkpt>
      <trkpt lat="52.270345" lon="10.522898">
        <time>2026-07-29T05:34:37.841000Z</time>
      </trkpt>
      <trkpt lat="52.270396" lon="10.522778">
        <time>2026-07-29T05:34:40.841000Z</time>
      </trkpt>
      <trkpt lat="52.270471" lon="10.52269">
        <time>2026-07-29T05:34:43.841000Z</time>
      </trkpt>
      <trkpt lat="52.270519" lon="10.522594">
        <time>2026-07-29T05:34:46.841000Z</time>
      </trkpt>
      <trkpt lat="52.270798" lon="10.52244">
        <time>2026-07-29T05:35:01.841000Z</time>
      </trkpt>
      <trkpt lat="52.271039" lon="10.522416">
        <time>2026-07-29T05:35:10.841000Z</time>
      </trkpt>
      <trkpt lat="52.271184" lon="10.522337">
        <time>2026-07-29T05:35:16.841000Z</time>
      </trkpt>
      <trkpt lat="52.271421" lon="10.522054">
        <time>2026-07-29T05:35:31.841000Z</time>
      </trkpt>
      <trkpt lat="52.271474" lon="10.522003">
        <time>2026-07-29T05:35:34.841000Z</time>
      </trkpt>
      <trkpt lat="52.271578" lon="10.522097">
        <time>2026-07-29T05:35:40.841000Z</time>
      </trkpt>
      <trkpt lat="52.271685" lon="10.522138">
        <time>2026-07-29T05:35:46.841000Z</time>
      </trkpt>
      <trkpt lat="52.271824" lon="10.522308">
        <time>2026-07-29T05:35:55.841000Z</time>
      </trkpt>
      <trkpt lat="52.271937" lon="10.522312">
        <time>2026-07-29T05:36:01.841000Z</time>
      </trkpt>
      <trkpt lat="52.272004" lon="10.522289">
        <time>2026-07-29T05:36:04.841000Z</time>
      </trkpt>
      <trkpt lat="52.272058" lon="10.52223">
        <time>2026-07-29T05:36:07.841000Z</time>
      </trkpt>
      <trkpt lat="52.272223" lon="10.5219">
        <time>2026-07-29T05:36:19.841000Z</time>
      </trkpt>
      <trkpt lat="52.272267" lon="10.521781">
        <time>2026-07-29T05:36:22.841000Z</time>
      </trkpt>
      <trkpt lat="52.27237" lon="10.521596">
        <time>2026-07-29T05:36:28.841000Z</time>
      </trkpt>
      <trkpt lat="52.272509" lon="10.521195">
        <time>2026-07-29T05:36:40.841000Z</time>
      </trkpt>
      <trkpt lat="52.272679" lon="10.520785">
        <time>2026-07-29T05:36:52.841000Z</time>
      </trkpt>
      <trkpt lat="52.272843" lon="10.520399">
        <time>2026-07-29T05:37:04.841000Z</time>
      </trkpt>
      <trkpt lat="52.272957" lon="10.51993">
        <time>2026-07-29T05:37:19.841000Z</time>
      </trkpt>
      <trkpt lat="52.273122" lon="10.519478">
        <time>2026-07-29T05:37:37.841000Z</time>
      </trkpt>
      <trkpt lat="52.273156" lon="10.519392">
        <time>2026-07-29T05:37:40.841000Z</time>
      </trkpt>
      <trkpt lat="52.273095" lon="10.51912">
        <time>2026-07-29T05:37:49.841000Z</time>
      </trkpt>
      <trkpt lat="52.273033" lon="10.518952">
        <time>2026-07-29T05:37:55.841000Z</time>
      </trkpt>
      <trkpt lat="52.273008" lon="10.518823">
        <time>2026-07-29T05:37:58.841000Z</time>
      </trkpt>
      <trkpt lat="52.273041" lon="10.518319">
        <time>2026-07-29T05:38:13.841000Z</time>
      </trkpt>
      <trkpt lat="52.273099" lon="10.517885">
        <time>2026-07-29T05:38:25.841000Z</time>
      </trkpt>
      <trkpt lat="52.273167" lon="10.517399">
        <time>2026-07-29T05:38:40.841000Z</time>
      </trkpt>
      <trkpt lat="52.273228" lon="10.517071">
        <time>2026-07-29T05:38:49.841000Z</time>
      </trkpt>
      <trkpt lat="52.273271" lon="10.51663">
        <time>2026-07-29T05:39:01.841000Z</time>
      </trkpt>
      <trkpt lat="52.273317" lon="10.516177">
        <time>2026-07-29T05:39:13.841000Z</time>
      </trkpt>
      <trkpt lat="52.273314" lon="10.515964">
        <time>2026-07-29T05:39:19.841000Z</time>
      </trkpt>
      <trkpt lat="52.273283" lon="10.515858">
        <time>2026-07-29T05:39:22.841000Z</time>
      </trkpt>
      <trkpt lat="52.273216" lon="10.515773">
        <time>2026-07-29T05:39:25.841000Z</time>
      </trkpt>
      <trkpt lat="52.273199" lon="10.515691">
        <time>2026-07-29T05:39:28.841000Z</time>
      </trkpt>
      <trkpt lat="52.273212" lon="10.515385">
        <time>2026-07-29T05:39:37.841000Z</time>
      </trkpt>
      <trkpt lat="52.273273" lon="10.515081">
        <time>2026-07-29T05:39:46.841000Z</time>
      </trkpt>
      <trkpt lat="52.273362" lon="10.514825">
        <time>2026-07-29T05:39:55.841000Z</time>
      </trkpt>
      <trkpt lat="52.273455" lon="10.514667">
        <time>2026-07-29T05:40:01.841000Z</time>
      </trkpt>
      <trkpt lat="52.2735" lon="10.514545">
        <time>2026-07-29T05:40:04.841000Z</time>
      </trkpt>
      <trkpt lat="52.273743" lon="10.51419">
        <time>2026-07-29T05:40:19.941000Z</time>
      </trkpt>
      <trkpt lat="52.273863" lon="10.514088">
        <time>2026-07-29T05:40:25.941000Z</time>
      </trkpt>
      <trkpt lat="52.273985" lon="10.514085">
        <time>2026-07-29T05:40:31.941000Z</time>
      </trkpt>
      <trkpt lat="52.274262" lon="10.513824">
        <time>2026-07-29T05:40:46.941000Z</time>
      </trkpt>
      <trkpt lat="52.274374" lon="10.513785">
        <time>2026-07-29T05:40:52.941000Z</time>
      </trkpt>
      <trkpt lat="52.274527" lon="10.513869">
        <time>2026-07-29T05:41:01.941000Z</time>
      </trkpt>
      <trkpt lat="52.274648" lon="10.513853">
        <time>2026-07-29T05:41:07.941000Z</time>
      </trkpt>
      <trkpt lat="52.274956" lon="10.513698">
        <time>2026-07-29T05:41:22.941000Z</time>
      </trkpt>
      <trkpt lat="52.275234" lon="10.513538">
        <time>2026-07-29T05:41:37.941000Z</time>
      </trkpt>
      <trkpt lat="52.27553" lon="10.513367">
        <time>2026-07-29T05:41:52.941000Z</time>
      </trkpt>
      <trkpt lat="52.275635" lon="10.513299">
        <time>2026-07-29T05:41:58.941000Z</time>
      </trkpt>
      <trkpt lat="52.275904" lon="10.513265">
        <time>2026-07-29T05:42:10.941000Z</time>
      </trkpt>
      <trkpt lat="52.276234" lon="10.513227">
        <time>2026-07-29T05:42:25.941000Z</time>
      </trkpt>
      <trkpt lat="52.27654" lon="10.513228">
        <time>2026-07-29T05:42:40.941000Z</time>
      </trkpt>
      <trkpt lat="52.276874" lon="10.513231">
        <time>2026-07-29T05:42:55.941000Z</time>
      </trkpt>
      <trkpt lat="52.277192" lon="10.51321">
        <time>2026-07-29T05:43:10.941000Z</time>
      </trkpt>
      <trkpt lat="52.277493" lon="10.513174">
        <time>2026-07-29T05:43:25.941000Z</time>
      </trkpt>
      <trkpt lat="52.277747" lon="10.513156">
        <time>2026-07-29T05:43:40.941000Z</time>
      </trkpt>
      <trkpt lat="52.278065" lon="10.513157">
        <time>2026-07-29T05:43:55.941000Z</time>
      </trkpt>
      <trkpt lat="52.278374" lon="10.513136">
        <time>2026-07-29T05:44:13.941000Z</time>
      </trkpt>
      <trkpt lat="52.278426" lon="10.513135">
        <time>2026-07-29T05:44:16.941000Z</time>
      </trkpt>
      <trkpt lat="52.278695" lon="10.513181">
        <time>2026-07-29T05:44:31.941000Z</time>
      </trkpt>
      <trkpt lat="52.278753" lon="10.513201">
        <time>2026-07-29T05:44:34.941000Z</time>
      </trkpt>
      <trkpt lat="52.278875" lon="10.513175">
        <time>2026-07-29T05:44:40.941000Z</time>
      </trkpt>
      <trkpt lat="52.279192" lon="10.513218">
        <time>2026-07-29T05:44:55.941000Z</time>
      </trkpt>
      <trkpt lat="52.279333" lon="10.513222">
        <time>2026-07-29T05:45:02.041000Z</time>
      </trkpt>
      <trkpt lat="52.279605" lon="10.513175">
        <time>2026-07-29T05:45:14.041000Z</time>
      </trkpt>
      <trkpt lat="52.279777" lon="10.513151">
        <time>2026-07-29T05:45:23.041000Z</time>
      </trkpt>
      <trkpt lat="52.280082" lon="10.513162">
        <time>2026-07-29T05:45:38.041000Z</time>
      </trkpt>
      <trkpt lat="52.280393" lon="10.513148">
        <time>2026-07-29T05:45:53.041000Z</time>
      </trkpt>
      <trkpt lat="52.280682" lon="10.513146">
        <time>2026-07-29T05:46:05.041000Z</time>
      </trkpt>
      <trkpt lat="52.280957" lon="10.513126">
        <time>2026-07-29T05:46:17.041000Z</time>
      </trkpt>
      <trkpt lat="52.28124" lon="10.513121">
        <time>2026-07-29T05:46:29.041000Z</time>
      </trkpt>
      <trkpt lat="52.281522" lon="10.513114">
        <time>2026-07-29T05:46:41.041000Z</time>
      </trkpt>
      <trkpt lat="52.281715" lon="10.51315">
        <time>2026-07-29T05:46:50.041000Z</time>
      </trkpt>
      <trkpt lat="52.281995" lon="10.513114">
        <time>2026-07-29T05:47:05.041000Z</time>
      </trkpt>
      <trkpt lat="52.282286" lon="10.513104">
        <time>2026-07-29T05:47:20.041000Z</time>
      </trkpt>
      <trkpt lat="52.282592" lon="10.513108">
        <time>2026-07-29T05:47:35.041000Z</time>
      </trkpt>
      <trkpt lat="52.282871" lon="10.513104">
        <time>2026-07-29T05:47:50.041000Z</time>
      </trkpt>
      <trkpt lat="52.283182" lon="10.513081">
        <time>2026-07-29T05:48:05.041000Z</time>
      </trkpt>
      <trkpt lat="52.283484" lon="10.513091">
        <time>2026-07-29T05:48:20.041000Z</time>
      </trkpt>
      <trkpt lat="52.283781" lon="10.5131">
        <time>2026-07-29T05:48:35.041000Z</time>
      </trkpt>
      <trkpt lat="52.284061" lon="10.51309">
        <time>2026-07-29T05:48:47.041000Z</time>
      </trkpt>
      <trkpt lat="52.284336" lon="10.513079">
        <time>2026-07-29T05:48:59.041000Z</time>
      </trkpt>
      <trkpt lat="52.284644" lon="10.513073">
        <time>2026-07-29T05:49:14.041000Z</time>
      </trkpt>
      <trkpt lat="52.284982" lon="10.513076">
        <time>2026-07-29T05:49:29.041000Z</time>
      </trkpt>
      <trkpt lat="52.285324" lon="10.513049">
        <time>2026-07-29T05:49:44.041000Z</time>
      </trkpt>
      <trkpt lat="52.285603" lon="10.513035">
        <time>2026-07-29T05:49:56.141000Z</time>
      </trkpt>
      <trkpt lat="52.285933" lon="10.513016">
        <time>2026-07-29T05:50:11.141000Z</time>
      </trkpt>
      <trkpt lat="52.286241" lon="10.513044">
        <time>2026-07-29T05:50:29.141000Z</time>
      </trkpt>
      <trkpt lat="52.286561" lon="10.513036">
        <time>2026-07-29T05:50:44.141000Z</time>
      </trkpt>
      <trkpt lat="52.286742" lon="10.513011">
        <time>2026-07-29T05:50:53.141000Z</time>
      </trkpt>
      <trkpt lat="52.287016" lon="10.513081">
        <time>2026-07-29T05:51:08.141000Z</time>
      </trkpt>
      <trkpt lat="52.287363" lon="10.513098">
        <time>2026-07-29T05:51:23.141000Z</time>
      </trkpt>
      <trkpt lat="52.287696" lon="10.513115">
        <time>2026-07-29T05:51:38.141000Z</time>
      </trkpt>
      <trkpt lat="52.288021" lon="10.513139">
        <time>2026-07-29T05:51:53.141000Z</time>
      </trkpt>
      <trkpt lat="52.28835" lon="10.513172">
        <time>2026-07-29T05:52:08.141000Z</time>
      </trkpt>
      <trkpt lat="52.288609" lon="10.513141">
        <time>2026-07-29T05:52:20.141000Z</time>
      </trkpt>
      <trkpt lat="52.288724" lon="10.51307">
        <time>2026-07-29T05:52:26.141000Z</time>
      </trkpt>
      <trkpt lat="52.288876" lon="10.513023">
        <time>2026-07-29T05:52:35.141000Z</time>
      </trkpt>
      <trkpt lat="52.288916" lon="10.512972">
        <time>2026-07-29T05:52:38.141000Z</time>
      </trkpt>
      <trkpt lat="52.288935" lon="10.512814">
        <time>2026-07-29T05:52:44.141000Z</time>
      </trkpt>
      <trkpt lat="52.289025" lon="10.512354">
        <time>2026-07-29T05:52:56.141000Z</time>
      </trkpt>
      <trkpt lat="52.289049" lon="10.511914">
        <time>2026-07-29T05:53:08.141000Z</time>
      </trkpt>
      <trkpt lat="52.289063" lon="10.511371">
        <time>2026-07-29T05:53:23.241000Z</time>
      </trkpt>
      <trkpt lat="52.289047" lon="10.51098">
        <time>2026-07-29T05:53:35.241000Z</time>
      </trkpt>
      <trkpt lat="52.289115" lon="10.510664">
        <time>2026-07-29T05:53:47.241000Z</time>
      </trkpt>
      <trkpt lat="52.289085" lon="10.510185">
        <time>2026-07-29T05:54:02.241000Z</time>
      </trkpt>
      <trkpt lat="52.289055" lon="10.509674">
        <time>2026-07-29T05:54:17.241000Z</time>
      </trkpt>
      <trkpt lat="52.289035" lon="10.509141">
        <time>2026-07-29T05:54:32.241000Z</time>
      </trkpt>
      <trkpt lat="52.289029" lon="10.508741">
        <time>2026-07-29T05:54:44.241000Z</time>
      </trkpt>
      <trkpt lat="52.289096" lon="10.508259">
        <time>2026-07-29T05:54:59.241000Z</time>
      </trkpt>
      <trkpt lat="52.289185" lon="10.507765">
        <time>2026-07-29T05:55:14.241000Z</time>
      </trkpt>
      <trkpt lat="52.289267" lon="10.507256">
        <time>2026-07-29T05:55:29.241000Z</time>
      </trkpt>
      <trkpt lat="52.289365" lon="10.506753">
        <time>2026-07-29T05:55:44.241000Z</time>
      </trkpt>
      <trkpt lat="52.289468" lon="10.506326">
        <time>2026-07-29T05:55:56.241000Z</time>
      </trkpt>
      <trkpt lat="52.289598" lon="10.505846">
        <time>2026-07-29T05:56:11.241000Z</time>
      </trkpt>
      <trkpt lat="52.28971" lon="10.505399">
        <time>2026-07-29T05:56:26.241000Z</time>
      </trkpt>
      <trkpt lat="52.289855" lon="10.505235">
        <time>2026-07-29T05:56:35.341000Z</time>
      </trkpt>
      <trkpt lat="52.290122" lon="10.505052">
        <time>2026-07-29T05:56:50.341000Z</time>
      </trkpt>
      <trkpt lat="52.290209" lon="10.50499">
        <time>2026-07-29T05:56:56.341000Z</time>
      </trkpt>
      <trkpt lat="52.290427" lon="10.504622">
        <time>2026-07-29T05:57:14.341000Z</time>
      </trkpt>
      <trkpt lat="52.290607" lon="10.504246">
        <time>2026-07-29T05:57:29.341000Z</time>
      </trkpt>
      <trkpt lat="52.290634" lon="10.504159">
        <time>2026-07-29T05:57:32.341000Z</time>
      </trkpt>
      <trkpt lat="52.290637" lon="10.503672">
        <time>2026-07-29T05:57:47.341000Z</time>
      </trkpt>
      <trkpt lat="52.290468" lon="10.503313">
        <time>2026-07-29T05:58:02.341000Z</time>
      </trkpt>
      <trkpt lat="52.290204" lon="10.503023">
        <time>2026-07-29T05:58:20.341000Z</time>
      </trkpt>
      <trkpt lat="52.289945" lon="10.502759">
        <time>2026-07-29T05:58:35.341000Z</time>
      </trkpt>
      <trkpt lat="52.289816" lon="10.50257">
        <time>2026-07-29T05:58:44.341000Z</time>
      </trkpt>
      <trkpt lat="52.289765" lon="10.502532">
        <time>2026-07-29T05:58:47.341000Z</time>
      </trkpt>
      <trkpt lat="52.289708" lon="10.502528">
        <time>2026-07-29T05:58:50.341000Z</time>
      </trkpt>
      <trkpt lat="52.289397" lon="10.502678">
        <time>2026-07-29T05:59:05.341000Z</time>
      </trkpt>
      <trkpt lat="52.289236" lon="10.502702">
        <time>2026-07-29T05:59:11.341000Z</time>
      </trkpt>
      <trkpt lat="52.289171" lon="10.502665">
        <time>2026-07-29T05:59:14.341000Z</time>
      </trkpt>
      <trkpt lat="52.289026" lon="10.502257">
        <time>2026-07-29T05:59:29.341000Z</time>
      </trkpt>
      <trkpt lat="52.288864" lon="10.501792">
        <time>2026-07-29T05:59:44.341000Z</time>
      </trkpt>
      <trkpt lat="52.288688" lon="10.501451">
        <time>2026-07-29T05:59:56.441000Z</time>
      </trkpt>
      <trkpt lat="52.288469" lon="10.501127">
        <time>2026-07-29T06:00:08.441000Z</time>
      </trkpt>
      <trkpt lat="52.288302" lon="10.501023">
        <time>2026-07-29T06:00:14.441000Z</time>
      </trkpt>
      <trkpt lat="52.287978" lon="10.500933">
        <time>2026-07-29T06:00:26.441000Z</time>
      </trkpt>
      <trkpt lat="52.287898" lon="10.500912">
        <time>2026-07-29T06:00:29.441000Z</time>
      </trkpt>
      <trkpt lat="52.287773" lon="10.501015">
        <time>2026-07-29T06:00:35.441000Z</time>
      </trkpt>
      <trkpt lat="52.287545" lon="10.50134">
        <time>2026-07-29T06:00:47.441000Z</time>
      </trkpt>
      <trkpt lat="52.287437" lon="10.501509">
        <time>2026-07-29T06:00:53.441000Z</time>
      </trkpt>
      <trkpt lat="52.287289" lon="10.501889">
        <time>2026-07-29T06:01:05.441000Z</time>
      </trkpt>
      <trkpt lat="52.287146" lon="10.502316">
        <time>2026-07-29T06:01:20.441000Z</time>
      </trkpt>
      <trkpt lat="52.287047" lon="10.50281">
        <time>2026-07-29T06:01:35.441000Z</time>
      </trkpt>
      <trkpt lat="52.286947" lon="10.503249">
        <time>2026-07-29T06:01:50.441000Z</time>
      </trkpt>
      <trkpt lat="52.286857" lon="10.503665">
        <time>2026-07-29T06:02:05.441000Z</time>
      </trkpt>
      <trkpt lat="52.286813" lon="10.503799">
        <time>2026-07-29T06:02:11.441000Z</time>
      </trkpt>
      <trkpt lat="52.286724" lon="10.504288">
        <time>2026-07-29T06:02:26.441000Z</time>
      </trkpt>
      <trkpt lat="52.286695" lon="10.504732">
        <time>2026-07-29T06:02:38.441000Z</time>
      </trkpt>
      <trkpt lat="52.286726" lon="10.505228">
        <time>2026-07-29T06:02:50.441000Z</time>
      </trkpt>
      <trkpt lat="52.286752" lon="10.505694">
        <time>2026-07-29T06:03:05.441000Z</time>
      </trkpt>
      <trkpt lat="52.286763" lon="10.506164">
        <time>2026-07-29T06:03:17.541000Z</time>
      </trkpt>
      <trkpt lat="52.286767" lon="10.506635">
        <time>2026-07-29T06:03:29.541000Z</time>
      </trkpt>
      <trkpt lat="52.286742" lon="10.507163">
        <time>2026-07-29T06:03:44.541000Z</time>
      </trkpt>
      <trkpt lat="52.286756" lon="10.507507">
        <time>2026-07-29T06:03:53.541000Z</time>
      </trkpt>
      <trkpt lat="52.286726" lon="10.507728">
        <time>2026-07-29T06:03:59.541000Z</time>
      </trkpt>
      <trkpt lat="52.286565" lon="10.508182">
        <time>2026-07-29T06:04:17.541000Z</time>
      </trkpt>
      <trkpt lat="52.286476" lon="10.508579">
        <time>2026-07-29T06:04:29.541000Z</time>
      </trkpt>
      <trkpt lat="52.286505" lon="10.509066">
        <time>2026-07-29T06:04:41.541000Z</time>
      </trkpt>
      <trkpt lat="52.286555" lon="10.509596">
        <time>2026-07-29T06:04:56.541000Z</time>
      </trkpt>
      <trkpt lat="52.28661" lon="10.510146">
        <time>2026-07-29T06:05:11.541000Z</time>
      </trkpt>
      <trkpt lat="52.286645" lon="10.510492">
        <time>2026-07-29T06:05:20.541000Z</time>
      </trkpt>
      <trkpt lat="52.28663" lon="10.510714">
        <time>2026-07-29T06:05:26.541000Z</time>
      </trkpt>
      <trkpt lat="52.286516" lon="10.511169">
        <time>2026-07-29T06:05:41.541000Z</time>
      </trkpt>
      <trkpt lat="52.286471" lon="10.511302">
        <time>2026-07-29T06:05:47.541000Z</time>
      </trkpt>
      <trkpt lat="52.286302" lon="10.511773">
        <time>2026-07-29T06:06:05.541000Z</time>
      </trkpt>
      <trkpt lat="52.286187" lon="10.512048">
        <time>2026-07-29T06:06:14.541000Z</time>
      </trkpt>
      <trkpt lat="52.285986" lon="10.512365">
        <time>2026-07-29T06:06:26.541000Z</time>
      </trkpt>
      <trkpt lat="52.285778" lon="10.512723">
        <time>2026-07-29T06:06:38.641000Z</time>
      </trkpt>
      <trkpt lat="52.285642" lon="10.512963">
        <time>2026-07-29T06:06:47.641000Z</time>
      </trkpt>
      <trkpt lat="52.285466" lon="10.513014">
        <time>2026-07-29T06:06:56.641000Z</time>
      </trkpt>
      <trkpt lat="52.285153" lon="10.513001">
        <time>2026-07-29T06:07:11.641000Z</time>
      </trkpt>
      <trkpt lat="52.284824" lon="10.513017">
        <time>2026-07-29T06:07:26.641000Z</time>
      </trkpt>
      <trkpt lat="52.284498" lon="10.513023">
        <time>2026-07-29T06:07:41.641000Z</time>
      </trkpt>
      <trkpt lat="52.284186" lon="10.513029">
        <time>2026-07-29T06:07:56.641000Z</time>
      </trkpt>
      <trkpt lat="52.283879" lon="10.513038">
        <time>2026-07-29T06:08:11.641000Z</time>
      </trkpt>
      <trkpt lat="52.283563" lon="10.513031">
        <time>2026-07-29T06:08:26.641000Z</time>
      </trkpt>
      <trkpt lat="52.283285" lon="10.513047">
        <time>2026-07-29T06:08:38.641000Z</time>
      </trkpt>
      <trkpt lat="52.283014" lon="10.513047">
        <time>2026-07-29T06:08:50.641000Z</time>
      </trkpt>
      <trkpt lat="52.282738" lon="10.513061">
        <time>2026-07-29T06:09:02.641000Z</time>
      </trkpt>
      <trkpt lat="52.282425" lon="10.513075">
        <time>2026-07-29T06:09:17.641000Z</time>
      </trkpt>
      <trkpt lat="52.282129" lon="10.513082">
        <time>2026-07-29T06:09:32.641000Z</time>
      </trkpt>
      <trkpt lat="52.281856" lon="10.513079">
        <time>2026-07-29T06:09:44.641000Z</time>
      </trkpt>
      <trkpt lat="52.281535" lon="10.513075">
        <time>2026-07-29T06:09:59.641000Z</time>
      </trkpt>
      <trkpt lat="52.281407" lon="10.513074">
        <time>2026-07-29T06:10:05.641000Z</time>
      </trkpt>
      <trkpt lat="52.281086" lon="10.51311">
        <time>2026-07-29T06:10:20.641000Z</time>
      </trkpt>
      <trkpt lat="52.280772" lon="10.513095">
        <time>2026-07-29T06:10:35.641000Z</time>
      </trkpt>
      <trkpt lat="52.280436" lon="10.513096">
        <time>2026-07-29T06:10:50.641000Z</time>
      </trkpt>
      <trkpt lat="52.280164" lon="10.513139">
        <time>2026-07-29T06:11:02.741000Z</time>
      </trkpt>
      <trkpt lat="52.279887" lon="10.513126">
        <time>2026-07-29T06:11:14.741000Z</time>
      </trkpt>
      <trkpt lat="52.279558" lon="10.513152">
        <time>2026-07-29T06:11:29.741000Z</time>
      </trkpt>
      <trkpt lat="52.279252" lon="10.513151">
        <time>2026-07-29T06:11:44.741000Z</time>
      </trkpt>
      <trkpt lat="52.278971" lon="10.513134">
        <time>2026-07-29T06:11:56.741000Z</time>
      </trkpt>
      <trkpt lat="52.278696" lon="10.513164">
        <time>2026-07-29T06:12:08.741000Z</time>
      </trkpt>
      <trkpt lat="52.278411" lon="10.513188">
        <time>2026-07-29T06:12:20.741000Z</time>
      </trkpt>
      <trkpt lat="52.278127" lon="10.513167">
        <time>2026-07-29T06:12:32.741000Z</time>
      </trkpt>
      <trkpt lat="52.27781" lon="10.513168">
        <time>2026-07-29T06:12:47.741000Z</time>
      </trkpt>
      <trkpt lat="52.277502" lon="10.513183">
        <time>2026-07-29T06:13:02.741000Z</time>
      </trkpt>
      <trkpt lat="52.277198" lon="10.513177">
        <time>2026-07-29T06:13:17.741000Z</time>
      </trkpt>
      <trkpt lat="52.276874" lon="10.513164">
        <time>2026-07-29T06:13:32.741000Z</time>
      </trkpt>
      <trkpt lat="52.276551" lon="10.513184">
        <time>2026-07-29T06:13:47.741000Z</time>
      </trkpt>
      <trkpt lat="52.27622" lon="10.5132">
        <time>2026-07-29T06:14:02.741000Z</time>
      </trkpt>
      <trkpt lat="52.275893" lon="10.513211">
        <time>2026-07-29T06:14:17.741000Z</time>
      </trkpt>
      <trkpt lat="52.275757" lon="10.513246">
        <time>2026-07-29T06:14:23.741000Z</time>
      </trkpt>
      <trkpt lat="52.275452" lon="10.513406">
        <time>2026-07-29T06:14:38.741000Z</time>
      </trkpt>
      <trkpt lat="52.275147" lon="10.513573">
        <time>2026-07-29T06:14:56.741000Z</time>
      </trkpt>
      <trkpt lat="52.274868" lon="10.513704">
        <time>2026-07-29T06:15:11.741000Z</time>
      </trkpt>
      <trkpt lat="52.274668" lon="10.513799">
        <time>2026-07-29T06:15:23.741000Z</time>
      </trkpt>
      <trkpt lat="52.274448" lon="10.513717">
        <time>2026-07-29T06:15:35.741000Z</time>
      </trkpt>
      <trkpt lat="52.274153" lon="10.513851">
        <time>2026-07-29T06:15:50.741000Z</time>
      </trkpt>
      <trkpt lat="52.273865" lon="10.513963">
        <time>2026-07-29T06:16:05.741000Z</time>
      </trkpt>
      <trkpt lat="52.273624" lon="10.514201">
        <time>2026-07-29T06:16:17.741000Z</time>
      </trkpt>
      <trkpt lat="52.273396" lon="10.514507">
        <time>2026-07-29T06:16:32.741000Z</time>
      </trkpt>
      <trkpt lat="52.273268" lon="10.514922">
        <time>2026-07-29T06:16:44.741000Z</time>
      </trkpt>
      <trkpt lat="52.273172" lon="10.515234">
        <time>2026-07-29T06:16:53.741000Z</time>
      </trkpt>
      <trkpt lat="52.273162" lon="10.515429">
        <time>2026-07-29T06:16:59.741000Z</time>
      </trkpt>
      <trkpt lat="52.273127" lon="10.515581">
        <time>2026-07-29T06:17:05.741000Z</time>
      </trkpt>
      <trkpt lat="52.273133" lon="10.51566">
        <time>2026-07-29T06:17:08.741000Z</time>
      </trkpt>
      <trkpt lat="52.273212" lon="10.515764">
        <time>2026-07-29T06:17:14.741000Z</time>
      </trkpt>
      <trkpt lat="52.273222" lon="10.515863">
        <time>2026-07-29T06:17:17.741000Z</time>
      </trkpt>
      <trkpt lat="52.273195" lon="10.516076">
        <time>2026-07-29T06:17:26.741000Z</time>
      </trkpt>
      <trkpt lat="52.273181" lon="10.516572">
        <time>2026-07-29T06:17:41.741000Z</time>
      </trkpt>
      <trkpt lat="52.273157" lon="10.517052">
        <time>2026-07-29T06:17:56.741000Z</time>
      </trkpt>
      <trkpt lat="52.273121" lon="10.517435">
        <time>2026-07-29T06:18:05.741000Z</time>
      </trkpt>
      <trkpt lat="52.273135" lon="10.517918">
        <time>2026-07-29T06:18:20.741000Z</time>
      </trkpt>
      <trkpt lat="52.273106" lon="10.518402">
        <time>2026-07-29T06:18:35.741000Z</time>
      </trkpt>
      <trkpt lat="52.273081" lon="10.518744">
        <time>2026-07-29T06:18:44.741000Z</time>
      </trkpt>
      <trkpt lat="52.273204" lon="10.519076">
        <time>2026-07-29T06:18:56.741000Z</time>
      </trkpt>
      <trkpt lat="52.273261" lon="10.519333">
        <time>2026-07-29T06:19:05.741000Z</time>
      </trkpt>
      <trkpt lat="52.27308" lon="10.519678">
        <time>2026-07-29T06:19:17.741000Z</time>
      </trkpt>
      <trkpt lat="52.27293" lon="10.520063">
        <time>2026-07-29T06:19:29.741000Z</time>
      </trkpt>
      <trkpt lat="52.272781" lon="10.520456">
        <time>2026-07-29T06:19:41.841000Z</time>
      </trkpt>
      <trkpt lat="52.272635" lon="10.520847">
        <time>2026-07-29T06:19:53.841000Z</time>
      </trkpt>
      <trkpt lat="52.272478" lon="10.521232">
        <time>2026-07-29T06:20:05.841000Z</time>
      </trkpt>
      <trkpt lat="52.27233" lon="10.52164">
        <time>2026-07-29T06:20:20.841000Z</time>
      </trkpt>
      <trkpt lat="52.272157" lon="10.522101">
        <time>2026-07-29T06:20:35.841000Z</time>
      </trkpt>
      <trkpt lat="52.272082" lon="10.522255">
        <time>2026-07-29T06:20:41.841000Z</time>
      </trkpt>
      <trkpt lat="52.272029" lon="10.522312">
        <time>2026-07-29T06:20:44.841000Z</time>
      </trkpt>
      <trkpt lat="52.271843" lon="10.522357">
        <time>2026-07-29T06:20:53.841000Z</time>
      </trkpt>
      <trkpt lat="52.271755" lon="10.522265">
        <time>2026-07-29T06:20:59.841000Z</time>
      </trkpt>
      <trkpt lat="52.271701" lon="10.522238">
        <time>2026-07-29T06:21:02.841000Z</time>
      </trkpt>
      <trkpt lat="52.271582" lon="10.522036">
        <time>2026-07-29T06:21:11.841000Z</time>
      </trkpt>
      <trkpt lat="52.271525" lon="10.521989">
        <time>2026-07-29T06:21:14.841000Z</time>
      </trkpt>
      <trkpt lat="52.27128" lon="10.522291">
        <time>2026-07-29T06:21:29.841000Z</time>
      </trkpt>
      <trkpt lat="52.271171" lon="10.522372">
        <time>2026-07-29T06:21:35.841000Z</time>
      </trkpt>
      <trkpt lat="52.270979" lon="10.522419">
        <time>2026-07-29T06:21:44.841000Z</time>
      </trkpt>
      <trkpt lat="52.27081" lon="10.522518">
        <time>2026-07-29T06:21:50.841000Z</time>
      </trkpt>
      <trkpt lat="52.270517" lon="10.522775">
        <time>2026-07-29T06:22:02.841000Z</time>
      </trkpt>
      <trkpt lat="52.270255" lon="10.522991">
        <time>2026-07-29T06:22:14.841000Z</time>
      </trkpt>
      <trkpt lat="52.270045" lon="10.523091">
        <time>2026-07-29T06:22:23.841000Z</time>
      </trkpt>
      <trkpt lat="52.26998" lon="10.52307">
        <time>2026-07-29T06:22:26.841000Z</time>
      </trkpt>
      <trkpt lat="52.269936" lon="10.523019">
        <time>2026-07-29T06:22:32.841000Z</time>
      </trkpt>
      <trkpt lat="52.269936" lon="10.523019">
        <time>2026-07-29T06:22:38.641000Z</time>
      </trkpt>
    </trkseg>
  </trk>
</gpx>