<?xml version="1.0" encoding="UTF-8"?>
<gpx xmlns="http://www.topografix.com/GPX/1/1" xmlns:gpxtpx="http://www.garmin.com/xmlschemas/TrackPointExtension/v1" xmlns:xsi="http://www.w3.org/2001/XMLSchema-instance" xsi:schemaLocation="http://www.topografix.com/GPX/1/1 http://www.topografix.com/GPX/1/1/gpx.xsd" version="1.1" creator="gpx.py -- https://github.com/tkrajina/gpxpy">
  <trk>
    <name>gpx from keep</name>
    <type>Run</type>
    <trkseg>
      <trkpt lat="52.269872" lon="10.522936">
        <time>2026-09-06T08:37:32.200000Z</time>
      </trkpt>
      <trkpt lat="52.270019" lon="10.522978">
        <time>2026-09-06T08:37:32.300000Z</time>
      </trkpt>
      <trkpt lat="52.270146" lon="10.522959">
        <time>2026-09-06T08:37:32.400000Z</time>
      </trkpt>
      <trkpt lat="52.270292" lon="10.522805">
        <time>2026-09-06T08:37:32.400000Z</time>
      </trkpt>
      <trkpt lat="52.270349" lon="10.522695">
        <time>2026-09-06T08:37:32.500000Z</time>
      </trkpt>
      <trkpt lat="52.270411" lon="10.522619">
        <time>2026-09-06T08:37:32.500000Z</time>
      </trkpt>
      <trkpt lat="52.270729" lon="10.522487">
        <time>2026-09-06T08:37:32.600000Z</time>
      </trkpt>
      <trkpt lat="52.270901" lon="10.522388">
        <time>2026-09-06T08:37:32.700000Z</time>
      </trkpt>
      <trkpt lat="52.271172" lon="10.522333">
        <time>2026-09-06T08:37:32.800000Z</time>
      </trkpt>
      <trkpt lat="52.271403" lon="10.522101">
        <time>2026-09-06T08:37:32.900000Z</time>
      </trkpt>
      <trkpt lat="52.271477" lon="10.521973">
        <time>2026-09-06T08:37:33Z</time>
      </trkpt>
      <trkpt lat="52.271555" lon="10.521974">
        <time>2026-09-06T08:37:33Z</time>
      </trkpt>
      <trkpt lat="52.271712" lon="10.52221">
        <time>2026-09-06T08:37:33.100000Z</time>
      </trkpt>
      <trkpt lat="52.271777" lon="10.522271">
        <time>2026-09-06T08:37:33.200000Z</time>
      </trkpt>
      <trkpt lat="52.271857" lon="10.522286">
        <time>2026-09-06T08:37:33.200000Z</time>
      </trkpt>
      <trkpt lat="52.272007" lon="10.522246">
        <time>2026-09-06T08:37:33.300000Z</time>
      </trkpt>
      <trkpt lat="52.27222" lon="10.521949">
        <time>2026-09-06T08:37:33.400000Z</time>
      </trkpt>
      <trkpt lat="52.272381" lon="10.521581">
        <time>2026-09-06T08:37:33.500000Z</time>
      </trkpt>
      <trkpt lat="52.272438" lon="10.521396">
        <time>2026-09-06T08:37:33.600000Z</time>
      </trkpt>
      <trkpt lat="52.272531" lon="10.521221">
        <time>2026-09-06T08:37:33.600000Z</time>
      </trkpt>
      <trkpt lat="52.272662" lon="10.52083">
        <time>2026-09-06T08:37:33.700000Z</time>
      </trkpt>
      <trkpt lat="52.272811" lon="10.520352">
        <time>2026-09-06T08:37:33.900000Z</time>
      </trkpt>
      <trkpt lat="52.272946" lon="10.520048">
        <time>2026-09-06T08:37:34Z</time>
      </trkpt>
      <trkpt lat="52.27307" lon="10.519638">
        <time>2026-09-06T08:37:34.100000Z</time>
      </trkpt>
      <trkpt lat="52.273058" lon="10.519526">
        <time>2026-09-06T08:37:34.100000Z</time>
      </trkpt>
      <trkpt lat="52.273144" lon="10.519367">
        <time>2026-09-06T08:37:34.200000Z</time>
      </trkpt>
      <trkpt lat="52.273141" lon="10.519285">
        <time>2026-09-06T08:37:34.200000Z</time>
      </trkpt>
      <trkpt lat="52.2730914569975" lon="10.519191630750646">
        <time>2026-09-06T08:37:34.200000Z</time>
      </trkpt>
      <trkpt lat="52.27307" lon="10.5191">
        <time>2026-09-06T08:37:34.300000Z</time>
      </trkpt>
      <trkpt lat="52.273075" lon="10.519012">
        <time>2026-09-06T08:37:34.300000Z</time>
      </trkpt>
      <trkpt lat="52.27306" lon="10.518819">
        <time>2026-09-06T08:37:34.400000Z</time>
      </trkpt>
      <trkpt lat="52.273132" lon="10.518437">
        <time>2026-09-06T08:37:34.500000Z</time>
      </trkpt>
      <trkpt lat="52.273177" lon="10.518002">
        <time>2026-09-06T08:37:34.600000Z</time>
      </trkpt>
      <trkpt lat="52.273202" lon="10.517881">
        <time>2026-09-06T08:37:34.600000Z</time>
      </trkpt>
      <trkpt lat="52.273193" lon="10.517774">
        <time>2026-09-06T08:37:34.700000Z</time>
      </trkpt>
      <trkpt lat="52.273267" lon="10.517244">
        <time>2026-09-06T08:37:34.800000Z</time>
      </trkpt>
      <trkpt lat="52.273299" lon="10.51673">
        <time>2026-09-06T08:37:35Z</time>
      </trkpt>
      <trkpt lat="52.273319" lon="10.516168">
        <time>2026-09-06T08:37:35.100000Z</time>
      </trkpt>
      <trkpt lat="52.27334" lon="10.516051">
        <time>2026-09-06T08:37:35.100000Z</time>
      </trkpt>
      <trkpt lat="52.27334" lon="10.515931">
        <time>2026-09-06T08:37:35.200000Z</time>
      </trkpt>
      <trkpt lat="52.273313" lon="10.515818">
        <time>2026-09-06T08:37:35.200000Z</time>
      </trkpt>
      <trkpt lat="52.273275" lon="10.515745">
        <time>2026-09-06T08:37:35.200000Z</time>
      </trkpt>
      <trkpt lat="52.2732" lon="10.515686">
        <time>2026-09-06T08:37:35.300000Z</time>
      </trkpt>
      <trkpt lat="52.273153" lon="10.515612">
        <time>2026-09-06T08:37:35.300000Z</time>
      </trkpt>
      <trkpt lat="52.273234" lon="10.515348">
        <time>2026-09-06T08:37:35.400000Z</time>
      </trkpt>
      <trkpt lat="52.273269" lon="10.515029">
        <time>2026-09-06T08:37:35.500000Z</time>
      </trkpt>
      <trkpt lat="52.273461" lon="10.514564">
        <time>2026-09-06T08:37:35.700000Z</time>
      </trkpt>
      <trkpt lat="52.273593" lon="10.514267">
        <time>2026-09-06T08:37:35.700000Z</time>
      </trkpt>
      <trkpt lat="52.273694" lon="10.514112">
        <time>2026-09-06T08:37:35.800000Z</time>
      </trkpt>
      <trkpt lat="52.273987" lon="10.513914">
        <time>2026-09-06T08:37:36Z</time>
      </trkpt>
      <trkpt lat="52.274301" lon="10.513718">
        <time>2026-09-06T08:37:36.100000Z</time>
      </trkpt>
      <trkpt lat="52.274365" lon="10.513682">
        <time>2026-09-06T08:37:36.100000Z</time>
      </trkpt>
      <trkpt lat="52.27456" lon="10.513775">
        <time>2026-09-06T08:37:36.200000Z</time>
      </trkpt>
      <trkpt lat="52.274604" lon="10.51382">
        <time>2026-09-06T08:37:36.200000Z</time>
      </trkpt>
      <trkpt lat="52.274883" lon="10.513681">
        <time>2026-09-06T08:37:36.400000Z</time>
      </trkpt>
      <trkpt lat="52.275196" lon="10.513532">
        <time>2026-09-06T08:37:36.500000Z</time>
      </trkpt>
      <trkpt lat="52.275503" lon="10.513367">
        <time>2026-09-06T08:37:36.700000Z</time>
      </trkpt>
      <trkpt lat="52.275796" lon="10.513244">
        <time>2026-09-06T08:37:36.800000Z</time>
      </trkpt>
      <trkpt lat="52.276105" lon="10.513217">
        <time>2026-09-06T08:37:37Z</time>
      </trkpt>
      <trkpt lat="52.276436" lon="10.513199">
        <time>2026-09-06T08:37:37.100000Z</time>
      </trkpt>
      <trkpt lat="52.276764" lon="10.513193">
        <time>2026-09-06T08:37:37.300000Z</time>
      </trkpt>
      <trkpt lat="52.277035" lon="10.513196">
        <time>2026-09-06T08:37:37.400000Z</time>
      </trkpt>
      <trkpt lat="52.277362" lon="10.513191">
        <time>2026-09-06T08:37:37.500000Z</time>
      </trkpt>
      <trkpt lat="52.277693" lon="10.513181">
        <time>2026-09-06T08:37:37.700000Z</time>
      </trkpt>
      <trkpt lat="52.277895" lon="10.513177">
        <time>2026-09-06T08:37:37.800000Z</time>
      </trkpt>
      <trkpt lat="52.277963" lon="10.513205">
        <time>2026-09-06T08:37:37.800000Z</time>
      </trkpt>
      <trkpt lat="52.278139" lon="10.513169">
        <time>2026-09-06T08:37:37.900000Z</time>
      </trkpt>
      <trkpt lat="52.278334" lon="10.513095">
        <time>2026-09-06T08:37:38Z</time>
      </trkpt>
      <trkpt lat="52.278652" lon="10.513088">
        <time>2026-09-06T08:37:38.100000Z</time>
      </trkpt>
      <trkpt lat="52.278977" lon="10.513051">
        <time>2026-09-06T08:37:38.300000Z</time>
      </trkpt>
      <trkpt lat="52.279303" lon="10.513011">
        <time>2026-09-06T08:37:38.400000Z</time>
      </trkpt>
      <trkpt lat="52.279431" lon="10.513016">
        <time>2026-09-06T08:37:38.500000Z</time>
      </trkpt>
      <trkpt lat="52.279569" lon="10.512984">
        <time>2026-09-06T08:37:38.600000Z</time>
      </trkpt>
      <trkpt lat="52.279791" lon="10.513067">
        <time>2026-09-06T08:37:38.700000Z</time>
      </trkpt>
      <trkpt lat="52.28007" lon="10.513073">
        <time>2026-09-06T08:37:38.800000Z</time>
      </trkpt>
      <trkpt lat="52.280341" lon="10.51307">
        <time>2026-09-06T08:37:38.900000Z</time>
      </trkpt>
      <trkpt lat="52.280622" lon="10.513081">
        <time>2026-09-06T08:37:39Z</time>
      </trkpt>
      <trkpt lat="52.280899" lon="10.513082">
        <time>2026-09-06T08:37:39.100000Z</time>
      </trkpt>
      <trkpt lat="52.281242" lon="10.51309">
        <time>2026-09-06T08:37:39.300000Z</time>
      </trkpt>
      <trkpt lat="52.281449" lon="10.513047">
        <time>2026-09-06T08:37:39.400000Z</time>
      </trkpt>
      <trkpt lat="52.281725" lon="10.513091">
        <time>2026-09-06T08:37:39.500000Z</time>
      </trkpt>
      <trkpt lat="52.281999" lon="10.513075">
        <time>2026-09-06T08:37:39.600000Z</time>
      </trkpt>
      <trkpt lat="52.28233" lon="10.513091">
        <time>2026-09-06T08:37:39.800000Z</time>
      </trkpt>
      <trkpt lat="52.282645" lon="10.513087">
        <time>2026-09-06T08:37:39.900000Z</time>
      </trkpt>
      <trkpt lat="52.282918" lon="10.51309">
        <time>2026-09-06T08:37:40.100000Z</time>
      </trkpt>
      <trkpt lat="52.283218" lon="10.513085">
        <time>2026-09-06T08:37:40.200000Z</time>
      </trkpt>
      <trkpt lat="52.283515" lon="10.513075">
        <time>2026-09-06T08:37:40.300000Z</time>
      </trkpt>
      <trkpt lat="52.2838" lon="10.513068">
        <time>2026-09-06T08:37:40.400000Z</time>
      </trkpt>
      <trkpt lat="52.284074" lon="10.513062">
        <time>2026-09-06T08:37:40.500000Z</time>
      </trkpt>
      <trkpt lat="52.284358" lon="10.513055">
        <time>2026-09-06T08:37:40.700000Z</time>
      </trkpt>
      <trkpt lat="52.284628" lon="10.513038">
        <time>2026-09-06T08:37:40.800000Z</time>
      </trkpt>
      <trkpt lat="52.284902" lon="10.513075">
        <time>2026-09-06T08:37:40.900000Z</time>
      </trkpt>
      <trkpt lat="52.285183" lon="10.513071">
        <time>2026-09-06T08:37:41Z</time>
      </trkpt>
      <trkpt lat="52.285466" lon="10.513021">
        <time>2026-09-06T08:37:41.100000Z</time>
      </trkpt>
      <trkpt lat="52.285742" lon="10.513049">
        <time>2026-09-06T08:37:41.300000Z</time>
      </trkpt>
      <trkpt lat="52.286014" lon="10.513026">
        <time>2026-09-06T08:37:41.400000Z</time>
      </trkpt>
      <trkpt lat="52.286156" lon="10.513028">
        <time>2026-09-06T08:37:41.400000Z</time>
      </trkpt>
      <trkpt lat="52.286226" lon="10.513061">
        <time>2026-09-06T08:37:41.500000Z</time>
      </trkpt>
      <trkpt lat="52.286497" lon="10.513083">
        <time>2026-09-06T08:37:41.600000Z</time>
      </trkpt>
      <trkpt lat="52.28678" lon="10.51303">
        <time>2026-09-06T08:37:41.700000Z</time>
      </trkpt>
      <trkpt lat="52.286989" lon="10.513071">
        <time>2026-09-06T08:37:41.800000Z</time>
      </trkpt>
      <trkpt lat="52.287051" lon="10.51311">
        <time>2026-09-06T08:37:41.800000Z</time>
      </trkpt>
      <trkpt lat="52.287329" lon="10.513095">
        <time>2026-09-06T08:37:42Z</time>
      </trkpt>
      <trkpt lat="52.287661" lon="10.513117">
        <time>2026-09-06T08:37:42.100000Z</time>
      </trkpt>
      <trkpt lat="52.287996" lon="10.513157">
        <time>2026-09-06T08:37:42.300000Z</time>
      </trkpt>
      <trkpt lat="52.288274" lon="10.513184">
        <time>2026-09-06T08:37:42.400000Z</time>
      </trkpt>
      <trkpt lat="52.288549" lon="10.513174">
        <time>2026-09-06T08:37:42.500000Z</time>
      </trkpt>
      <trkpt lat="52.288746" lon="10.513107">
        <time>2026-09-06T08:37:42.600000Z</time>
      </trkpt>
      <trkpt lat="52.288854" lon="10.512951">
        <time>2026-09-06T08:37:42.700000Z</time>
      </trkpt>
      <trkpt lat="52.288917" lon="10.512901">
        <time>2026-09-06T08:37:42.700000Z</time>
      </trkpt>
      <trkpt lat="52.288966" lon="10.512823">
        <time>2026-09-06T08:37:42.700000Z</time>
      </trkpt>
      <trkpt lat="52.289052" lon="10.512421">
        <time>2026-09-06T08:37:42.800000Z</time>
      </trkpt>
      <trkpt lat="52.289107" lon="10.511887">
        <time>2026-09-06T08:37:43Z</time>
      </trkpt>
      <trkpt lat="52.289125" lon="10.511407">
        <time>2026-09-06T08:37:43.100000Z</time>
      </trkpt>
      <trkpt lat="52.289093" lon="10.511038">
        <time>2026-09-06T08:37:43.200000Z</time>
      </trkpt>
      <trkpt lat="52.28913" lon="10.51063">
        <time>2026-09-06T08:37:43.300000Z</time>
      </trkpt>
      <trkpt lat="52.289099" lon="10.510123">
        <time>2026-09-06T08:37:43.500000Z</time>
      </trkpt>
      <trkpt lat="52.289074" lon="10.509595">
        <time>2026-09-06T08:37:43.600000Z</time>
      </trkpt>
      <trkpt lat="52.289061" lon="10.50907">
        <time>2026-09-06T08:37:43.800000Z</time>
      </trkpt>
      <trkpt lat="52.28906" lon="10.508653">
        <time>2026-09-06T08:37:43.900000Z</time>
      </trkpt>
      <trkpt lat="52.289118" lon="10.508128">
        <time>2026-09-06T08:37:44Z</time>
      </trkpt>
      <trkpt lat="52.289203" lon="10.507631">
        <time>2026-09-06T08:37:44.200000Z</time>
      </trkpt>
      <trkpt lat="52.289282" lon="10.507148">
        <time>2026-09-06T08:37:44.300000Z</time>
      </trkpt>
      <trkpt lat="52.289388" lon="10.506642">
        <time>2026-09-06T08:37:44.500000Z</time>
      </trkpt>
      <trkpt lat="52.289485" lon="10.506229">
        <time>2026-09-06T08:37:44.600000Z</time>
      </trkpt>
      <trkpt lat="52.289587" lon="10.505792">
        <time>2026-09-06T08:37:44.700000Z</time>
      </trkpt>
      <trkpt lat="52.289607" lon="10.505681">
        <time>2026-09-06T08:37:44.800000Z</time>
      </trkpt>
      <trkpt lat="52.289794" lon="10.505335">
        <time>2026-09-06T08:37:44.900000Z</time>
      </trkpt>
      <trkpt lat="52.290045" lon="10.505121">
        <time>2026-09-06T08:37:45Z</time>
      </trkpt>
      <trkpt lat="52.29022" lon="10.50495">
        <time>2026-09-06T08:37:45.100000Z</time>
      </trkpt>
      <trkpt lat="52.29042" lon="10.504628">
        <time>2026-09-06T08:37:45.200000Z</time>
      </trkpt>
      <trkpt lat="52.290616" lon="10.504283">
        <time>2026-09-06T08:37:45.300000Z</time>
      </trkpt>
      <trkpt lat="52.290662" lon="10.504147">
        <time>2026-09-06T08:37:45.400000Z</time>
      </trkpt>
      <trkpt lat="52.290654" lon="10.503944">
        <time>2026-09-06T08:37:45.400000Z</time>
      </trkpt>
      <trkpt lat="52.290664" lon="10.503824">
        <time>2026-09-06T08:37:45.400000Z</time>
      </trkpt>
      <trkpt lat="52.290638" lon="10.503546">
        <time>2026-09-06T08:37:45.500000Z</time>
      </trkpt>
      <trkpt lat="52.290515" lon="10.503271">
        <time>2026-09-06T08:37:45.600000Z</time>
      </trkpt>
      <trkpt lat="52.290257" lon="10.503008">
        <time>2026-09-06T08:37:45.700000Z</time>
      </trkpt>
      <trkpt lat="52.290089" lon="10.502856">
        <time>2026-09-06T08:37:45.800000Z</time>
      </trkpt>
      <trkpt lat="52.289821" lon="10.50252">
        <time>2026-09-06T08:37:46Z</time>
      </trkpt>
      <trkpt lat="52.289747" lon="10.502488">
        <time>2026-09-06T08:37:46Z</time>
      </trkpt>
      <trkpt lat="52.289481" lon="10.502579">
        <time>2026-09-06T08:37:46.100000Z</time>
      </trkpt>
      <trkpt lat="52.289266" lon="10.502601">
        <time>2026-09-06T08:37:46.200000Z</time>
      </trkpt>
      <trkpt lat="52.289204" lon="10.502567">
        <time>2026-09-06T08:37:46.300000Z</time>
      </trkpt>
      <trkpt lat="52.289025" lon="10.502132">
        <time>2026-09-06T08:37:46.400000Z</time>
      </trkpt>
      <trkpt lat="52.288864" lon="10.501724">
        <time>2026-09-06T08:37:46.500000Z</time>
      </trkpt>
      <trkpt lat="52.288657" lon="10.501356">
        <time>2026-09-06T08:37:46.600000Z</time>
      </trkpt>
      <trkpt lat="52.288556" lon="10.501196">
        <time>2026-09-06T08:37:46.700000Z</time>
      </trkpt>
      <trkpt lat="52.288373" lon="10.501024">
        <time>2026-09-06T09:01:56.400000Z</time>
      </trkpt>
      <trkpt lat="52.288053" lon="10.500902">
        <time>2026-09-06T09:02:11.400000Z</time>
      </trkpt>
      <trkpt lat="52.287851" lon="10.500872">
        <time>2026-09-06T09:02:20.400000Z</time>
      </trkpt>
      <trkpt lat="52.287626" lon="10.501127">
        <time>2026-09-06T09:02:32.500000Z</time>
      </trkpt>
      <trkpt lat="52.287436" lon="10.501414">
        <time>2026-09-06T09:02:44.500000Z</time>
      </trkpt>
      <trkpt lat="52.287241" lon="10.501854">
        <time>2026-09-06T09:02:59.500000Z</time>
      </trkpt>
      <trkpt lat="52.2871" lon="10.502318">
        <time>2026-09-06T09:03:14.500000Z</time>
      </trkpt>
      <trkpt lat="52.286976" lon="10.502837">
        <time>2026-09-06T09:03:29.500000Z</time>
      </trkpt>
      <trkpt lat="52.286872" lon="10.503259">
        <time>2026-09-06T09:03:41.500000Z</time>
      </trkpt>
      <trkpt lat="52.28678" lon="10.503759">
        <time>2026-09-06T09:03:56.500000Z</time>
      </trkpt>
      <trkpt lat="52.286697" lon="10.504246">
        <time>2026-09-06T09:04:11.500000Z</time>
      </trkpt>
      <trkpt lat="52.286641" lon="10.504689">
        <time>2026-09-06T09:04:23.500000Z</time>
      </trkpt>
      <trkpt lat="52.286624" lon="10.50515">
        <time>2026-09-06T09:04:35.500000Z</time>
      </trkpt>
      <trkpt lat="52.286624" lon="10.50564">
        <time>2026-09-06T09:04:50.500000Z</time>
      </trkpt>
      <trkpt lat="52.286648" lon="10.506083">
        <time>2026-09-06T09:05:02.500000Z</time>
      </trkpt>
      <trkpt lat="52.286663" lon="10.506533">
        <time>2026-09-06T09:05:14.500000Z</time>
      </trkpt>
      <trkpt lat="52.286673" lon="10.506996">
        <time>2026-09-06T09:05:26.500000Z</time>
      </trkpt>
      <trkpt lat="52.286685" lon="10.50754">
        <time>2026-09-06T09:05:41.500000Z</time>
      </trkpt>
      <trkpt lat="52.286562" lon="10.507996">
        <time>2026-09-06T09:05:56.500000Z</time>
      </trkpt>
      <trkpt lat="52.286455" lon="10.508278">
        <time>2026-09-06T09:06:05.500000Z</time>
      </trkpt>
      <trkpt lat="52.28642" lon="10.508594">
        <time>2026-09-06T09:06:14.500000Z</time>
      </trkpt>
      <trkpt lat="52.286431" lon="10.509018">
        <time>2026-09-06T09:06:26.500000Z</time>
      </trkpt>
      <trkpt lat="52.286503" lon="10.509446">
        <time>2026-09-06T09:06:38.600000Z</time>
      </trkpt>
      <trkpt lat="52.286545" lon="10.509903">
        <time>2026-09-06T09:06:50.600000Z</time>
      </trkpt>
      <trkpt lat="52.28659" lon="10.510363">
        <time>2026-09-06T09:07:02.600000Z</time>
      </trkpt>
      <trkpt lat="52.28662" lon="10.510789">
        <time>2026-09-06T09:07:14.600000Z</time>
      </trkpt>
      <trkpt lat="52.286666" lon="10.510998">
        <time>2026-09-06T09:07:20.600000Z</time>
      </trkpt>
      <trkpt lat="52.286745" lon="10.511274">
        <time>2026-09-06T09:07:29.600000Z</time>
      </trkpt>
      <trkpt lat="52.286919" lon="10.511654">
        <time>2026-09-06T09:07:41.600000Z</time>
      </trkpt>
      <trkpt lat="52.287109" lon="10.512063">
        <time>2026-09-06T09:07:56.600000Z</time>
      </trkpt>
      <trkpt lat="52.287262" lon="10.51234">
        <time>2026-09-06T09:08:08.600000Z</time>
      </trkpt>
      <trkpt lat="52.287485" lon="10.512632">
        <time>2026-09-06T09:08:23.600000Z</time>
      </trkpt>
      <trkpt lat="52.287729" lon="10.512842">
        <time>2026-09-06T09:08:38.600000Z</time>
      </trkpt>
      <trkpt lat="52.288045" lon="10.512935">
        <time>2026-09-06T09:08:53.600000Z</time>
      </trkpt>
      <trkpt lat="52.288354" lon="10.513042">
        <time>2026-09-06T09:09:08.600000Z</time>
      </trkpt>
      <trkpt lat="52.288608" lon="10.513124">
        <time>2026-09-06T09:09:20.600000Z</time>
      </trkpt>
      <trkpt lat="52.288675" lon="10.513111">
        <time>2026-09-06T09:09:23.600000Z</time>
      </trkpt>
      <trkpt lat="52.288848" lon="10.512951">
        <time>2026-09-06T09:09:32.600000Z</time>
      </trkpt>
      <trkpt lat="52.28902" lon="10.512533">
        <time>2026-09-06T09:09:47.600000Z</time>
      </trkpt>
      <trkpt lat="52.289053" lon="10.512087">
        <time>2026-09-06T09:09:59.600000Z</time>
      </trkpt>
      <trkpt lat="52.289066" lon="10.511631">
        <time>2026-09-06T09:10:11.600000Z</time>
      </trkpt>
      <trkpt lat="52.289051" lon="10.51109">
        <time>2026-09-06T09:10:26.600000Z</time>
      </trkpt>
      <trkpt lat="52.289113" lon="10.510671">
        <time>2026-09-06T09:10:38.600000Z</time>
      </trkpt>
      <trkpt lat="52.289085" lon="10.510228">
        <time>2026-09-06T09:10:50.600000Z</time>
      </trkpt>
      <trkpt lat="52.289053" lon="10.509759">
        <time>2026-09-06T09:11:05.600000Z</time>
      </trkpt>
      <trkpt lat="52.289039" lon="10.509287">
        <time>2026-09-06T09:11:20.700000Z</time>
      </trkpt>
      <trkpt lat="52.289023" lon="10.508821">
        <time>2026-09-06T09:11:44.700000Z</time>
      </trkpt>
      <trkpt lat="52.289023" lon="10.508712">
        <time>2026-09-06T09:11:50.700000Z</time>
      </trkpt>
      <trkpt lat="52.289121" lon="10.508229">
        <time>2026-09-06T09:12:05.700000Z</time>
      </trkpt>
      <trkpt lat="52.289204" lon="10.507742">
        <time>2026-09-06T09:12:17.700000Z</time>
      </trkpt>
      <trkpt lat="52.289279" lon="10.507287">
        <time>2026-09-06T09:12:29.700000Z</time>
      </trkpt>
      <trkpt lat="52.289358" lon="10.506852">
        <time>2026-09-06T09:12:41.700000Z</time>
      </trkpt>
      <trkpt lat="52.289446" lon="10.506356">
        <time>2026-09-06T09:12:56.700000Z</time>
      </trkpt>
      <trkpt lat="52.289563" lon="10.505913">
        <time>2026-09-06T09:13:08.700000Z</time>
      </trkpt>
      <trkpt lat="52.289671" lon="10.505499">
        <time>2026-09-06T09:13:20.700000Z</time>
      </trkpt>
      <trkpt lat="52.289759" lon="10.505309">
        <time>2026-09-06T09:13:26.700000Z</time>
      </trkpt>
      <trkpt lat="52.289881" lon="10.505185">
        <time>2026-09-06T09:13:32.700000Z</time>
      </trkpt>
      <trkpt lat="52.290153" lon="10.504997">
        <time>2026-09-06T09:13:44.700000Z</time>
      </trkpt>
      <trkpt lat="52.290276" lon="10.504855">
        <time>2026-09-06T09:13:50.700000Z</time>
      </trkpt>
      <trkpt lat="52.290476" lon="10.504501">
        <time>2026-09-06T09:14:02.700000Z</time>
      </trkpt>
      <trkpt lat="52.290655" lon="10.504162">
        <time>2026-09-06T09:14:14.700000Z</time>
      </trkpt>
      <trkpt lat="52.290694" lon="10.504074">
        <time>2026-09-06T09:14:17.700000Z</time>
      </trkpt>
      <trkpt lat="52.29064" lon="10.503817">
        <time>2026-09-06T09:14:26.700000Z</time>
      </trkpt>
      <trkpt lat="52.290622" lon="10.503618">
        <time>2026-09-06T09:14:32.700000Z</time>
      </trkpt>
      <trkpt lat="52.290566" lon="10.503437">
        <time>2026-09-06T09:14:38.700000Z</time>
      </trkpt>
      <trkpt lat="52.290411" lon="10.503205">
        <time>2026-09-06T09:14:47.700000Z</time>
      </trkpt>
      <trkpt lat="52.290123" lon="10.502932">
        <time>2026-09-06T09:15:02.700000Z</time>
      </trkpt>
      <trkpt lat="52.28996" lon="10.502777">
        <time>2026-09-06T09:15:11.700000Z</time>
      </trkpt>
      <trkpt lat="52.289792" lon="10.502524">
        <time>2026-09-06T09:15:20.700000Z</time>
      </trkpt>
      <trkpt lat="52.28973" lon="10.5025">
        <time>2026-09-06T09:15:23.700000Z</time>
      </trkpt>
      <trkpt lat="52.289667" lon="10.502509">
        <time>2026-09-06T09:15:26.700000Z</time>
      </trkpt>
      <trkpt lat="52.289458" lon="10.502607">
        <time>2026-09-06T09:15:38.700000Z</time>
      </trkpt>
      <trkpt lat="52.289236" lon="10.502638">
        <time>2026-09-06T09:15:47.700000Z</time>
      </trkpt>
      <trkpt lat="52.289168" lon="10.502617">
        <time>2026-09-06T09:15:50.700000Z</time>
      </trkpt>
      <trkpt lat="52.289123" lon="10.50256">
        <time>2026-09-06T09:15:53.700000Z</time>
      </trkpt>
      <trkpt lat="52.288981" lon="10.502158">
        <time>2026-09-06T09:16:08.800000Z</time>
      </trkpt>
      <trkpt lat="52.2888" lon="10.501696">
        <time>2026-09-06T09:16:23.800000Z</time>
      </trkpt>
      <trkpt lat="52.288601" lon="10.501311">
        <time>2026-09-06T09:16:38.800000Z</time>
      </trkpt>
      <trkpt lat="52.288372" lon="10.501067">
        <time>2026-09-06T09:16:50.800000Z</time>
      </trkpt>
      <trkpt lat="52.288094" lon="10.500946">
        <time>2026-09-06T09:17:02.800000Z</time>
      </trkpt>
      <trkpt lat="52.287961" lon="10.500906">
        <time>2026-09-06T09:17:08.800000Z</time>
      </trkpt>
      <trkpt lat="52.287888" lon="10.500908">
        <time>2026-09-06T09:17:11.800000Z</time>
      </trkpt>
      <trkpt lat="52.287644" lon="10.501191">
        <time>2026-09-06T09:17:23.800000Z</time>
      </trkpt>
      <trkpt lat="52.287468" lon="10.501389">
        <time>2026-09-06T09:17:32.800000Z</time>
      </trkpt>
      <trkpt lat="52.287291" lon="10.501768">
        <time>2026-09-06T09:17:44.800000Z</time>
      </trkpt>
      <trkpt lat="52.287221" lon="10.501961">
        <time>2026-09-06T09:17:50.800000Z</time>
      </trkpt>
      <trkpt lat="52.287173" lon="10.502172">
        <time>2026-09-06T09:17:56.800000Z</time>
      </trkpt>
      <trkpt lat="52.28705" lon="10.502623">
        <time>2026-09-06T09:18:11.800000Z</time>
      </trkpt>
      <trkpt lat="52.286929" lon="10.503121">
        <time>2026-09-06T09:18:26.800000Z</time>
      </trkpt>
      <trkpt lat="52.286837" lon="10.503564">
        <time>2026-09-06T09:18:38.800000Z</time>
      </trkpt>
      <trkpt lat="52.286753" lon="10.504013">
        <time>2026-09-06T09:18:53.800000Z</time>
      </trkpt>
      <trkpt lat="52.286661" lon="10.504468">
        <time>2026-09-06T09:19:08.800000Z</time>
      </trkpt>
      <trkpt lat="52.286638" lon="10.505004">
        <time>2026-09-06T09:19:23.800000Z</time>
      </trkpt>
      <trkpt lat="52.286643" lon="10.505487">
        <time>2026-09-06T09:19:38.800000Z</time>
      </trkpt>
      <trkpt lat="52.28667" lon="10.505998">
        <time>2026-09-06T09:19:53.800000Z</time>
      </trkpt>
      <trkpt lat="52.286691" lon="10.506458">
        <time>2026-09-06T09:20:05.800000Z</time>
      </trkpt>
      <trkpt lat="52.286693" lon="10.506929">
        <time>2026-09-06T09:20:17.900000Z</time>
      </trkpt>
      <trkpt lat="52.28671" lon="10.507443">
        <time>2026-09-06T09:20:32.900000Z</time>
      </trkpt>
      <trkpt lat="52.286668" lon="10.507724">
        <time>2026-09-06T09:20:44.900000Z</time>
      </trkpt>
      <trkpt lat="52.286524" lon="10.50818">
        <time>2026-09-06T09:20:59.900000Z</time>
      </trkpt>
      <trkpt lat="52.286445" lon="10.508502">
        <time>2026-09-06T09:21:08.900000Z</time>
      </trkpt>
      <trkpt lat="52.286434" lon="10.509066">
        <time>2026-09-06T09:21:23.900000Z</time>
      </trkpt>
      <trkpt lat="52.286477" lon="10.509521">
        <time>2026-09-06T09:21:35.900000Z</time>
      </trkpt>
      <trkpt lat="52.286529" lon="10.51002">
        <time>2026-09-06T09:21:50.900000Z</time>
      </trkpt>
      <trkpt lat="52.286568" lon="10.510515">
        <time>2026-09-06T09:22:05.900000Z</time>
      </trkpt>
      <trkpt lat="52.286586" lon="10.510708">
        <time>2026-09-06T09:22:11.900000Z</time>
      </trkpt>
      <trkpt lat="52.286729" lon="10.511184">
        <time>2026-09-06T09:22:26.900000Z</time>
      </trkpt>
      <trkpt lat="52.28691" lon="10.511625">
        <time>2026-09-06T09:22:41.900000Z</time>
      </trkpt>
      <trkpt lat="52.287069" lon="10.511996">
        <time>2026-09-06T09:22:53.900000Z</time>
      </trkpt>
      <trkpt lat="52.287308" lon="10.512349">
        <time>2026-09-06T09:23:08.900000Z</time>
      </trkpt>
      <trkpt lat="52.28757" lon="10.51268">
        <time>2026-09-06T09:23:26.900000Z</time>
      </trkpt>
      <trkpt lat="52.28787" lon="10.51287">
        <time>2026-09-06T09:23:41.900000Z</time>
      </trkpt>
      <trkpt lat="52.288141" lon="10.512927">
        <time>2026-09-06T09:23:53.900000Z</time>
      </trkpt>
      <trkpt lat="52.288461" lon="10.513056">
        <time>2026-09-06T09:24:09Z</time>
      </trkpt>
      <trkpt lat="52.288659" lon="10.5131">
        <time>2026-09-06T09:24:18Z</time>
      </trkpt>
      <trkpt lat="52.288784" lon="10.51301">
        <time>2026-09-06T09:24:24Z</time>
      </trkpt>
      <trkpt lat="52.288887" lon="10.512875">
        <time>2026-09-06T09:24:30Z</time>
      </trkpt>
      <trkpt lat="52.289023" lon="10.512425">
        <time>2026-09-06T09:24:45Z</time>
      </trkpt>
      <trkpt lat="52.289056" lon="10.511927">
        <time>2026-09-06T09:25:00.200000Z</time>
      </trkpt>
      <trkpt lat="52.289084" lon="10.511518">
        <time>2026-09-06T09:25:12.200000Z</time>
      </trkpt>
      <trkpt lat="52.28906" lon="10.511013">
        <time>2026-09-06T09:25:30.200000Z</time>
      </trkpt>
      <trkpt lat="52.289106" lon="10.510792">
        <time>2026-09-06T09:25:42.200000Z</time>
      </trkpt>
      <trkpt lat="52.289095" lon="10.510268">
        <time>2026-09-06T09:26:00.200000Z</time>
      </trkpt>
      <trkpt lat="52.289082" lon="10.509824">
        <time>2026-09-06T09:26:12.200000Z</time>
      </trkpt>
      <trkpt lat="52.289079" lon="10.50938">
        <time>2026-09-06T09:26:24.200000Z</time>
      </trkpt>
      <trkpt lat="52.289057" lon="10.508913">
        <time>2026-09-06T09:26:36.200000Z</time>
      </trkpt>
      <trkpt lat="52.289079" lon="10.508467">
        <time>2026-09-06T09:26:48.200000Z</time>
      </trkpt>
      <trkpt lat="52.289162" lon="10.507937">
        <time>2026-09-06T09:27:03.200000Z</time>
      </trkpt>
      <trkpt lat="52.289236" lon="10.507496">
        <time>2026-09-06T09:27:15.200000Z</time>
      </trkpt>
      <trkpt lat="52.28931" lon="10.507065">
        <time>2026-09-06T09:27:27.200000Z</time>
      </trkpt>
      <trkpt lat="52.289384" lon="10.506613">
        <time>2026-09-06T09:27:39.200000Z</time>
      </trkpt>
      <trkpt lat="52.289492" lon="10.506191">
        <time>2026-09-06T09:27:51.200000Z</time>
      </trkpt>
      <trkpt lat="52.289606" lon="10.505741">
        <time>2026-09-06T09:28:03.200000Z</time>
      </trkpt>
      <trkpt lat="52.289669" lon="10.505531">
        <time>2026-09-06T09:28:09.200000Z</time>
      </trkpt>
      <trkpt lat="52.289806" lon="10.505282">
        <time>2026-09-06T09:28:18.300000Z</time>
      </trkpt>
      <trkpt lat="52.290109" lon="10.505063">
        <time>2026-09-06T09:28:33.300000Z</time>
      </trkpt>
      <trkpt lat="52.29023" lon="10.504962">
        <time>2026-09-06T09:28:39.300000Z</time>
      </trkpt>
      <trkpt lat="52.290466" lon="10.504575">
        <time>2026-09-06T09:28:54.300000Z</time>
      </trkpt>
      <trkpt lat="52.290549" lon="10.504427">
        <time>2026-09-06T09:29:00.300000Z</time>
      </trkpt>
      <trkpt lat="52.290641" lon="10.504216">
        <time>2026-09-06T09:29:09.300000Z</time>
      </trkpt>
      <trkpt lat="52.290662" lon="10.504127">
        <time>2026-09-06T09:29:12.300000Z</time>
      </trkpt>
      <trkpt lat="52.290637" lon="10.503691">
        <time>2026-09-06T09:29:24.300000Z</time>
      </trkpt>
      <trkpt lat="52.290554" lon="10.50342">
        <time>2026-09-06T09:29:33.300000Z</time>
      </trkpt>
      <trkpt lat="52.290288" lon="10.503099">
        <time>2026-09-06T09:29:48.300000Z</time>
      </trkpt>
      <trkpt lat="52.290009" lon="10.502828">
        <time>2026-09-06T09:30:03.300000Z</time>
      </trkpt>
      <trkpt lat="52.289745" lon="10.502521">
        <time>2026-09-06T09:30:18.300000Z</time>
      </trkpt>
      <trkpt lat="52.289684" lon="10.502516">
        <time>2026-09-06T09:30:21.300000Z</time>
      </trkpt>
      <trkpt lat="52.289394" lon="10.502647">
        <time>2026-09-06T09:30:36.300000Z</time>
      </trkpt>
      <trkpt lat="52.289243" lon="10.502658">
        <time>2026-09-06T09:30:42.300000Z</time>
      </trkpt>
      <trkpt lat="52.289181" lon="10.50263">
        <time>2026-09-06T09:30:45.300000Z</time>
      </trkpt>
      <trkpt lat="52.289133" lon="10.502564">
        <time>2026-09-06T09:30:48.300000Z</time>
      </trkpt>
      <trkpt lat="52.288998" lon="10.502181">
        <time>2026-09-06T09:31:03.400000Z</time>
      </trkpt>
      <trkpt lat="52.288823" lon="10.501723">
        <time>2026-09-06T09:31:18.400000Z</time>
      </trkpt>
      <trkpt lat="52.288638" lon="10.501362">
        <time>2026-09-06T09:31:30.400000Z</time>
      </trkpt>
      <trkpt lat="52.288556" lon="10.501226">
        <time>2026-09-06T09:31:36.400000Z</time>
      </trkpt>
      <trkpt lat="52.288385" lon="10.50106">
        <time>2026-09-06T09:31:45.400000Z</time>
      </trkpt>
      <trkpt lat="52.288071" lon="10.50095">
        <time>2026-09-06T09:32:00.400000Z</time>
      </trkpt>
      <trkpt lat="52.287874" lon="10.500916">
        <time>2026-09-06T09:32:09.400000Z</time>
      </trkpt>
      <trkpt lat="52.287631" lon="10.501152">
        <time>2026-09-06T09:32:24.400000Z</time>
      </trkpt>
      <trkpt lat="52.28742" lon="10.501466">
        <time>2026-09-06T09:32:39.400000Z</time>
      </trkpt>
      <trkpt lat="52.287312" lon="10.501677">
        <time>2026-09-06T09:32:48.400000Z</time>
      </trkpt>
      <trkpt lat="52.287172" lon="10.502073">
        <time>2026-09-06T09:33:00.400000Z</time>
      </trkpt>
      <trkpt lat="52.287053" lon="10.502471">
        <time>2026-09-06T09:33:12.400000Z</time>
      </trkpt>
      <trkpt lat="52.286968" lon="10.502957">
        <time>2026-09-06T09:33:27.400000Z</time>
      </trkpt>
      <trkpt lat="52.286898" lon="10.503231">
        <time>2026-09-06T09:33:36.400000Z</time>
      </trkpt>
      <trkpt lat="52.286799" lon="10.50373">
        <time>2026-09-06T09:33:51.400000Z</time>
      </trkpt>
      <trkpt lat="52.286722" lon="10.504071">
        <time>2026-09-06T09:34:03.400000Z</time>
      </trkpt>
      <trkpt lat="52.286651" lon="10.504483">
        <time>2026-09-06T09:34:15.400000Z</time>
      </trkpt>
      <trkpt lat="52.286657" lon="10.505011">
        <time>2026-09-06T09:34:27.400000Z</time>
      </trkpt>
      <trkpt lat="52.28669" lon="10.505525">
        <time>2026-09-06T09:34:42.400000Z</time>
      </trkpt>
      <trkpt lat="52.286714" lon="10.506021">
        <time>2026-09-06T09:34:57.400000Z</time>
      </trkpt>
      <trkpt lat="52.286726" lon="10.506482">
        <time>2026-09-06T09:35:09.400000Z</time>
      </trkpt>
      <trkpt lat="52.286729" lon="10.506987">
        <time>2026-09-06T09:35:21.400000Z</time>
      </trkpt>
      <trkpt lat="52.286725" lon="10.507431">
        <time>2026-09-06T09:35:33.400000Z</time>
      </trkpt>
      <trkpt lat="52.286717" lon="10.507636">
        <time>2026-09-06T09:35:39.400000Z</time>
      </trkpt>
      <trkpt lat="52.286565" lon="10.508065">
        <time>2026-09-06T09:35:54.400000Z</time>
      </trkpt>
      <trkpt lat="52.286452" lon="10.508574">
        <time>2026-09-06T09:36:09.400000Z</time>
      </trkpt>
      <trkpt lat="52.286441" lon="10.508784">
        <time>2026-09-06T09:36:15.400000Z</time>
      </trkpt>
      <trkpt lat="52.286476" lon="10.508984">
        <time>2026-09-06T09:36:21.400000Z</time>
      </trkpt>
      <trkpt lat="52.286515" lon="10.509515">
        <time>2026-09-06T09:36:36.400000Z</time>
      </trkpt>
      <trkpt lat="52.286564" lon="10.510051">
        <time>2026-09-06T09:36:51.400000Z</time>
      </trkpt>
      <trkpt lat="52.286593" lon="10.510559">
        <time>2026-09-06T09:37:06.400000Z</time>
      </trkpt>
      <trkpt lat="52.286629" lon="10.510844">
        <time>2026-09-06T09:37:15.400000Z</time>
      </trkpt>
      <trkpt lat="52.286769" lon="10.511272">
        <time>2026-09-06T09:37:30.400000Z</time>
      </trkpt>
      <trkpt lat="52.286942" lon="10.5117">
        <time>2026-09-06T09:37:45.400000Z</time>
      </trkpt>
      <trkpt lat="52.287133" lon="10.512136">
        <time>2026-09-06T09:38:00.400000Z</time>
      </trkpt>
      <trkpt lat="52.287329" lon="10.512358">
        <time>2026-09-06T09:38:12.400000Z</time>
      </trkpt>
      <trkpt lat="52.2874" lon="10.512504">
        <time>2026-09-06T09:38:18.400000Z</time>
      </trkpt>
      <trkpt lat="52.287665" lon="10.512772">
        <time>2026-09-06T09:38:33.400000Z</time>
      </trkpt>
      <trkpt lat="52.287935" lon="10.512893">
        <time>2026-09-06T09:38:45.400000Z</time>
      </trkpt>
      <trkpt lat="52.2882" lon="10.512924">
        <time>2026-09-06T09:38:57.400000Z</time>
      </trkpt>
      <trkpt lat="52.288478" lon="10.513048">
        <time>2026-09-06T09:39:12.400000Z</time>
      </trkpt>
      <trkpt lat="52.288625" lon="10.51311">
        <time>2026-09-06T09:39:18.400000Z</time>
      </trkpt>
      <trkpt lat="52.288691" lon="10.5131">
        <time>2026-09-06T09:39:21.400000Z</time>
      </trkpt>
      <trkpt lat="52.288897" lon="10.512842">
        <time>2026-09-06T09:39:33.400000Z</time>
      </trkpt>
      <trkpt lat="52.289" lon="10.512534">
        <time>2026-09-06T09:39:45.500000Z</time>
      </trkpt>
      <trkpt lat="52.289048" lon="10.512097">
        <time>2026-09-06T09:39:57.500000Z</time>
      </trkpt>
      <trkpt lat="52.289074" lon="10.511596">
        <time>2026-09-06T09:40:12.500000Z</time>
      </trkpt>
      <trkpt lat="52.28906" lon="10.511102">
        <time>2026-09-06T09:40:27.500000Z</time>
      </trkpt>
      <trkpt lat="52.289076" lon="10.510912">
        <time>2026-09-10T17:39:42.900000Z</time>
      </trkpt>
      <trkpt lat="52.28912" lon="10.510733">
        <time>2026-09-06T09:40:39.500000Z</time>
      </trkpt>
      <trkpt lat="52.289095" lon="10.510243">
        <time>2026-09-06T09:40:54.500000Z</time>
      </trkpt>
      <trkpt lat="52.289078" lon="10.509713">
        <time>2026-09-06T09:41:09.500000Z</time>
      </trkpt>
      <trkpt lat="52.289056" lon="10.509174">
        <time>2026-09-06T09:41:24.500000Z</time>
      </trkpt>
      <trkpt lat="52.289055" lon="10.508636">
        <time>2026-09-06T09:41:39.500000Z</time>
      </trkpt>
      <trkpt lat="52.289132" lon="10.508122">
        <time>2026-09-06T09:41:54.500000Z</time>
      </trkpt>
      <trkpt lat="52.289197" lon="10.507693">
        <time>2026-09-06T09:42:06.500000Z</time>
      </trkpt>
      <trkpt lat="52.289272" lon="10.507228">
        <time>2026-09-06T09:42:18.500000Z</time>
      </trkpt>
      <trkpt lat="52.289325" lon="10.507011">
        <time>2026-09-06T09:42:24.500000Z</time>
      </trkpt>
      <trkpt lat="52.289386" lon="10.506566">
        <time>2026-09-06T09:42:36.500000Z</time>
      </trkpt>
      <trkpt lat="52.289503" lon="10.506145">
        <time>2026-09-06T09:42:48.500000Z</time>
      </trkpt>
      <trkpt lat="52.289623" lon="10.505705">
        <time>2026-09-06T09:43:00.500000Z</time>
      </trkpt>
      <trkpt lat="52.289682" lon="10.505493">
        <time>2026-09-06T09:43:06.500000Z</time>
      </trkpt>
      <trkpt lat="52.289737" lon="10.505366">
        <time>2026-09-06T09:43:12.500000Z</time>
      </trkpt>
      <trkpt lat="52.289883" lon="10.505201">
        <time>2026-09-06T09:43:21.500000Z</time>
      </trkpt>
      <trkpt lat="52.290143" lon="10.505015">
        <time>2026-09-06T09:43:33.500000Z</time>
      </trkpt>
      <trkpt lat="52.290349" lon="10.504725">
        <time>2026-09-06T09:43:45.500000Z</time>
      </trkpt>
      <trkpt lat="52.290569" lon="10.50432">
        <time>2026-09-06T09:44:00.500000Z</time>
      </trkpt>
      <trkpt lat="52.290652" lon="10.504144">
        <time>2026-09-06T09:44:06.500000Z</time>
      </trkpt>
      <trkpt lat="52.290636" lon="10.503717">
        <time>2026-09-06T09:44:18.500000Z</time>
      </trkpt>
      <trkpt lat="52.290603" lon="10.503578">
        <time>2026-09-06T09:44:21.500000Z</time>
      </trkpt>
      <trkpt lat="52.290442" lon="10.503289">
        <time>2026-09-06T09:44:30.500000Z</time>
      </trkpt>
      <trkpt lat="52.290216" lon="10.503035">
        <time>2026-09-06T09:44:42.500000Z</time>
      </trkpt>
      <trkpt lat="52.289973" lon="10.502795">
        <time>2026-09-06T09:44:54.500000Z</time>
      </trkpt>
      <trkpt lat="52.289775" lon="10.502526">
        <time>2026-09-06T09:45:06.700000Z</time>
      </trkpt>
      <trkpt lat="52.289711" lon="10.502508">
        <time>2026-09-06T09:45:09.700000Z</time>
      </trkpt>
      <trkpt lat="52.289648" lon="10.502523">
        <time>2026-09-06T09:45:12.700000Z</time>
      </trkpt>
      <trkpt lat="52.289483" lon="10.502665">
        <time>2026-09-06T09:45:21.700000Z</time>
      </trkpt>
      <trkpt lat="52.289242" lon="10.502672">
        <time>2026-09-06T09:45:33.700000Z</time>
      </trkpt>
      <trkpt lat="52.289178" lon="10.50264">
        <time>2026-09-06T09:45:36.700000Z</time>
      </trkpt>
      <trkpt lat="52.289023" lon="10.502262">
        <time>2026-09-06T09:45:51.800000Z</time>
      </trkpt>
      <trkpt lat="52.288863" lon="10.501878">
        <time>2026-09-06T09:46:03.800000Z</time>
      </trkpt>
      <trkpt lat="52.288668" lon="10.501469">
        <time>2026-09-06T09:46:18.800000Z</time>
      </trkpt>
      <trkpt lat="52.288548" lon="10.501253">
        <time>2026-09-06T09:46:27.800000Z</time>
      </trkpt>
      <trkpt lat="52.288439" lon="10.501124">
        <time>2026-09-06T09:46:33.800000Z</time>
      </trkpt>
      <trkpt lat="52.288133" lon="10.500995">
        <time>2026-09-06T09:46:45.800000Z</time>
      </trkpt>
      <trkpt lat="52.287851" lon="10.500922">
        <time>2026-09-06T09:46:57.800000Z</time>
      </trkpt>
      <trkpt lat="52.287786" lon="10.500959">
        <time>2026-09-06T09:47:00.800000Z</time>
      </trkpt>
      <trkpt lat="52.287545" lon="10.501271">
        <time>2026-09-06T09:47:15.800000Z</time>
      </trkpt>
      <trkpt lat="52.287324" lon="10.501649">
        <time>2026-09-06T09:47:30.800000Z</time>
      </trkpt>
      <trkpt lat="52.287191" lon="10.502051">
        <time>2026-09-06T09:47:42.800000Z</time>
      </trkpt>
      <trkpt lat="52.287072" lon="10.50253">
        <time>2026-09-06T09:47:57.800000Z</time>
      </trkpt>
      <trkpt lat="52.286984" lon="10.503031">
        <time>2026-09-06T09:48:12.800000Z</time>
      </trkpt>
      <trkpt lat="52.28688" lon="10.503512">
        <time>2026-09-06T09:48:27.800000Z</time>
      </trkpt>
      <trkpt lat="52.286758" lon="10.503992">
        <time>2026-09-06T09:48:45.800000Z</time>
      </trkpt>
      <trkpt lat="52.286673" lon="10.504474">
        <time>2026-09-06T09:49:00.800000Z</time>
      </trkpt>
      <trkpt lat="52.286665" lon="10.50495">
        <time>2026-09-06T09:49:12.800000Z</time>
      </trkpt>
      <trkpt lat="52.286671" lon="10.505221">
        <time>2026-09-06T09:49:18.800000Z</time>
      </trkpt>
      <trkpt lat="52.286717" lon="10.505719">
        <time>2026-09-06T09:49:33.800000Z</time>
      </trkpt>
      <trkpt lat="52.286735" lon="10.50624">
        <time>2026-09-06T09:49:48.800000Z</time>
      </trkpt>
      <trkpt lat="52.28672" lon="10.50671">
        <time>2026-09-06T09:50:00.800000Z</time>
      </trkpt>
      <trkpt lat="52.286717" lon="10.507211">
        <time>2026-09-06T09:50:12.900000Z</time>
      </trkpt>
      <trkpt lat="52.286712" lon="10.507637">
        <time>2026-09-06T09:50:24.900000Z</time>
      </trkpt>
      <trkpt lat="52.286567" lon="10.508081">
        <time>2026-09-06T09:50:39.900000Z</time>
      </trkpt>
      <trkpt lat="52.286456" lon="10.508593">
        <time>2026-09-06T09:50:54.900000Z</time>
      </trkpt>
      <trkpt lat="52.286463" lon="10.509122">
        <time>2026-09-06T09:51:09.900000Z</time>
      </trkpt>
      <trkpt lat="52.28651" lon="10.509631">
        <time>2026-09-06T09:51:24.900000Z</time>
      </trkpt>
      <trkpt lat="52.286555" lon="10.510178">
        <time>2026-09-06T09:51:39.900000Z</time>
      </trkpt>
      <trkpt lat="52.286595" lon="10.510601">
        <time>2026-09-06T09:51:51.900000Z</time>
      </trkpt>
      <trkpt lat="52.28657" lon="10.510807">
        <time>2026-09-06T09:51:58Z</time>
      </trkpt>
      <trkpt lat="52.286421" lon="10.511255">
        <time>2026-09-06T09:52:13Z</time>
      </trkpt>
      <trkpt lat="52.286276" lon="10.511704">
        <time>2026-09-06T09:52:28Z</time>
      </trkpt>
      <trkpt lat="52.286105" lon="10.512108">
        <time>2026-09-06T09:52:46Z</time>
      </trkpt>
      <trkpt lat="52.285906" lon="10.51242">
        <time>2026-09-06T09:53:01Z</time>
      </trkpt>
      <trkpt lat="52.28567" lon="10.512755">
        <time>2026-09-06T09:53:16.100000Z</time>
      </trkpt>
      <trkpt lat="52.285543" lon="10.512897">
        <time>2026-09-06T09:53:22.100000Z</time>
      </trkpt>
      <trkpt lat="52.285402" lon="10.512975">
        <time>2026-09-06T09:53:28.100000Z</time>
      </trkpt>
      <trkpt lat="52.285084" lon="10.51299">
        <time>2026-09-06T09:53:43.100000Z</time>
      </trkpt>
      <trkpt lat="52.284759" lon="10.513014">
        <time>2026-09-06T09:53:58.100000Z</time>
      </trkpt>
      <trkpt lat="52.284437" lon="10.513011">
        <time>2026-09-06T09:54:13.100000Z</time>
      </trkpt>
      <trkpt lat="52.284122" lon="10.51302">
        <time>2026-09-06T09:54:28.100000Z</time>
      </trkpt>
      <trkpt lat="52.283803" lon="10.513023">
        <time>2026-09-06T09:54:43.100000Z</time>
      </trkpt>
      <trkpt lat="52.283526" lon="10.513032">
        <time>2026-09-06T09:54:55.100000Z</time>
      </trkpt>
      <trkpt lat="52.283248" lon="10.513026">
        <time>2026-09-06T09:55:07.100000Z</time>
      </trkpt>
      <trkpt lat="52.282977" lon="10.513026">
        <time>2026-09-06T09:55:19.100000Z</time>
      </trkpt>
      <trkpt lat="52.282654" lon="10.51304">
        <time>2026-09-06T09:55:34.200000Z</time>
      </trkpt>
      <trkpt lat="52.282325" lon="10.513056">
        <time>2026-09-06T09:55:49.200000Z</time>
      </trkpt>
      <trkpt lat="52.282" lon="10.513055">
        <time>2026-09-06T09:56:04.200000Z</time>
      </trkpt>
      <trkpt lat="52.281727" lon="10.51305">
        <time>2026-09-06T09:56:19.200000Z</time>
      </trkpt>
      <trkpt lat="52.28144" lon="10.513035">
        <time>2026-09-06T09:56:34.200000Z</time>
      </trkpt>
      <trkpt lat="52.281116" lon="10.513072">
        <time>2026-09-06T09:56:49.200000Z</time>
      </trkpt>
      <trkpt lat="52.280789" lon="10.513081">
        <time>2026-09-06T09:57:04.200000Z</time>
      </trkpt>
      <trkpt lat="52.280478" lon="10.513084">
        <time>2026-09-06T09:57:19.200000Z</time>
      </trkpt>
      <trkpt lat="52.280155" lon="10.513113">
        <time>2026-09-06T09:57:34.200000Z</time>
      </trkpt>
      <trkpt lat="52.279828" lon="10.513133">
        <time>2026-09-06T09:57:49.300000Z</time>
      </trkpt>
      <trkpt lat="52.279546" lon="10.513115">
        <time>2026-09-06T09:58:01.300000Z</time>
      </trkpt>
      <trkpt lat="52.27935" lon="10.513159">
        <time>2026-09-06T09:58:10.300000Z</time>
      </trkpt>
      <trkpt lat="52.279028" lon="10.513147">
        <time>2026-09-06T09:58:25.300000Z</time>
      </trkpt>
      <trkpt lat="52.278705" lon="10.513191">
        <time>2026-09-06T09:58:40.300000Z</time>
      </trkpt>
      <trkpt lat="52.278493" lon="10.513239">
        <time>2026-09-06T09:58:49.300000Z</time>
      </trkpt>
      <trkpt lat="52.278228" lon="10.513155">
        <time>2026-09-06T09:59:01.300000Z</time>
      </trkpt>
      <trkpt lat="52.277902" lon="10.513175">
        <time>2026-09-06T09:59:16.300000Z</time>
      </trkpt>
      <trkpt lat="52.27758" lon="10.513143">
        <time>2026-09-06T09:59:31.300000Z</time>
      </trkpt>
      <trkpt lat="52.277246" lon="10.51315">
        <time>2026-09-06T09:59:46.400000Z</time>
      </trkpt>
      <trkpt lat="52.276964" lon="10.513179">
        <time>2026-09-06T09:59:58.400000Z</time>
      </trkpt>
      <trkpt lat="52.276632" lon="10.51318">
        <time>2026-09-06T10:00:13.400000Z</time>
      </trkpt>
      <trkpt lat="52.276322" lon="10.513173">
        <time>2026-09-06T10:00:28.400000Z</time>
      </trkpt>
      <trkpt lat="52.276036" lon="10.513191">
        <time>2026-09-06T10:00:40.400000Z</time>
      </trkpt>
      <trkpt lat="52.275769" lon="10.513183">
        <time>2026-09-06T10:00:52.400000Z</time>
      </trkpt>
      <trkpt lat="52.275472" lon="10.513332">
        <time>2026-09-06T10:01:10.400000Z</time>
      </trkpt>
      <trkpt lat="52.275197" lon="10.513433">
        <time>2026-09-06T10:01:25.400000Z</time>
      </trkpt>
      <trkpt lat="52.274887" lon="10.513575">
        <time>2026-09-06T10:01:40.400000Z</time>
      </trkpt>
      <trkpt lat="52.27477" lon="10.513625">
        <time>2026-09-06T10:01:46.400000Z</time>
      </trkpt>
      <trkpt lat="52.274632" lon="10.513719">
        <time>2026-09-06T10:01:52.400000Z</time>
      </trkpt>
      <trkpt lat="52.274508" lon="10.51368">
        <time>2026-09-06T10:01:58.400000Z</time>
      </trkpt>
      <trkpt lat="52.274253" lon="10.513729">
        <time>2026-09-06T10:02:10.500000Z</time>
      </trkpt>
      <trkpt lat="52.273978" lon="10.513866">
        <time>2026-09-06T10:02:25.500000Z</time>
      </trkpt>
      <trkpt lat="52.273785" lon="10.513932">
        <time>2026-09-06T10:02:34.500000Z</time>
      </trkpt>
      <trkpt lat="52.273543" lon="10.514208">
        <time>2026-09-06T10:02:49.500000Z</time>
      </trkpt>
      <trkpt lat="52.273372" lon="10.514463">
        <time>2026-09-06T10:03:01.500000Z</time>
      </trkpt>
      <trkpt lat="52.273201" lon="10.514883">
        <time>2026-09-06T10:03:16.500000Z</time>
      </trkpt>
      <trkpt lat="52.27314" lon="10.515043">
        <time>2026-09-06T10:03:22.500000Z</time>
      </trkpt>
      <trkpt lat="52.273086" lon="10.515425">
        <time>2026-09-06T10:03:34.500000Z</time>
      </trkpt>
      <trkpt lat="52.273132" lon="10.515766">
        <time>2026-09-06T10:03:43.500000Z</time>
      </trkpt>
      <trkpt lat="52.273124" lon="10.516234">
        <time>2026-09-06T10:03:58.500000Z</time>
      </trkpt>
      <trkpt lat="52.273125" lon="10.516558">
        <time>2026-09-06T10:04:07.500000Z</time>
      </trkpt>
      <trkpt lat="52.273142" lon="10.516629">
        <time>2026-09-06T10:04:10.500000Z</time>
      </trkpt>
      <trkpt lat="52.273117" lon="10.517137">
        <time>2026-09-06T10:04:25.500000Z</time>
      </trkpt>
      <trkpt lat="52.273085" lon="10.517665">
        <time>2026-09-06T10:04:40.500000Z</time>
      </trkpt>
      <trkpt lat="52.27306" lon="10.517981">
        <time>2026-09-06T10:04:49.500000Z</time>
      </trkpt>
      <trkpt lat="52.272999" lon="10.518461">
        <time>2026-09-06T10:05:01.600000Z</time>
      </trkpt>
      <trkpt lat="52.272981" lon="10.518692">
        <time>2026-09-06T10:05:07.600000Z</time>
      </trkpt>
      <trkpt lat="52.273137" lon="10.519154">
        <time>2026-09-06T10:05:22.600000Z</time>
      </trkpt>
      <trkpt lat="52.273155" lon="10.519235">
        <time>2026-09-06T10:05:25.600000Z</time>
      </trkpt>
      <trkpt lat="52.273138" lon="10.519308">
        <time>2026-09-06T10:05:28.600000Z</time>
      </trkpt>
      <trkpt lat="52.273004" lon="10.519549">
        <time>2026-09-06T10:05:40.600000Z</time>
      </trkpt>
      <trkpt lat="52.272849" lon="10.519951">
        <time>2026-09-06T10:05:55.600000Z</time>
      </trkpt>
      <trkpt lat="52.272713" lon="10.520399">
        <time>2026-09-06T10:06:10.600000Z</time>
      </trkpt>
      <trkpt lat="52.27258" lon="10.520815">
        <time>2026-09-06T10:06:22.600000Z</time>
      </trkpt>
      <trkpt lat="52.272447" lon="10.521219">
        <time>2026-09-06T10:06:34.600000Z</time>
      </trkpt>
      <trkpt lat="52.272289" lon="10.52168">
        <time>2026-09-06T10:06:49.600000Z</time>
      </trkpt>
      <trkpt lat="52.272125" lon="10.522124">
        <time>2026-09-06T10:07:04.700000Z</time>
      </trkpt>
      <trkpt lat="52.272059" lon="10.522262">
        <time>2026-09-06T10:07:10.700000Z</time>
      </trkpt>
      <trkpt lat="52.271962" lon="10.522368">
        <time>2026-09-06T10:07:16.700000Z</time>
      </trkpt>
      <trkpt lat="52.271854" lon="10.522412">
        <time>2026-09-06T10:07:22.700000Z</time>
      </trkpt>
      <trkpt lat="52.27169" lon="10.522304">
        <time>2026-09-06T10:07:34.700000Z</time>
      </trkpt>
      <trkpt lat="52.271609" lon="10.522127">
        <time>2026-09-06T10:07:43.800000Z</time>
      </trkpt>
      <trkpt lat="52.271552" lon="10.52206">
        <time>2026-09-06T10:07:46.800000Z</time>
      </trkpt>
      <trkpt lat="52.271368" lon="10.52214">
        <time>2026-09-06T10:07:55.800000Z</time>
      </trkpt>
      <trkpt lat="52.271117" lon="10.522331">
        <time>2026-09-06T10:08:07.800000Z</time>
      </trkpt>
      <trkpt lat="52.270832" lon="10.522381">
        <time>2026-09-06T10:08:19.800000Z</time>
      </trkpt>
      <trkpt lat="52.270636" lon="10.522453">
        <time>2026-09-06T10:08:28.800000Z</time>
      </trkpt>
      <trkpt lat="52.270606" lon="10.522536">
        <time>2026-09-06T10:08:31.800000Z</time>
      </trkpt>
      <trkpt lat="52.27034" lon="10.522699">
        <time>2026-09-06T10:08:46.800000Z</time>
      </trkpt>
      <trkpt lat="52.270183" lon="10.522781">
        <time>2026-09-06T10:08:55.800000Z</time>
      </trkpt>
      <trkpt lat="52.270141" lon="10.522824">
        <time>2026-09-06T10:08:58.800000Z</time>
      </trkpt>
      <trkpt lat="52.270141" lon="10.522824">
        <time>2026-09-06T10:09:04.300000Z</time>
      </trkpt>
    </trkseg>
  </trk>
</gpx>