<?xml version="1.0" encoding="UTF-8"?>
<gpx xmlns="http://www.topografix.com/GPX/1/1" xmlns:gpxtpx="http://www.garmin.com/xmlschemas/TrackPointExtension/v1" xmlns:xsi="http://www.w3.org/2001/XMLSchema-instance" xsi:schemaLocation="http://www.topografix.com/GPX/1/1 http://www.topografix.com/GPX/1/1/gpx.xsd" version="1.1" creator="gpx.py -- https://github.com/tkrajina/gpxpy">
  <trk>
    <name>gpx from keep</name>
    <type>Run</type>
    <trkseg>
      <trkpt lat="52.269786" lon="10.522653">
        <time>2026-07-31T05:37:21.350000Z</time>
      </trkpt>
      <trkpt lat="52.269842" lon="10.522695">
        <time>2026-07-31T05:37:24.250000Z</time>
      </trkpt>
      <trkpt lat="52.269875" lon="10.522767">
        <time>2026-07-31T05:37:27.250000Z</time>
      </trkpt>
      <trkpt lat="52.269947" lon="10.522832">
        <time>2026-07-31T05:37:33.250000Z</time>
      </trkpt>
      <trkpt lat="52.269978" lon="10.522892">
        <time>2026-07-31T05:37:36.350000Z</time>
      </trkpt>
      <trkpt lat="52.270068" lon="10.522964">
        <time>2026-07-31T05:37:48.250000Z</time>
      </trkpt>
      <trkpt lat="52.270123" lon="10.522881">
        <time>2026-07-31T05:37:54.250000Z</time>
      </trkpt>
      <trkpt lat="52.270308" lon="10.522731">
        <time>2026-07-31T05:38:00.250000Z</time>
      </trkpt>
      <trkpt lat="52.270416" lon="10.522693">
        <time>2026-07-31T05:38:03.250000Z</time>
      </trkpt>
      <trkpt lat="52.270528" lon="10.5227">
        <time>2026-07-31T05:38:06.250000Z</time>
      </trkpt>
      <trkpt lat="52.270628" lon="10.522674">
        <time>2026-07-31T05:38:09.250000Z</time>
      </trkpt>
      <trkpt lat="52.270832" lon="10.522513">
        <time>2026-07-31T05:38:18.350000Z</time>
      </trkpt>
      <trkpt lat="52.271123" lon="10.52242">
        <time>2026-07-31T05:38:30.350000Z</time>
      </trkpt>
      <trkpt lat="52.271362" lon="10.522161">
        <time>2026-07-31T05:38:42.350000Z</time>
      </trkpt>
      <trkpt lat="52.271452" lon="10.522022">
        <time>2026-07-31T05:38:48.350000Z</time>
      </trkpt>
      <trkpt lat="52.271544" lon="10.522034">
        <time>2026-07-31T05:38:54.350000Z</time>
      </trkpt>
      <trkpt lat="52.271587" lon="10.522093">
        <time>2026-07-31T05:38:57.350000Z</time>
      </trkpt>
      <trkpt lat="52.271642" lon="10.522112">
        <time>2026-07-31T05:39:00.350000Z</time>
      </trkpt>
      <trkpt lat="52.271894" lon="10.522273">
        <time>2026-07-31T05:39:12.350000Z</time>
      </trkpt>
      <trkpt lat="52.271966" lon="10.522277">
        <time>2026-07-31T05:39:15.350000Z</time>
      </trkpt>
      <trkpt lat="52.272025" lon="10.522249">
        <time>2026-07-31T05:39:18.350000Z</time>
      </trkpt>
      <trkpt lat="52.272208" lon="10.521877">
        <time>2026-07-31T05:39:30.350000Z</time>
      </trkpt>
      <trkpt lat="52.27242" lon="10.521513">
        <time>2026-07-31T05:39:42.350000Z</time>
      </trkpt>
      <trkpt lat="52.27261" lon="10.52119">
        <time>2026-07-31T05:39:54.350000Z</time>
      </trkpt>
      <trkpt lat="52.272774" lon="10.520713">
        <time>2026-07-31T05:40:06.350000Z</time>
      </trkpt>
      <trkpt lat="52.272912" lon="10.520289">
        <time>2026-07-31T05:40:18.350000Z</time>
      </trkpt>
      <trkpt lat="52.272966" lon="10.52005">
        <time>2026-07-31T05:40:24.350000Z</time>
      </trkpt>
      <trkpt lat="52.272997" lon="10.519841">
        <time>2026-07-31T05:40:30.350000Z</time>
      </trkpt>
      <trkpt lat="52.273101578641" lon="10.519560271554418">
        <time>2026-07-31T05:40:39.350000Z</time>
      </trkpt>
      <trkpt lat="52.2731246211875" lon="10.519455219549357">
        <time>2026-07-31T05:40:42.350000Z</time>
      </trkpt>
      <trkpt lat="52.273221" lon="10.519249">
        <time>2026-07-31T05:40:48.350000Z</time>
      </trkpt>
      <trkpt lat="52.2732" lon="10.519121">
        <time>2026-07-31T05:40:51.350000Z</time>
      </trkpt>
      <trkpt lat="52.273052" lon="10.51882">
        <time>2026-07-31T05:41:00.350000Z</time>
      </trkpt>
      <trkpt lat="52.273037" lon="10.518693">
        <time>2026-07-31T05:41:03.350000Z</time>
      </trkpt>
      <trkpt lat="52.273082" lon="10.518197">
        <time>2026-07-31T05:41:18.350000Z</time>
      </trkpt>
      <trkpt lat="52.273084" lon="10.518107">
        <time>2026-07-31T05:41:21.350000Z</time>
      </trkpt>
      <trkpt lat="52.273119" lon="10.517959">
        <time>2026-07-31T05:41:27.350000Z</time>
      </trkpt>
      <trkpt lat="52.273195" lon="10.517463">
        <time>2026-07-31T05:41:39.350000Z</time>
      </trkpt>
      <trkpt lat="52.273169" lon="10.517232">
        <time>2026-07-31T05:41:45.350000Z</time>
      </trkpt>
      <trkpt lat="52.273174" lon="10.517132">
        <time>2026-07-31T05:41:48.350000Z</time>
      </trkpt>
      <trkpt lat="52.273201" lon="10.517035">
        <time>2026-07-31T05:41:51.350000Z</time>
      </trkpt>
      <trkpt lat="52.273193" lon="10.516847">
        <time>2026-07-31T05:41:57.350000Z</time>
      </trkpt>
      <trkpt lat="52.273262" lon="10.516422">
        <time>2026-07-31T05:42:09.350000Z</time>
      </trkpt>
      <trkpt lat="52.273261" lon="10.51628">
        <time>2026-07-31T05:42:12.350000Z</time>
      </trkpt>
      <trkpt lat="52.273283" lon="10.516076">
        <time>2026-07-31T05:42:18.350000Z</time>
      </trkpt>
      <trkpt lat="52.273251" lon="10.515845">
        <time>2026-07-31T05:42:24.350000Z</time>
      </trkpt>
      <trkpt lat="52.273169" lon="10.515729">
        <time>2026-07-31T05:42:30.350000Z</time>
      </trkpt>
      <trkpt lat="52.273177" lon="10.51529">
        <time>2026-07-31T05:42:42.350000Z</time>
      </trkpt>
      <trkpt lat="52.273278" lon="10.514879">
        <time>2026-07-31T05:42:54.350000Z</time>
      </trkpt>
      <trkpt lat="52.273343" lon="10.514657">
        <time>2026-07-31T05:43:00.350000Z</time>
      </trkpt>
      <trkpt lat="52.273537" lon="10.514352">
        <time>2026-07-31T05:43:12.350000Z</time>
      </trkpt>
      <trkpt lat="52.273729" lon="10.514098">
        <time>2026-07-31T05:43:24.350000Z</time>
      </trkpt>
      <trkpt lat="52.27393131382569" lon="10.513971745240934">
        <time>2026-07-31T05:43:36.350000Z</time>
      </trkpt>
      <trkpt lat="52.274032" lon="10.513986">
        <time>2026-07-31T05:43:39.350000Z</time>
      </trkpt>
      <trkpt lat="52.274323" lon="10.513768">
        <time>2026-07-31T05:43:51.350000Z</time>
      </trkpt>
      <trkpt lat="52.274382" lon="10.513735">
        <time>2026-07-31T05:43:54.350000Z</time>
      </trkpt>
      <trkpt lat="52.274553" lon="10.513792">
        <time>2026-07-31T05:44:03.350000Z</time>
      </trkpt>
      <trkpt lat="52.274592" lon="10.513833">
        <time>2026-07-31T05:44:06.350000Z</time>
      </trkpt>
      <trkpt lat="52.274681" lon="10.513836">
        <time>2026-07-31T05:44:12.450000Z</time>
      </trkpt>
      <trkpt lat="52.27498" lon="10.513662">
        <time>2026-07-31T05:44:27.450000Z</time>
      </trkpt>
      <trkpt lat="52.275199" lon="10.513559">
        <time>2026-07-31T05:44:39.450000Z</time>
      </trkpt>
      <trkpt lat="52.275467" lon="10.513408">
        <time>2026-07-31T05:44:54.450000Z</time>
      </trkpt>
      <trkpt lat="52.275662" lon="10.513295">
        <time>2026-07-31T05:45:03.450000Z</time>
      </trkpt>
      <trkpt lat="52.275971" lon="10.51323">
        <time>2026-07-31T05:45:18.450000Z</time>
      </trkpt>
      <trkpt lat="52.276039" lon="10.513218">
        <time>2026-07-31T05:45:21.450000Z</time>
      </trkpt>
      <trkpt lat="52.27609" lon="10.513237">
        <time>2026-07-31T05:45:24.450000Z</time>
      </trkpt>
      <trkpt lat="52.276414" lon="10.513207">
        <time>2026-07-31T05:45:39.450000Z</time>
      </trkpt>
      <trkpt lat="52.276703" lon="10.513214">
        <time>2026-07-31T05:45:51.450000Z</time>
      </trkpt>
      <trkpt lat="52.277017" lon="10.513197">
        <time>2026-07-31T05:46:03.450000Z</time>
      </trkpt>
      <trkpt lat="52.277298" lon="10.51317">
        <time>2026-07-31T05:46:15.450000Z</time>
      </trkpt>
      <trkpt lat="52.27736" lon="10.513149">
        <time>2026-07-31T05:46:18.450000Z</time>
      </trkpt>
      <trkpt lat="52.277685" lon="10.513185">
        <time>2026-07-31T05:46:36.450000Z</time>
      </trkpt>
      <trkpt lat="52.278005" lon="10.513193">
        <time>2026-07-31T05:46:51.450000Z</time>
      </trkpt>
      <trkpt lat="52.278318" lon="10.513204">
        <time>2026-07-31T05:47:06.450000Z</time>
      </trkpt>
      <trkpt lat="52.278636" lon="10.513209">
        <time>2026-07-31T05:47:18.450000Z</time>
      </trkpt>
      <trkpt lat="52.278929" lon="10.513168">
        <time>2026-07-31T05:47:30.450000Z</time>
      </trkpt>
      <trkpt lat="52.279211" lon="10.513165">
        <time>2026-07-31T05:47:42.450000Z</time>
      </trkpt>
      <trkpt lat="52.279533" lon="10.513165">
        <time>2026-07-31T05:47:57.450000Z</time>
      </trkpt>
      <trkpt lat="52.279832" lon="10.513128">
        <time>2026-07-31T05:48:12.450000Z</time>
      </trkpt>
      <trkpt lat="52.280102" lon="10.513141">
        <time>2026-07-31T05:48:24.450000Z</time>
      </trkpt>
      <trkpt lat="52.280421" lon="10.513121">
        <time>2026-07-31T05:48:39.450000Z</time>
      </trkpt>
      <trkpt lat="52.280758" lon="10.513126">
        <time>2026-07-31T05:48:54.450000Z</time>
      </trkpt>
      <trkpt lat="52.281062" lon="10.513135">
        <time>2026-07-31T05:49:09.450000Z</time>
      </trkpt>
      <trkpt lat="52.281344" lon="10.513123">
        <time>2026-07-31T05:49:21.450000Z</time>
      </trkpt>
      <trkpt lat="52.281685" lon="10.513198">
        <time>2026-07-31T05:49:39.450000Z</time>
      </trkpt>
      <trkpt lat="52.28184" lon="10.513106">
        <time>2026-07-31T05:49:42.450000Z</time>
      </trkpt>
      <trkpt lat="52.282151" lon="10.513085">
        <time>2026-07-31T05:49:57.450000Z</time>
      </trkpt>
      <trkpt lat="52.282423" lon="10.513097">
        <time>2026-07-31T05:50:12.450000Z</time>
      </trkpt>
      <trkpt lat="52.28273" lon="10.513097">
        <time>2026-07-31T05:50:27.450000Z</time>
      </trkpt>
      <trkpt lat="52.283024" lon="10.513072">
        <time>2026-07-31T05:50:36.450000Z</time>
      </trkpt>
      <trkpt lat="52.283341" lon="10.513067">
        <time>2026-07-31T05:50:48.450000Z</time>
      </trkpt>
      <trkpt lat="52.283618" lon="10.513064">
        <time>2026-07-31T05:51:00.550000Z</time>
      </trkpt>
      <trkpt lat="52.283948" lon="10.513069">
        <time>2026-07-31T05:51:15.550000Z</time>
      </trkpt>
      <trkpt lat="52.284005" lon="10.513035">
        <time>2026-07-31T05:51:18.550000Z</time>
      </trkpt>
      <trkpt lat="52.284289" lon="10.513054">
        <time>2026-07-31T05:51:30.550000Z</time>
      </trkpt>
      <trkpt lat="52.28456" lon="10.513058">
        <time>2026-07-31T05:51:42.550000Z</time>
      </trkpt>
      <trkpt lat="52.284845" lon="10.513051">
        <time>2026-07-31T05:51:54.550000Z</time>
      </trkpt>
      <trkpt lat="52.285169" lon="10.513063">
        <time>2026-07-31T05:52:06.550000Z</time>
      </trkpt>
      <trkpt lat="52.285445" lon="10.513038">
        <time>2026-07-31T05:52:15.550000Z</time>
      </trkpt>
      <trkpt lat="52.285755" lon="10.513046">
        <time>2026-07-31T05:52:27.550000Z</time>
      </trkpt>
      <trkpt lat="52.28604" lon="10.513035">
        <time>2026-07-31T05:52:42.550000Z</time>
      </trkpt>
      <trkpt lat="52.286379" lon="10.513047">
        <time>2026-07-31T05:52:54.550000Z</time>
      </trkpt>
      <trkpt lat="52.286658" lon="10.513014">
        <time>2026-07-31T05:53:06.550000Z</time>
      </trkpt>
      <trkpt lat="52.286938" lon="10.513032">
        <time>2026-07-31T05:53:18.550000Z</time>
      </trkpt>
      <trkpt lat="52.287218" lon="10.513081">
        <time>2026-07-31T05:53:30.550000Z</time>
      </trkpt>
      <trkpt lat="52.287518" lon="10.513095">
        <time>2026-07-31T05:53:42.550000Z</time>
      </trkpt>
      <trkpt lat="52.287798" lon="10.513114">
        <time>2026-07-31T05:53:54.550000Z</time>
      </trkpt>
      <trkpt lat="52.288112" lon="10.513149">
        <time>2026-07-31T05:54:09.550000Z</time>
      </trkpt>
      <trkpt lat="52.288436" lon="10.513164">
        <time>2026-07-31T05:54:24.550000Z</time>
      </trkpt>
      <trkpt lat="52.288715" lon="10.5131">
        <time>2026-07-31T05:54:36.550000Z</time>
      </trkpt>
      <trkpt lat="52.288887" lon="10.512876">
        <time>2026-07-31T05:54:45.550000Z</time>
      </trkpt>
      <trkpt lat="52.288976" lon="10.51263">
        <time>2026-07-31T05:54:54.550000Z</time>
      </trkpt>
      <trkpt lat="52.289036" lon="10.512173">
        <time>2026-07-31T05:55:06.550000Z</time>
      </trkpt>
      <trkpt lat="52.28907" lon="10.511732">
        <time>2026-07-31T05:55:18.550000Z</time>
      </trkpt>
      <trkpt lat="52.289067" lon="10.511262">
        <time>2026-07-31T05:55:30.550000Z</time>
      </trkpt>
      <trkpt lat="52.289063" lon="10.511042">
        <time>2026-07-31T05:55:36.550000Z</time>
      </trkpt>
      <trkpt lat="52.289107" lon="10.510821">
        <time>2026-07-31T05:55:42.550000Z</time>
      </trkpt>
      <trkpt lat="52.289113" lon="10.510345">
        <time>2026-07-31T05:55:54.550000Z</time>
      </trkpt>
      <trkpt lat="52.289122" lon="10.509857">
        <time>2026-07-31T05:56:06.650000Z</time>
      </trkpt>
      <trkpt lat="52.289132" lon="10.509598">
        <time>2026-07-31T05:56:12.650000Z</time>
      </trkpt>
      <trkpt lat="52.289099" lon="10.509278">
        <time>2026-07-31T05:56:18.650000Z</time>
      </trkpt>
      <trkpt lat="52.289104" lon="10.509124">
        <time>2026-07-31T05:56:21.650000Z</time>
      </trkpt>
      <trkpt lat="52.289074" lon="10.508653">
        <time>2026-07-31T05:56:30.650000Z</time>
      </trkpt>
      <trkpt lat="52.289089" lon="10.508182">
        <time>2026-07-31T05:56:42.650000Z</time>
      </trkpt>
      <trkpt lat="52.289188" lon="10.507679">
        <time>2026-07-31T05:56:57.650000Z</time>
      </trkpt>
      <trkpt lat="52.289271" lon="10.507198">
        <time>2026-07-31T05:57:12.650000Z</time>
      </trkpt>
      <trkpt lat="52.289353" lon="10.506728">
        <time>2026-07-31T05:57:30.650000Z</time>
      </trkpt>
      <trkpt lat="52.289479" lon="10.50625">
        <time>2026-07-31T05:57:45.650000Z</time>
      </trkpt>
      <trkpt lat="52.289595" lon="10.505826">
        <time>2026-07-31T05:57:57.650000Z</time>
      </trkpt>
      <trkpt lat="52.289736" lon="10.505378">
        <time>2026-07-31T05:58:12.650000Z</time>
      </trkpt>
      <trkpt lat="52.28983" lon="10.505254">
        <time>2026-07-31T05:58:18.650000Z</time>
      </trkpt>
      <trkpt lat="52.290081" lon="10.505104">
        <time>2026-07-31T05:58:30.650000Z</time>
      </trkpt>
      <trkpt lat="52.290303" lon="10.504851">
        <time>2026-07-31T05:58:42.650000Z</time>
      </trkpt>
      <trkpt lat="52.290512" lon="10.504404">
        <time>2026-07-31T05:58:57.650000Z</time>
      </trkpt>
      <trkpt lat="52.290616" lon="10.504233">
        <time>2026-07-31T05:59:03.650000Z</time>
      </trkpt>
      <trkpt lat="52.290638" lon="10.504115">
        <time>2026-07-31T05:59:06.650000Z</time>
      </trkpt>
      <trkpt lat="52.290632" lon="10.503726">
        <time>2026-07-31T05:59:15.650000Z</time>
      </trkpt>
      <trkpt lat="52.290591" lon="10.503542">
        <time>2026-07-31T05:59:21.650000Z</time>
      </trkpt>
      <trkpt lat="52.290378" lon="10.50319">
        <time>2026-07-31T05:59:33.650000Z</time>
      </trkpt>
      <trkpt lat="52.290128" lon="10.502949">
        <time>2026-07-31T05:59:45.650000Z</time>
      </trkpt>
      <trkpt lat="52.289908" lon="10.502707">
        <time>2026-07-31T05:59:57.650000Z</time>
      </trkpt>
      <trkpt lat="52.289818" lon="10.502554">
        <time>2026-07-31T06:00:03.650000Z</time>
      </trkpt>
      <trkpt lat="52.289751" lon="10.502518">
        <time>2026-07-31T06:00:06.650000Z</time>
      </trkpt>
      <trkpt lat="52.289617" lon="10.502552">
        <time>2026-07-31T06:00:12.650000Z</time>
      </trkpt>
      <trkpt lat="52.289357" lon="10.502682">
        <time>2026-07-31T06:00:24.650000Z</time>
      </trkpt>
      <trkpt lat="52.289226" lon="10.502665">
        <time>2026-07-31T06:00:30.650000Z</time>
      </trkpt>
      <trkpt lat="52.289058" lon="10.502332">
        <time>2026-07-31T06:00:45.650000Z</time>
      </trkpt>
      <trkpt lat="52.288923" lon="10.501943">
        <time>2026-07-31T06:00:57.750000Z</time>
      </trkpt>
      <trkpt lat="52.288746" lon="10.501554">
        <time>2026-07-31T06:01:09.750000Z</time>
      </trkpt>
      <trkpt lat="52.288569" lon="10.501238">
        <time>2026-07-31T06:01:21.750000Z</time>
      </trkpt>
      <trkpt lat="52.288378" lon="10.501075">
        <time>2026-07-31T06:01:30.750000Z</time>
      </trkpt>
      <trkpt lat="52.288048" lon="10.500964">
        <time>2026-07-31T06:01:42.750000Z</time>
      </trkpt>
      <trkpt lat="52.287911" lon="10.500906">
        <time>2026-07-31T06:01:48.750000Z</time>
      </trkpt>
      <trkpt lat="52.287754" lon="10.501026">
        <time>2026-07-31T06:01:57.750000Z</time>
      </trkpt>
      <trkpt lat="52.287604" lon="10.50122">
        <time>2026-07-31T06:02:06.750000Z</time>
      </trkpt>
      <trkpt lat="52.287408" lon="10.501583">
        <time>2026-07-31T06:02:18.750000Z</time>
      </trkpt>
      <trkpt lat="52.287238" lon="10.502037">
        <time>2026-07-31T06:02:30.750000Z</time>
      </trkpt>
      <trkpt lat="52.287095" lon="10.502476">
        <time>2026-07-31T06:02:42.750000Z</time>
      </trkpt>
      <trkpt lat="52.287029" lon="10.502907">
        <time>2026-07-31T06:02:54.750000Z</time>
      </trkpt>
      <trkpt lat="52.286946" lon="10.503319">
        <time>2026-07-31T06:03:03.750000Z</time>
      </trkpt>
      <trkpt lat="52.286908" lon="10.50337">
        <time>2026-07-31T06:03:06.750000Z</time>
      </trkpt>
      <trkpt lat="52.286798" lon="10.503769">
        <time>2026-07-31T06:03:18.750000Z</time>
      </trkpt>
      <trkpt lat="52.286715" lon="10.504279">
        <time>2026-07-31T06:03:30.750000Z</time>
      </trkpt>
      <trkpt lat="52.286702" lon="10.504863">
        <time>2026-07-31T06:03:42.750000Z</time>
      </trkpt>
      <trkpt lat="52.286729" lon="10.505136">
        <time>2026-07-31T06:03:48.750000Z</time>
      </trkpt>
      <trkpt lat="52.286724" lon="10.505605">
        <time>2026-07-31T06:04:03.750000Z</time>
      </trkpt>
      <trkpt lat="52.286752" lon="10.505824">
        <time>2026-07-31T06:04:09.750000Z</time>
      </trkpt>
      <trkpt lat="52.286759" lon="10.506358">
        <time>2026-07-31T06:04:21.750000Z</time>
      </trkpt>
      <trkpt lat="52.286747" lon="10.506813">
        <time>2026-07-31T06:04:33.750000Z</time>
      </trkpt>
      <trkpt lat="52.286752" lon="10.507279">
        <time>2026-07-31T06:04:48.850000Z</time>
      </trkpt>
      <trkpt lat="52.286742" lon="10.507581">
        <time>2026-07-31T06:04:57.850000Z</time>
      </trkpt>
      <trkpt lat="52.286597" lon="10.507992">
        <time>2026-07-31T06:05:12.850000Z</time>
      </trkpt>
      <trkpt lat="52.286498" lon="10.508524">
        <time>2026-07-31T06:05:24.850000Z</time>
      </trkpt>
      <trkpt lat="52.286492" lon="10.508787">
        <time>2026-07-31T06:05:30.850000Z</time>
      </trkpt>
      <trkpt lat="52.286536" lon="10.509273">
        <time>2026-07-31T06:05:42.850000Z</time>
      </trkpt>
      <trkpt lat="52.286581" lon="10.509771">
        <time>2026-07-31T06:05:54.850000Z</time>
      </trkpt>
      <trkpt lat="52.286625" lon="10.51028">
        <time>2026-07-31T06:06:06.850000Z</time>
      </trkpt>
      <trkpt lat="52.286646" lon="10.510508">
        <time>2026-07-31T06:06:12.850000Z</time>
      </trkpt>
      <trkpt lat="52.286608" lon="10.510725">
        <time>2026-07-31T06:06:21.850000Z</time>
      </trkpt>
      <trkpt lat="52.286563" lon="10.510823">
        <time>2026-07-31T06:06:27.850000Z</time>
      </trkpt>
      <trkpt lat="52.286553" lon="10.510902">
        <time>2026-07-31T06:06:30.850000Z</time>
      </trkpt>
      <trkpt lat="52.286424" lon="10.511212">
        <time>2026-07-31T06:06:42.850000Z</time>
      </trkpt>
      <trkpt lat="52.286385" lon="10.511419">
        <time>2026-07-31T06:06:48.850000Z</time>
      </trkpt>
      <trkpt lat="52.286335" lon="10.511616">
        <time>2026-07-31T06:06:54.850000Z</time>
      </trkpt>
      <trkpt lat="52.286209" lon="10.511894">
        <time>2026-07-31T06:07:03.850000Z</time>
      </trkpt>
      <trkpt lat="52.286023" lon="10.512228">
        <time>2026-07-31T06:07:15.850000Z</time>
      </trkpt>
      <trkpt lat="52.285913" lon="10.512485">
        <time>2026-07-31T06:07:24.850000Z</time>
      </trkpt>
      <trkpt lat="52.285708" lon="10.512796">
        <time>2026-07-31T06:07:36.850000Z</time>
      </trkpt>
      <trkpt lat="52.285629" lon="10.512908">
        <time>2026-07-31T06:07:39.850000Z</time>
      </trkpt>
      <trkpt lat="52.285289" lon="10.513002">
        <time>2026-07-31T06:07:51.850000Z</time>
      </trkpt>
      <trkpt lat="52.284984" lon="10.513036">
        <time>2026-07-31T06:08:03.850000Z</time>
      </trkpt>
      <trkpt lat="52.284668" lon="10.513038">
        <time>2026-07-31T06:08:18.850000Z</time>
      </trkpt>
      <trkpt lat="52.284395" lon="10.513015">
        <time>2026-07-31T06:08:30.850000Z</time>
      </trkpt>
      <trkpt lat="52.284118" lon="10.513031">
        <time>2026-07-31T06:08:42.850000Z</time>
      </trkpt>
      <trkpt lat="52.283839" lon="10.513038">
        <time>2026-07-31T06:08:54.950000Z</time>
      </trkpt>
      <trkpt lat="52.283552" lon="10.513044">
        <time>2026-07-31T06:09:06.950000Z</time>
      </trkpt>
      <trkpt lat="52.28327" lon="10.513056">
        <time>2026-07-31T06:09:18.950000Z</time>
      </trkpt>
      <trkpt lat="52.283209" lon="10.513038">
        <time>2026-07-31T06:09:21.950000Z</time>
      </trkpt>
      <trkpt lat="52.28289" lon="10.513066">
        <time>2026-07-31T06:09:36.950000Z</time>
      </trkpt>
      <trkpt lat="52.282609" lon="10.513058">
        <time>2026-07-31T06:09:51.950000Z</time>
      </trkpt>
      <trkpt lat="52.282417" lon="10.51304">
        <time>2026-07-31T06:10:00.950000Z</time>
      </trkpt>
      <trkpt lat="52.282137" lon="10.513067">
        <time>2026-07-31T06:10:12.950000Z</time>
      </trkpt>
      <trkpt lat="52.281833" lon="10.51305">
        <time>2026-07-31T06:10:27.950000Z</time>
      </trkpt>
      <trkpt lat="52.28172117940837" lon="10.51306204447996">
        <time>2026-07-31T06:10:33.950000Z</time>
      </trkpt>
      <trkpt lat="52.28165337557195" lon="10.513117416205315">
        <time>2026-07-31T06:10:36.950000Z</time>
      </trkpt>
      <trkpt lat="52.281499" lon="10.513066">
        <time>2026-07-31T06:10:42.950000Z</time>
      </trkpt>
      <trkpt lat="52.281165" lon="10.513077">
        <time>2026-07-31T06:10:57.950000Z</time>
      </trkpt>
      <trkpt lat="52.280878" lon="10.513083">
        <time>2026-07-31T06:11:09.950000Z</time>
      </trkpt>
      <trkpt lat="52.280558" lon="10.513101">
        <time>2026-07-31T06:11:24.950000Z</time>
      </trkpt>
      <trkpt lat="52.280277" lon="10.513119">
        <time>2026-07-31T06:11:36.950000Z</time>
      </trkpt>
      <trkpt lat="52.279992" lon="10.513134">
        <time>2026-07-31T06:11:48.950000Z</time>
      </trkpt>
      <trkpt lat="52.279652" lon="10.51313">
        <time>2026-07-31T06:12:03.950000Z</time>
      </trkpt>
      <trkpt lat="52.279364" lon="10.513149">
        <time>2026-07-31T06:12:16.050000Z</time>
      </trkpt>
      <trkpt lat="52.279155" lon="10.513136">
        <time>2026-07-31T06:12:25.050000Z</time>
      </trkpt>
      <trkpt lat="52.27884" lon="10.513149">
        <time>2026-07-31T06:12:40.050000Z</time>
      </trkpt>
      <trkpt lat="52.278562" lon="10.51318">
        <time>2026-07-31T06:12:52.050000Z</time>
      </trkpt>
      <trkpt lat="52.278253" lon="10.513157">
        <time>2026-07-31T06:13:04.050000Z</time>
      </trkpt>
      <trkpt lat="52.277962" lon="10.513161">
        <time>2026-07-31T06:13:16.050000Z</time>
      </trkpt>
      <trkpt lat="52.277671" lon="10.513156">
        <time>2026-07-31T06:13:28.050000Z</time>
      </trkpt>
      <trkpt lat="52.277521" lon="10.513184">
        <time>2026-07-31T06:13:34.050000Z</time>
      </trkpt>
      <trkpt lat="52.277247" lon="10.51317">
        <time>2026-07-31T06:13:46.050000Z</time>
      </trkpt>
      <trkpt lat="52.276922" lon="10.513191">
        <time>2026-07-31T06:14:01.050000Z</time>
      </trkpt>
      <trkpt lat="52.276604" lon="10.513188">
        <time>2026-07-31T06:14:16.050000Z</time>
      </trkpt>
      <trkpt lat="52.276282" lon="10.513188">
        <time>2026-07-31T06:14:31.050000Z</time>
      </trkpt>
      <trkpt lat="52.275991" lon="10.513225">
        <time>2026-07-31T06:14:43.050000Z</time>
      </trkpt>
      <trkpt lat="52.27578" lon="10.513231">
        <time>2026-07-31T06:14:52.050000Z</time>
      </trkpt>
      <trkpt lat="52.275522" lon="10.513379">
        <time>2026-07-31T06:15:04.050000Z</time>
      </trkpt>
      <trkpt lat="52.275284" lon="10.513481">
        <time>2026-07-31T06:15:16.050000Z</time>
      </trkpt>
      <trkpt lat="52.275129" lon="10.513592">
        <time>2026-07-31T06:15:22.050000Z</time>
      </trkpt>
      <trkpt lat="52.275053" lon="10.513602">
        <time>2026-07-31T06:15:25.050000Z</time>
      </trkpt>
      <trkpt lat="52.274765" lon="10.513791">
        <time>2026-07-31T06:15:37.050000Z</time>
      </trkpt>
      <trkpt lat="52.274663" lon="10.51386">
        <time>2026-07-31T06:15:43.050000Z</time>
      </trkpt>
      <trkpt lat="52.274594" lon="10.513848">
        <time>2026-07-31T06:15:49.150000Z</time>
      </trkpt>
      <trkpt lat="52.274459" lon="10.513748">
        <time>2026-07-31T06:16:01.250000Z</time>
      </trkpt>
      <trkpt lat="52.274407" lon="10.513736">
        <time>2026-07-31T06:16:04.150000Z</time>
      </trkpt>
      <trkpt lat="52.274113" lon="10.51388">
        <time>2026-07-31T06:16:19.150000Z</time>
      </trkpt>
      <trkpt lat="52.273851" lon="10.514004">
        <time>2026-07-31T06:16:31.150000Z</time>
      </trkpt>
      <trkpt lat="52.273714" lon="10.514106">
        <time>2026-07-31T06:16:37.150000Z</time>
      </trkpt>
      <trkpt lat="52.27346" lon="10.514455">
        <time>2026-07-31T06:16:52.150000Z</time>
      </trkpt>
      <trkpt lat="52.27341" lon="10.514537">
        <time>2026-07-31T06:16:55.150000Z</time>
      </trkpt>
      <trkpt lat="52.273298" lon="10.514861">
        <time>2026-07-31T06:17:04.150000Z</time>
      </trkpt>
      <trkpt lat="52.273207" lon="10.515024">
        <time>2026-07-31T06:17:10.150000Z</time>
      </trkpt>
      <trkpt lat="52.27315" lon="10.515324">
        <time>2026-07-31T06:17:19.150000Z</time>
      </trkpt>
      <trkpt lat="52.273156" lon="10.515439">
        <time>2026-07-31T06:17:22.150000Z</time>
      </trkpt>
      <trkpt lat="52.273184" lon="10.515538">
        <time>2026-07-31T06:17:25.150000Z</time>
      </trkpt>
      <trkpt lat="52.273205" lon="10.515771">
        <time>2026-07-31T06:17:31.150000Z</time>
      </trkpt>
      <trkpt lat="52.273205" lon="10.516239">
        <time>2026-07-31T06:17:43.150000Z</time>
      </trkpt>
      <trkpt lat="52.273184" lon="10.516464">
        <time>2026-07-31T06:17:49.150000Z</time>
      </trkpt>
      <trkpt lat="52.273215" lon="10.516959">
        <time>2026-07-31T06:18:01.150000Z</time>
      </trkpt>
      <trkpt lat="52.273145" lon="10.517301">
        <time>2026-07-31T06:18:10.250000Z</time>
      </trkpt>
      <trkpt lat="52.273121" lon="10.517761">
        <time>2026-07-31T06:18:22.250000Z</time>
      </trkpt>
      <trkpt lat="52.27314192556969" lon="10.518240968827902">
        <time>2026-07-31T06:18:34.250000Z</time>
      </trkpt>
      <trkpt lat="52.27306" lon="10.518641">
        <time>2026-07-31T06:18:43.250000Z</time>
      </trkpt>
      <trkpt lat="52.273055" lon="10.518754">
        <time>2026-07-31T06:18:46.250000Z</time>
      </trkpt>
      <trkpt lat="52.27312" lon="10.518919">
        <time>2026-07-31T06:18:52.250000Z</time>
      </trkpt>
      <trkpt lat="52.273165" lon="10.518987">
        <time>2026-07-31T06:18:55.250000Z</time>
      </trkpt>
      <trkpt lat="52.27322096910935" lon="10.519216007887964">
        <time>2026-07-31T06:19:01.250000Z</time>
      </trkpt>
      <trkpt lat="52.273223" lon="10.519309">
        <time>2026-07-31T06:19:04.250000Z</time>
      </trkpt>
      <trkpt lat="52.273078" lon="10.519601">
        <time>2026-07-31T06:19:13.250000Z</time>
      </trkpt>
      <trkpt lat="52.272933" lon="10.520067">
        <time>2026-07-31T06:19:25.250000Z</time>
      </trkpt>
      <trkpt lat="52.272782" lon="10.520484">
        <time>2026-07-31T06:19:37.250000Z</time>
      </trkpt>
      <trkpt lat="52.272641" lon="10.520886">
        <time>2026-07-31T06:19:49.250000Z</time>
      </trkpt>
      <trkpt lat="52.272493" lon="10.521273">
        <time>2026-07-31T06:20:01.250000Z</time>
      </trkpt>
      <trkpt lat="52.272349" lon="10.521678">
        <time>2026-07-31T06:20:13.250000Z</time>
      </trkpt>
      <trkpt lat="52.272211" lon="10.522072">
        <time>2026-07-31T06:20:25.250000Z</time>
      </trkpt>
      <trkpt lat="52.272155" lon="10.522242">
        <time>2026-07-31T06:20:31.250000Z</time>
      </trkpt>
      <trkpt lat="52.272064" lon="10.522322">
        <time>2026-07-31T06:20:37.250000Z</time>
      </trkpt>
      <trkpt lat="52.271878" lon="10.522341">
        <time>2026-07-31T06:20:46.250000Z</time>
      </trkpt>
      <trkpt lat="52.271681" lon="10.522172">
        <time>2026-07-31T06:20:58.250000Z</time>
      </trkpt>
      <trkpt lat="52.271601" lon="10.52205">
        <time>2026-07-31T06:21:04.350000Z</time>
      </trkpt>
      <trkpt lat="52.271549" lon="10.522027">
        <time>2026-07-31T06:21:07.350000Z</time>
      </trkpt>
      <trkpt lat="52.271495" lon="10.522043">
        <time>2026-07-31T06:21:10.350000Z</time>
      </trkpt>
      <trkpt lat="52.271254" lon="10.522334">
        <time>2026-07-31T06:21:22.350000Z</time>
      </trkpt>
      <trkpt lat="52.271135" lon="10.522425">
        <time>2026-07-31T06:21:28.350000Z</time>
      </trkpt>
      <trkpt lat="52.270863" lon="10.522533">
        <time>2026-07-31T06:21:40.350000Z</time>
      </trkpt>
      <trkpt lat="52.27065" lon="10.522668">
        <time>2026-07-31T06:21:52.350000Z</time>
      </trkpt>
      <trkpt lat="52.270477" lon="10.522705">
        <time>2026-07-31T06:22:07.350000Z</time>
      </trkpt>
    </trkseg>
  </trk>
</gpx>