<?xml version="1.0" encoding="UTF-8"?>
<gpx xmlns="http://www.topografix.com/GPX/1/1" xmlns:gpxtpx="http://www.garmin.com/xmlschemas/TrackPointExtension/v1" xmlns:xsi="http://www.w3.org/2001/XMLSchema-instance" xsi:schemaLocation="http://www.topografix.com/GPX/1/1 http://www.topografix.com/GPX/1/1/gpx.xsd" version="1.1" creator="gpx.py -- https://github.com/tkrajina/gpxpy">
  <trk>
    <name>gpx from keep</name>
    <type>Run</type>
    <trkseg>
      <trkpt lat="52.26996" lon="10.522978">
        <time>2026-09-25T14:34:57.590000Z</time>
      </trkpt>
      <trkpt lat="52.270001" lon="10.523045">
        <time>2026-09-25T14:34:57.590000Z</time>
      </trkpt>
      <trkpt lat="52.270054" lon="10.523086">
        <time>2026-09-25T14:34:57.590000Z</time>
      </trkpt>
      <trkpt lat="52.270119" lon="10.523102">
        <time>2026-09-25T14:34:57.690000Z</time>
      </trkpt>
      <trkpt lat="52.270258" lon="10.523045">
        <time>2026-09-25T14:34:57.690000Z</time>
      </trkpt>
      <trkpt lat="52.270498" lon="10.5228">
        <time>2026-09-25T14:34:57.890000Z</time>
      </trkpt>
      <trkpt lat="52.270668" lon="10.522676">
        <time>2026-09-25T14:34:57.890000Z</time>
      </trkpt>
      <trkpt lat="52.270833" lon="10.522529">
        <time>2026-09-25T14:34:57.990000Z</time>
      </trkpt>
      <trkpt lat="52.271168" lon="10.522414">
        <time>2026-09-25T14:34:58.090000Z</time>
      </trkpt>
      <trkpt lat="52.27129" lon="10.522293">
        <time>2026-09-25T14:34:58.190000Z</time>
      </trkpt>
      <trkpt lat="52.271483" lon="10.522019">
        <time>2026-09-25T14:34:58.290000Z</time>
      </trkpt>
      <trkpt lat="52.271547" lon="10.521961">
        <time>2026-09-25T14:34:58.290000Z</time>
      </trkpt>
      <trkpt lat="52.271625" lon="10.521965">
        <time>2026-09-25T14:34:58.390000Z</time>
      </trkpt>
      <trkpt lat="52.271695" lon="10.522048">
        <time>2026-09-25T14:34:58.390000Z</time>
      </trkpt>
      <trkpt lat="52.271794" lon="10.522233">
        <time>2026-09-25T14:34:58.390000Z</time>
      </trkpt>
      <trkpt lat="52.271886" lon="10.522329">
        <time>2026-09-25T14:34:58.490000Z</time>
      </trkpt>
      <trkpt lat="52.271937" lon="10.522331">
        <time>2026-09-25T14:34:58.490000Z</time>
      </trkpt>
      <trkpt lat="52.27206" lon="10.522253">
        <time>2026-09-25T14:34:58.590000Z</time>
      </trkpt>
      <trkpt lat="52.272246" lon="10.521888">
        <time>2026-09-25T14:34:58.690000Z</time>
      </trkpt>
      <trkpt lat="52.272402" lon="10.521471">
        <time>2026-09-25T14:34:58.790000Z</time>
      </trkpt>
      <trkpt lat="52.27244" lon="10.521382">
        <time>2026-09-25T14:34:58.890000Z</time>
      </trkpt>
      <trkpt lat="52.272457" lon="10.521262">
        <time>2026-09-25T14:34:58.890000Z</time>
      </trkpt>
      <trkpt lat="52.272621" lon="10.520841">
        <time>2026-09-25T14:34:59.090000Z</time>
      </trkpt>
      <trkpt lat="52.272799" lon="10.520394">
        <time>2026-09-25T14:34:59.190000Z</time>
      </trkpt>
      <trkpt lat="52.272964" lon="10.519979">
        <time>2026-09-25T14:34:59.290000Z</time>
      </trkpt>
      <trkpt lat="52.273104" lon="10.51957">
        <time>2026-09-25T14:34:59.390000Z</time>
      </trkpt>
      <trkpt lat="52.273169" lon="10.519398">
        <time>2026-09-25T14:34:59.490000Z</time>
      </trkpt>
      <trkpt lat="52.273175" lon="10.519237">
        <time>2026-09-25T14:34:59.590000Z</time>
      </trkpt>
      <trkpt lat="52.272981" lon="10.518774">
        <time>2026-09-25T14:34:59.690000Z</time>
      </trkpt>
      <trkpt lat="52.272961" lon="10.518654">
        <time>2026-09-25T14:34:59.690000Z</time>
      </trkpt>
      <trkpt lat="52.273041" lon="10.518147">
        <time>2026-09-25T14:34:59.890000Z</time>
      </trkpt>
      <trkpt lat="52.273097" lon="10.517687">
        <time>2026-09-25T14:34:59.990000Z</time>
      </trkpt>
      <trkpt lat="52.27316" lon="10.517174">
        <time>2026-09-25T14:35:00.090000Z</time>
      </trkpt>
      <trkpt lat="52.273186" lon="10.517089">
        <time>2026-09-25T14:35:00.190000Z</time>
      </trkpt>
      <trkpt lat="52.273178" lon="10.516714">
        <time>2026-09-25T14:35:00.190000Z</time>
      </trkpt>
      <trkpt lat="52.273229" lon="10.51626">
        <time>2026-09-25T14:35:00.390000Z</time>
      </trkpt>
      <trkpt lat="52.273249" lon="10.51591">
        <time>2026-09-25T14:35:00.490000Z</time>
      </trkpt>
      <trkpt lat="52.273242" lon="10.515802">
        <time>2026-09-25T14:35:00.490000Z</time>
      </trkpt>
      <trkpt lat="52.273207" lon="10.515734">
        <time>2026-09-25T14:35:00.490000Z</time>
      </trkpt>
      <trkpt lat="52.273142" lon="10.515686">
        <time>2026-09-25T14:35:00.490000Z</time>
      </trkpt>
      <trkpt lat="52.273125" lon="10.515594">
        <time>2026-09-25T14:35:00.590000Z</time>
      </trkpt>
      <trkpt lat="52.273218" lon="10.515116">
        <time>2026-09-25T14:35:00.690000Z</time>
      </trkpt>
      <trkpt lat="52.273354" lon="10.51468">
        <time>2026-09-25T14:35:00.790000Z</time>
      </trkpt>
      <trkpt lat="52.273389" lon="10.514568">
        <time>2026-09-25T14:35:00.790000Z</time>
      </trkpt>
      <trkpt lat="52.273595" lon="10.514249">
        <time>2026-09-25T14:35:00.990000Z</time>
      </trkpt>
      <trkpt lat="52.27376" lon="10.514062">
        <time>2026-09-25T14:35:01.090000Z</time>
      </trkpt>
      <trkpt lat="52.273889" lon="10.514019">
        <time>2026-09-25T14:35:01.090000Z</time>
      </trkpt>
      <trkpt lat="52.273938" lon="10.51405">
        <time>2026-09-25T14:35:01.090000Z</time>
      </trkpt>
      <trkpt lat="52.274078" lon="10.51399">
        <time>2026-09-25T14:35:01.190000Z</time>
      </trkpt>
      <trkpt lat="52.274384" lon="10.513744">
        <time>2026-09-25T14:35:01.290000Z</time>
      </trkpt>
      <trkpt lat="52.274455" lon="10.513741">
        <time>2026-09-25T14:35:01.390000Z</time>
      </trkpt>
      <trkpt lat="52.274629" lon="10.513857">
        <time>2026-09-25T14:35:01.390000Z</time>
      </trkpt>
      <trkpt lat="52.274696" lon="10.51386">
        <time>2026-09-25T14:35:01.490000Z</time>
      </trkpt>
      <trkpt lat="52.275006" lon="10.513667">
        <time>2026-09-25T14:35:01.590000Z</time>
      </trkpt>
      <trkpt lat="52.275325" lon="10.513502">
        <time>2026-09-25T14:35:01.790000Z</time>
      </trkpt>
      <trkpt lat="52.275648" lon="10.513317">
        <time>2026-09-25T14:35:01.890000Z</time>
      </trkpt>
      <trkpt lat="52.275857" lon="10.51325">
        <time>2026-09-25T14:35:01.990000Z</time>
      </trkpt>
      <trkpt lat="52.276144" lon="10.513229">
        <time>2026-09-25T14:35:02.090000Z</time>
      </trkpt>
      <trkpt lat="52.276427" lon="10.513217">
        <time>2026-09-25T14:35:02.290000Z</time>
      </trkpt>
      <trkpt lat="52.276763" lon="10.513211">
        <time>2026-09-25T14:35:02.390000Z</time>
      </trkpt>
      <trkpt lat="52.277043" lon="10.51321">
        <time>2026-09-25T14:35:02.490000Z</time>
      </trkpt>
      <trkpt lat="52.277317" lon="10.513172">
        <time>2026-09-25T14:35:02.590000Z</time>
      </trkpt>
      <trkpt lat="52.277587" lon="10.513159">
        <time>2026-09-25T14:35:02.790000Z</time>
      </trkpt>
      <trkpt lat="52.277862" lon="10.513167">
        <time>2026-09-25T14:35:02.890000Z</time>
      </trkpt>
      <trkpt lat="52.278146" lon="10.51311">
        <time>2026-09-25T14:35:02.990000Z</time>
      </trkpt>
      <trkpt lat="52.278439" lon="10.513105">
        <time>2026-09-25T14:35:03.090000Z</time>
      </trkpt>
      <trkpt lat="52.278765" lon="10.513124">
        <time>2026-09-25T14:35:03.290000Z</time>
      </trkpt>
      <trkpt lat="52.279023" lon="10.513116">
        <time>2026-09-25T14:35:03.390000Z</time>
      </trkpt>
      <trkpt lat="52.279095" lon="10.513068">
        <time>2026-09-25T14:35:03.390000Z</time>
      </trkpt>
      <trkpt lat="52.279405" lon="10.513115">
        <time>2026-09-25T14:35:03.590000Z</time>
      </trkpt>
      <trkpt lat="52.279675" lon="10.513142">
        <time>2026-09-25T14:35:03.690000Z</time>
      </trkpt>
      <trkpt lat="52.280012" lon="10.513133">
        <time>2026-09-25T14:35:03.790000Z</time>
      </trkpt>
      <trkpt lat="52.280309" lon="10.513127">
        <time>2026-09-25T14:35:03.990000Z</time>
      </trkpt>
      <trkpt lat="52.280598" lon="10.513122">
        <time>2026-09-25T14:35:04.090000Z</time>
      </trkpt>
      <trkpt lat="52.280872" lon="10.513124">
        <time>2026-09-25T14:35:04.190000Z</time>
      </trkpt>
      <trkpt lat="52.281168" lon="10.513122">
        <time>2026-09-25T14:35:04.290000Z</time>
      </trkpt>
      <trkpt lat="52.281474" lon="10.513085">
        <time>2026-09-25T14:35:04.390000Z</time>
      </trkpt>
      <trkpt lat="52.281738" lon="10.513067">
        <time>2026-09-25T14:35:04.590000Z</time>
      </trkpt>
      <trkpt lat="52.282035" lon="10.513105">
        <time>2026-09-25T14:35:04.690000Z</time>
      </trkpt>
      <trkpt lat="52.282309" lon="10.513104">
        <time>2026-09-25T14:35:04.790000Z</time>
      </trkpt>
      <trkpt lat="52.282636" lon="10.513091">
        <time>2026-09-25T14:35:04.990000Z</time>
      </trkpt>
      <trkpt lat="52.282908" lon="10.513089">
        <time>2026-09-25T14:35:05.090000Z</time>
      </trkpt>
      <trkpt lat="52.28323" lon="10.513077">
        <time>2026-09-25T14:35:05.190000Z</time>
      </trkpt>
      <trkpt lat="52.283422" lon="10.513154">
        <time>2026-09-25T14:35:05.290000Z</time>
      </trkpt>
      <trkpt lat="52.283745" lon="10.513106">
        <time>2026-09-25T14:35:05.490000Z</time>
      </trkpt>
      <trkpt lat="52.284078" lon="10.513074">
        <time>2026-09-25T14:35:05.590000Z</time>
      </trkpt>
      <trkpt lat="52.28436" lon="10.513048">
        <time>2026-09-25T14:35:05.690000Z</time>
      </trkpt>
      <trkpt lat="52.284633" lon="10.513046">
        <time>2026-09-25T14:35:05.890000Z</time>
      </trkpt>
      <trkpt lat="52.284965" lon="10.513056">
        <time>2026-09-25T14:35:05.990000Z</time>
      </trkpt>
      <trkpt lat="52.285299" lon="10.513036">
        <time>2026-09-25T14:35:06.190000Z</time>
      </trkpt>
      <trkpt lat="52.285569" lon="10.513029">
        <time>2026-09-25T14:35:06.290000Z</time>
      </trkpt>
      <trkpt lat="52.285845" lon="10.513026">
        <time>2026-09-25T14:35:06.390000Z</time>
      </trkpt>
      <trkpt lat="52.286121" lon="10.513005">
        <time>2026-09-25T14:35:06.490000Z</time>
      </trkpt>
      <trkpt lat="52.286393" lon="10.512999">
        <time>2026-09-25T14:35:06.590000Z</time>
      </trkpt>
      <trkpt lat="52.286689" lon="10.513017">
        <time>2026-09-25T14:35:06.790000Z</time>
      </trkpt>
      <trkpt lat="52.28696" lon="10.513033">
        <time>2026-09-25T14:35:06.890000Z</time>
      </trkpt>
      <trkpt lat="52.287094" lon="10.513093">
        <time>2026-09-25T14:35:06.890000Z</time>
      </trkpt>
      <trkpt lat="52.287373" lon="10.513095">
        <time>2026-09-25T14:35:07.090000Z</time>
      </trkpt>
      <trkpt lat="52.287699" lon="10.513106">
        <time>2026-09-25T14:35:07.190000Z</time>
      </trkpt>
      <trkpt lat="52.288022" lon="10.513148">
        <time>2026-09-25T14:35:07.390000Z</time>
      </trkpt>
      <trkpt lat="52.288303" lon="10.513172">
        <time>2026-09-25T14:35:07.490000Z</time>
      </trkpt>
      <trkpt lat="52.288594" lon="10.51315">
        <time>2026-09-25T14:35:07.590000Z</time>
      </trkpt>
      <trkpt lat="52.288733" lon="10.513105">
        <time>2026-09-25T14:35:07.690000Z</time>
      </trkpt>
      <trkpt lat="52.288795" lon="10.513058">
        <time>2026-09-25T14:35:07.690000Z</time>
      </trkpt>
      <trkpt lat="52.288927" lon="10.512814">
        <time>2026-09-25T14:35:07.790000Z</time>
      </trkpt>
      <trkpt lat="52.28901" lon="10.5124">
        <time>2026-09-25T14:35:07.890000Z</time>
      </trkpt>
      <trkpt lat="52.289051" lon="10.511947">
        <time>2026-09-25T14:35:07.990000Z</time>
      </trkpt>
      <trkpt lat="52.289067" lon="10.511405">
        <time>2026-09-25T14:35:08.190000Z</time>
      </trkpt>
      <trkpt lat="52.289066" lon="10.510998">
        <time>2026-09-25T14:35:08.290000Z</time>
      </trkpt>
      <trkpt lat="52.289113" lon="10.510805">
        <time>2026-09-25T14:35:08.390000Z</time>
      </trkpt>
      <trkpt lat="52.289104" lon="10.510363">
        <time>2026-09-25T14:35:08.490000Z</time>
      </trkpt>
      <trkpt lat="52.289075" lon="10.509904">
        <time>2026-09-25T14:35:08.590000Z</time>
      </trkpt>
      <trkpt lat="52.289053" lon="10.509433">
        <time>2026-09-25T14:35:08.690000Z</time>
      </trkpt>
      <trkpt lat="52.289034" lon="10.508962">
        <time>2026-09-25T14:35:08.790000Z</time>
      </trkpt>
      <trkpt lat="52.289041" lon="10.508502">
        <time>2026-09-25T14:35:08.990000Z</time>
      </trkpt>
      <trkpt lat="52.289129" lon="10.508059">
        <time>2026-09-25T14:35:09.090000Z</time>
      </trkpt>
      <trkpt lat="52.289203" lon="10.507612">
        <time>2026-09-25T14:35:09.190000Z</time>
      </trkpt>
      <trkpt lat="52.289286" lon="10.507101">
        <time>2026-09-25T14:35:09.290000Z</time>
      </trkpt>
      <trkpt lat="52.289371" lon="10.50658">
        <time>2026-09-25T14:35:09.490000Z</time>
      </trkpt>
      <trkpt lat="52.289504" lon="10.506091">
        <time>2026-09-25T14:35:09.590000Z</time>
      </trkpt>
      <trkpt lat="52.289641" lon="10.505608">
        <time>2026-09-25T14:35:09.790000Z</time>
      </trkpt>
      <trkpt lat="52.289749" lon="10.505338">
        <time>2026-09-25T14:35:09.890000Z</time>
      </trkpt>
      <trkpt lat="52.289853" lon="10.505214">
        <time>2026-09-25T14:35:09.890000Z</time>
      </trkpt>
      <trkpt lat="52.290114" lon="10.505058">
        <time>2026-09-25T14:35:10.090000Z</time>
      </trkpt>
      <trkpt lat="52.290375" lon="10.504728">
        <time>2026-09-25T14:35:10.190000Z</time>
      </trkpt>
      <trkpt lat="52.290599" lon="10.504314">
        <time>2026-09-25T14:35:10.390000Z</time>
      </trkpt>
      <trkpt lat="52.29067" lon="10.504131">
        <time>2026-09-25T14:35:10.390000Z</time>
      </trkpt>
      <trkpt lat="52.290678" lon="10.504039">
        <time>2026-09-25T14:35:10.490000Z</time>
      </trkpt>
      <trkpt lat="52.290631" lon="10.503636">
        <time>2026-09-25T14:35:10.590000Z</time>
      </trkpt>
      <trkpt lat="52.290461" lon="10.503285">
        <time>2026-09-25T14:35:10.690000Z</time>
      </trkpt>
      <trkpt lat="52.290234" lon="10.503045">
        <time>2026-09-25T14:35:10.790000Z</time>
      </trkpt>
      <trkpt lat="52.289998" lon="10.502824">
        <time>2026-09-25T14:35:10.890000Z</time>
      </trkpt>
      <trkpt lat="52.289787" lon="10.502555">
        <time>2026-09-25T14:35:11.090000Z</time>
      </trkpt>
      <trkpt lat="52.289722" lon="10.502513">
        <time>2026-09-25T14:35:11.090000Z</time>
      </trkpt>
      <trkpt lat="52.289654" lon="10.50253">
        <time>2026-09-25T14:35:11.090000Z</time>
      </trkpt>
      <trkpt lat="52.289551" lon="10.502625">
        <time>2026-09-25T14:35:11.190000Z</time>
      </trkpt>
      <trkpt lat="52.289326" lon="10.502704">
        <time>2026-09-25T14:35:11.290000Z</time>
      </trkpt>
      <trkpt lat="52.28919" lon="10.502677">
        <time>2026-09-25T14:35:11.290000Z</time>
      </trkpt>
      <trkpt lat="52.289093" lon="10.502517">
        <time>2026-09-25T14:35:11.390000Z</time>
      </trkpt>
      <trkpt lat="52.288927" lon="10.502043">
        <time>2026-09-25T14:35:11.490000Z</time>
      </trkpt>
      <trkpt lat="52.288773" lon="10.501673">
        <time>2026-09-25T14:35:11.690000Z</time>
      </trkpt>
      <trkpt lat="52.288596" lon="10.501315">
        <time>2026-09-25T14:35:11.790000Z</time>
      </trkpt>
      <trkpt lat="52.288425" lon="10.501115">
        <time>2026-09-25T14:35:11.890000Z</time>
      </trkpt>
      <trkpt lat="52.288161" lon="10.500988">
        <time>2026-09-25T14:35:11.990000Z</time>
      </trkpt>
      <trkpt lat="52.287898" lon="10.500929">
        <time>2026-09-25T14:35:12.090000Z</time>
      </trkpt>
      <trkpt lat="52.287836" lon="10.500951">
        <time>2026-09-25T14:35:12.090000Z</time>
      </trkpt>
      <trkpt lat="52.287572" lon="10.501258">
        <time>2026-09-25T14:35:12.290000Z</time>
      </trkpt>
      <trkpt lat="52.287367" lon="10.50167">
        <time>2026-09-25T14:35:12.390000Z</time>
      </trkpt>
      <trkpt lat="52.287194" lon="10.502142">
        <time>2026-09-25T14:35:12.590000Z</time>
      </trkpt>
      <trkpt lat="52.287112" lon="10.502457">
        <time>2026-09-25T14:35:12.690000Z</time>
      </trkpt>
      <trkpt lat="52.287027" lon="10.502923">
        <time>2026-09-25T14:35:12.790000Z</time>
      </trkpt>
      <trkpt lat="52.286943" lon="10.50336">
        <time>2026-09-25T14:35:12.890000Z</time>
      </trkpt>
      <trkpt lat="52.286833" lon="10.503802">
        <time>2026-09-25T14:35:12.990000Z</time>
      </trkpt>
      <trkpt lat="52.286772" lon="10.50424">
        <time>2026-09-25T14:35:13.190000Z</time>
      </trkpt>
      <trkpt lat="52.286745" lon="10.504748">
        <time>2026-09-25T14:35:13.290000Z</time>
      </trkpt>
      <trkpt lat="52.286754" lon="10.505231">
        <time>2026-09-25T14:35:13.490000Z</time>
      </trkpt>
      <trkpt lat="52.286773" lon="10.505676">
        <time>2026-09-25T14:35:13.590000Z</time>
      </trkpt>
      <trkpt lat="52.28678" lon="10.506122">
        <time>2026-09-25T14:35:13.690000Z</time>
      </trkpt>
      <trkpt lat="52.286793" lon="10.506583">
        <time>2026-09-25T14:35:13.790000Z</time>
      </trkpt>
      <trkpt lat="52.286783" lon="10.506914">
        <time>2026-09-25T14:35:13.890000Z</time>
      </trkpt>
      <trkpt lat="52.286757" lon="10.50724">
        <time>2026-09-25T14:35:13.990000Z</time>
      </trkpt>
      <trkpt lat="52.286757" lon="10.507589">
        <time>2026-09-25T14:35:14.090000Z</time>
      </trkpt>
      <trkpt lat="52.286597" lon="10.508072">
        <time>2026-09-25T14:35:14.190000Z</time>
      </trkpt>
      <trkpt lat="52.286499" lon="10.508485">
        <time>2026-09-25T14:35:14.390000Z</time>
      </trkpt>
      <trkpt lat="52.286487" lon="10.509029">
        <time>2026-09-25T14:35:14.490000Z</time>
      </trkpt>
      <trkpt lat="52.286514" lon="10.509471">
        <time>2026-09-25T14:35:14.590000Z</time>
      </trkpt>
      <trkpt lat="52.286542" lon="10.509918">
        <time>2026-09-25T14:35:14.690000Z</time>
      </trkpt>
      <trkpt lat="52.286598" lon="10.51045">
        <time>2026-09-25T14:35:14.890000Z</time>
      </trkpt>
      <trkpt lat="52.286621" lon="10.510619">
        <time>2026-09-25T14:35:14.990000Z</time>
      </trkpt>
      <trkpt lat="52.286618" lon="10.51073">
        <time>2026-09-25T14:35:14.990000Z</time>
      </trkpt>
      <trkpt lat="52.286488" lon="10.511099">
        <time>2026-09-25T14:35:15.090000Z</time>
      </trkpt>
      <trkpt lat="52.286374" lon="10.511618">
        <time>2026-09-25T14:35:15.290000Z</time>
      </trkpt>
      <trkpt lat="52.286219" lon="10.512012">
        <time>2026-09-25T14:35:15.390000Z</time>
      </trkpt>
      <trkpt lat="52.286028" lon="10.512369">
        <time>2026-09-25T14:35:15.490000Z</time>
      </trkpt>
      <trkpt lat="52.285811" lon="10.512692">
        <time>2026-09-25T14:35:15.590000Z</time>
      </trkpt>
      <trkpt lat="52.285612" lon="10.512984">
        <time>2026-09-25T14:35:15.690000Z</time>
      </trkpt>
      <trkpt lat="52.28534" lon="10.513009">
        <time>2026-09-25T14:35:15.890000Z</time>
      </trkpt>
      <trkpt lat="52.285065" lon="10.513013">
        <time>2026-09-25T14:35:15.990000Z</time>
      </trkpt>
      <trkpt lat="52.284792" lon="10.513022">
        <time>2026-09-25T14:35:16.090000Z</time>
      </trkpt>
      <trkpt lat="52.284465" lon="10.513018">
        <time>2026-09-25T14:35:16.190000Z</time>
      </trkpt>
      <trkpt lat="52.284141" lon="10.513023">
        <time>2026-09-25T14:35:16.390000Z</time>
      </trkpt>
      <trkpt lat="52.283836" lon="10.513036">
        <time>2026-09-25T14:35:16.490000Z</time>
      </trkpt>
      <trkpt lat="52.283512" lon="10.513032">
        <time>2026-09-25T14:35:16.690000Z</time>
      </trkpt>
      <trkpt lat="52.283177" lon="10.513037">
        <time>2026-09-25T14:35:16.790000Z</time>
      </trkpt>
      <trkpt lat="52.282902" lon="10.513033">
        <time>2026-09-25T14:35:16.990000Z</time>
      </trkpt>
      <trkpt lat="52.28263" lon="10.513053">
        <time>2026-09-25T14:35:17.090000Z</time>
      </trkpt>
      <trkpt lat="52.282298" lon="10.513063">
        <time>2026-09-25T14:35:17.190000Z</time>
      </trkpt>
      <trkpt lat="52.282021" lon="10.51307">
        <time>2026-09-25T14:35:17.390000Z</time>
      </trkpt>
      <trkpt lat="52.28175" lon="10.513062">
        <time>2026-09-25T14:35:17.490000Z</time>
      </trkpt>
      <trkpt lat="52.281617" lon="10.513033">
        <time>2026-09-25T14:35:17.490000Z</time>
      </trkpt>
      <trkpt lat="52.281327" lon="10.51307">
        <time>2026-09-25T14:35:17.690000Z</time>
      </trkpt>
      <trkpt lat="52.281037" lon="10.513082">
        <time>2026-09-25T14:35:17.790000Z</time>
      </trkpt>
      <trkpt lat="52.280749" lon="10.513096">
        <time>2026-09-25T14:35:17.890000Z</time>
      </trkpt>
      <trkpt lat="52.280449" lon="10.513097">
        <time>2026-09-25T14:35:17.990000Z</time>
      </trkpt>
      <trkpt lat="52.280152" lon="10.51309">
        <time>2026-09-25T14:35:18.090000Z</time>
      </trkpt>
      <trkpt lat="52.27982" lon="10.513102">
        <time>2026-09-25T14:35:18.290000Z</time>
      </trkpt>
      <trkpt lat="52.279497" lon="10.513119">
        <time>2026-09-25T14:35:18.390000Z</time>
      </trkpt>
      <trkpt lat="52.279183" lon="10.513124">
        <time>2026-09-25T14:35:18.590000Z</time>
      </trkpt>
      <trkpt lat="52.279055" lon="10.513127">
        <time>2026-09-25T14:35:18.590000Z</time>
      </trkpt>
      <trkpt lat="52.278988" lon="10.513057">
        <time>2026-09-25T14:35:18.690000Z</time>
      </trkpt>
      <trkpt lat="52.278665" lon="10.513107">
        <time>2026-09-25T14:35:18.790000Z</time>
      </trkpt>
      <trkpt lat="52.27839" lon="10.513135">
        <time>2026-09-25T14:35:18.890000Z</time>
      </trkpt>
      <trkpt lat="52.278111" lon="10.513127">
        <time>2026-09-25T14:35:19.090000Z</time>
      </trkpt>
      <trkpt lat="52.277831" lon="10.513124">
        <time>2026-09-25T14:35:19.190000Z</time>
      </trkpt>
      <trkpt lat="52.277555" lon="10.513125">
        <time>2026-09-25T14:35:19.290000Z</time>
      </trkpt>
      <trkpt lat="52.27723" lon="10.513125">
        <time>2026-09-25T14:35:19.490000Z</time>
      </trkpt>
      <trkpt lat="52.276893" lon="10.513162">
        <time>2026-09-25T14:35:19.590000Z</time>
      </trkpt>
      <trkpt lat="52.276616" lon="10.513162">
        <time>2026-09-25T14:35:19.690000Z</time>
      </trkpt>
      <trkpt lat="52.276336" lon="10.513175">
        <time>2026-09-25T14:35:19.790000Z</time>
      </trkpt>
      <trkpt lat="52.276009" lon="10.513193">
        <time>2026-09-25T14:35:19.990000Z</time>
      </trkpt>
      <trkpt lat="52.275677" lon="10.513265">
        <time>2026-09-25T14:35:20.090000Z</time>
      </trkpt>
      <trkpt lat="52.275368" lon="10.513452">
        <time>2026-09-25T14:35:20.290000Z</time>
      </trkpt>
      <trkpt lat="52.275112" lon="10.513598">
        <time>2026-09-25T14:35:20.390000Z</time>
      </trkpt>
      <trkpt lat="52.274842" lon="10.513726">
        <time>2026-09-25T14:35:20.490000Z</time>
      </trkpt>
      <trkpt lat="52.274632" lon="10.513844">
        <time>2026-09-25T14:35:20.590000Z</time>
      </trkpt>
      <trkpt lat="52.27457" lon="10.513822">
        <time>2026-09-25T14:35:20.690000Z</time>
      </trkpt>
      <trkpt lat="52.274457" lon="10.513725">
        <time>2026-09-25T14:35:20.690000Z</time>
      </trkpt>
      <trkpt lat="52.274388" lon="10.513702">
        <time>2026-09-25T14:35:20.690000Z</time>
      </trkpt>
      <trkpt lat="52.274321" lon="10.513724">
        <time>2026-09-25T14:35:20.790000Z</time>
      </trkpt>
      <trkpt lat="52.274072" lon="10.513915">
        <time>2026-09-25T14:35:20.890000Z</time>
      </trkpt>
      <trkpt lat="52.273738" lon="10.514059">
        <time>2026-09-25T14:35:20.990000Z</time>
      </trkpt>
      <trkpt lat="52.273524" lon="10.514333">
        <time>2026-09-25T14:35:21.190000Z</time>
      </trkpt>
      <trkpt lat="52.273466" lon="10.514402">
        <time>2026-09-25T14:35:21.190000Z</time>
      </trkpt>
      <trkpt lat="52.273342" lon="10.51464">
        <time>2026-09-25T14:35:21.290000Z</time>
      </trkpt>
      <trkpt lat="52.273211" lon="10.515131">
        <time>2026-09-25T14:35:21.390000Z</time>
      </trkpt>
      <trkpt lat="52.273161" lon="10.515475">
        <time>2026-09-25T14:35:21.490000Z</time>
      </trkpt>
      <trkpt lat="52.273131" lon="10.515594">
        <time>2026-09-25T14:35:21.590000Z</time>
      </trkpt>
      <trkpt lat="52.273137" lon="10.515685">
        <time>2026-09-25T14:35:21.590000Z</time>
      </trkpt>
      <trkpt lat="52.273261" lon="10.515874">
        <time>2026-09-25T14:35:21.690000Z</time>
      </trkpt>
      <trkpt lat="52.273246" lon="10.516359">
        <time>2026-09-25T14:35:21.790000Z</time>
      </trkpt>
      <trkpt lat="52.273225" lon="10.516668">
        <time>2026-09-25T14:35:21.890000Z</time>
      </trkpt>
      <trkpt lat="52.273231" lon="10.516795">
        <time>2026-09-25T15:15:34.090000Z</time>
      </trkpt>
      <trkpt lat="52.273194" lon="10.517271">
        <time>2026-09-25T15:15:46.090000Z</time>
      </trkpt>
      <trkpt lat="52.273141" lon="10.517714">
        <time>2026-09-25T15:15:58.090000Z</time>
      </trkpt>
      <trkpt lat="52.273091" lon="10.518199">
        <time>2026-09-25T15:16:13.090000Z</time>
      </trkpt>
      <trkpt lat="52.273025" lon="10.518678">
        <time>2026-09-25T15:16:25.090000Z</time>
      </trkpt>
      <trkpt lat="52.2731" lon="10.519119">
        <time>2026-09-25T15:16:37.090000Z</time>
      </trkpt>
      <trkpt lat="52.273168" lon="10.519318">
        <time>2026-09-25T15:16:43.090000Z</time>
      </trkpt>
      <trkpt lat="52.273159" lon="10.519398">
        <time>2026-09-25T15:16:46.090000Z</time>
      </trkpt>
      <trkpt lat="52.273006" lon="10.519735">
        <time>2026-09-25T15:16:58.090000Z</time>
      </trkpt>
      <trkpt lat="52.27285" lon="10.520197">
        <time>2026-09-25T15:17:13.090000Z</time>
      </trkpt>
      <trkpt lat="52.272683" lon="10.52065">
        <time>2026-09-25T15:17:28.090000Z</time>
      </trkpt>
      <trkpt lat="52.272546" lon="10.52102">
        <time>2026-09-25T15:17:40.090000Z</time>
      </trkpt>
      <trkpt lat="52.272392" lon="10.521399">
        <time>2026-09-25T15:17:52.090000Z</time>
      </trkpt>
      <trkpt lat="52.272259" lon="10.521794">
        <time>2026-09-25T15:18:04.090000Z</time>
      </trkpt>
      <trkpt lat="52.272087" lon="10.522255">
        <time>2026-09-25T15:18:19.090000Z</time>
      </trkpt>
      <trkpt lat="52.272038" lon="10.522325">
        <time>2026-09-25T15:18:22.090000Z</time>
      </trkpt>
      <trkpt lat="52.271903" lon="10.522372">
        <time>2026-09-25T15:18:28.090000Z</time>
      </trkpt>
      <trkpt lat="52.271832" lon="10.522347">
        <time>2026-09-25T15:18:31.090000Z</time>
      </trkpt>
      <trkpt lat="52.271769" lon="10.522286">
        <time>2026-09-25T15:18:34.090000Z</time>
      </trkpt>
      <trkpt lat="52.27167" lon="10.522231">
        <time>2026-09-25T15:18:40.090000Z</time>
      </trkpt>
      <trkpt lat="52.271549" lon="10.522019">
        <time>2026-09-25T15:18:49.090000Z</time>
      </trkpt>
      <trkpt lat="52.271489" lon="10.521989">
        <time>2026-09-25T15:18:52.090000Z</time>
      </trkpt>
      <trkpt lat="52.271247" lon="10.522308">
        <time>2026-09-25T15:19:04.090000Z</time>
      </trkpt>
      <trkpt lat="52.271137" lon="10.522417">
        <time>2026-09-25T15:19:10.090000Z</time>
      </trkpt>
      <trkpt lat="52.270873" lon="10.522469">
        <time>2026-09-25T15:19:22.090000Z</time>
      </trkpt>
      <trkpt lat="52.27081" lon="10.522515">
        <time>2026-09-25T15:19:25.090000Z</time>
      </trkpt>
      <trkpt lat="52.270696" lon="10.522647">
        <time>2026-09-25T15:19:31.090000Z</time>
      </trkpt>
      <trkpt lat="52.270384" lon="10.522862">
        <time>2026-09-25T15:19:46.090000Z</time>
      </trkpt>
      <trkpt lat="52.270128" lon="10.523032">
        <time>2026-09-25T15:19:58.090000Z</time>
      </trkpt>
      <trkpt lat="52.269943" lon="10.523111">
        <time>2026-09-25T15:20:07.090000Z</time>
      </trkpt>
      <trkpt lat="52.26989" lon="10.523051">
        <time>2026-09-25T15:20:13.090000Z</time>
      </trkpt>
      <trkpt lat="52.26989" lon="10.523051">
        <time>2026-09-25T15:20:15.590000Z</time>
      </trkpt>
    </trkseg>
  </trk>
</gpx>