<?xml version="1.0" encoding="UTF-8"?>
<gpx xmlns="http://www.topografix.com/GPX/1/1" xmlns:gpxtpx="http://www.garmin.com/xmlschemas/TrackPointExtension/v1" xmlns:xsi="http://www.w3.org/2001/XMLSchema-instance" xsi:schemaLocation="http://www.topografix.com/GPX/1/1 http://www.topografix.com/GPX/1/1/gpx.xsd" version="1.1" creator="gpx.py -- https://github.com/tkrajina/gpxpy">
  <trk>
    <name>gpx from keep</name>
    <type>Run</type>
    <trkseg>
      <trkpt lat="52.269936" lon="10.523049">
        <time>2026-08-09T07:44:54.329000Z</time>
      </trkpt>
      <trkpt lat="52.269979" lon="10.523116">
        <time>2026-08-09T07:44:57.329000Z</time>
      </trkpt>
      <trkpt lat="52.27004" lon="10.52314">
        <time>2026-08-09T07:45:00.329000Z</time>
      </trkpt>
      <trkpt lat="52.270325" lon="10.522989">
        <time>2026-08-09T07:45:12.329000Z</time>
      </trkpt>
      <trkpt lat="52.270551" lon="10.522831">
        <time>2026-08-09T07:45:21.329000Z</time>
      </trkpt>
      <trkpt lat="52.270817" lon="10.522539">
        <time>2026-08-09T07:45:36.329000Z</time>
      </trkpt>
      <trkpt lat="52.271069" lon="10.522418">
        <time>2026-08-09T07:45:48.429000Z</time>
      </trkpt>
      <trkpt lat="52.271197" lon="10.522418">
        <time>2026-08-09T07:45:54.429000Z</time>
      </trkpt>
      <trkpt lat="52.271273" lon="10.522332">
        <time>2026-08-09T07:46:00.429000Z</time>
      </trkpt>
      <trkpt lat="52.271495" lon="10.522025">
        <time>2026-08-09T07:46:15.429000Z</time>
      </trkpt>
      <trkpt lat="52.271661" lon="10.522042">
        <time>2026-08-09T07:46:21.429000Z</time>
      </trkpt>
      <trkpt lat="52.271752" lon="10.52214">
        <time>2026-08-09T07:46:27.429000Z</time>
      </trkpt>
      <trkpt lat="52.27186" lon="10.522289">
        <time>2026-08-09T07:46:33.429000Z</time>
      </trkpt>
      <trkpt lat="52.271935" lon="10.522311">
        <time>2026-08-09T07:46:36.429000Z</time>
      </trkpt>
      <trkpt lat="52.2720445629288" lon="10.522303388099317">
        <time>2026-08-09T07:46:39.429000Z</time>
      </trkpt>
      <trkpt lat="52.27214574398854" lon="10.522232577101743">
        <time>2026-08-09T07:46:42.429000Z</time>
      </trkpt>
      <trkpt lat="52.272194789969" lon="10.522121329207927">
        <time>2026-08-09T07:46:45.429000Z</time>
      </trkpt>
      <trkpt lat="52.272285" lon="10.521688">
        <time>2026-08-09T07:47:00.429000Z</time>
      </trkpt>
      <trkpt lat="52.272386" lon="10.521452">
        <time>2026-08-09T07:47:09.529000Z</time>
      </trkpt>
      <trkpt lat="52.272482" lon="10.521319">
        <time>2026-08-09T07:47:15.529000Z</time>
      </trkpt>
      <trkpt lat="52.272602" lon="10.521084">
        <time>2026-08-09T07:47:24.529000Z</time>
      </trkpt>
      <trkpt lat="52.272655" lon="10.520934">
        <time>2026-08-09T07:47:30.529000Z</time>
      </trkpt>
      <trkpt lat="52.272697" lon="10.52087">
        <time>2026-08-09T07:47:33.529000Z</time>
      </trkpt>
      <trkpt lat="52.272826" lon="10.520441">
        <time>2026-08-09T07:47:48.529000Z</time>
      </trkpt>
      <trkpt lat="52.272864" lon="10.520267">
        <time>2026-08-09T07:47:54.529000Z</time>
      </trkpt>
      <trkpt lat="52.272969" lon="10.520006">
        <time>2026-08-09T07:48:06.529000Z</time>
      </trkpt>
      <trkpt lat="52.273098" lon="10.519512">
        <time>2026-08-09T07:48:21.529000Z</time>
      </trkpt>
      <trkpt lat="52.273114" lon="10.519412">
        <time>2026-08-09T07:48:24.529000Z</time>
      </trkpt>
      <trkpt lat="52.273198" lon="10.519238">
        <time>2026-08-09T07:48:30.529000Z</time>
      </trkpt>
      <trkpt lat="52.273228" lon="10.519138">
        <time>2026-08-09T07:48:33.529000Z</time>
      </trkpt>
      <trkpt lat="52.273085" lon="10.518896">
        <time>2026-08-09T07:48:42.529000Z</time>
      </trkpt>
      <trkpt lat="52.273024" lon="10.51871">
        <time>2026-08-09T07:48:48.529000Z</time>
      </trkpt>
      <trkpt lat="52.273045" lon="10.518204">
        <time>2026-08-09T07:49:03.529000Z</time>
      </trkpt>
      <trkpt lat="52.273096" lon="10.517719">
        <time>2026-08-09T07:49:18.529000Z</time>
      </trkpt>
      <trkpt lat="52.273109" lon="10.517611">
        <time>2026-08-09T07:49:21.529000Z</time>
      </trkpt>
      <trkpt lat="52.273139" lon="10.517526">
        <time>2026-08-09T07:49:24.529000Z</time>
      </trkpt>
      <trkpt lat="52.273154" lon="10.517417">
        <time>2026-08-09T07:49:27.529000Z</time>
      </trkpt>
      <trkpt lat="52.273136" lon="10.517205">
        <time>2026-08-09T07:49:33.529000Z</time>
      </trkpt>
      <trkpt lat="52.273189" lon="10.516864">
        <time>2026-08-09T07:49:45.529000Z</time>
      </trkpt>
      <trkpt lat="52.273182" lon="10.516773">
        <time>2026-08-09T07:49:48.529000Z</time>
      </trkpt>
      <trkpt lat="52.273203" lon="10.516688">
        <time>2026-08-09T07:49:51.529000Z</time>
      </trkpt>
      <trkpt lat="52.273249" lon="10.516595">
        <time>2026-08-09T07:49:54.529000Z</time>
      </trkpt>
      <trkpt lat="52.273227" lon="10.516488">
        <time>2026-08-09T07:49:57.529000Z</time>
      </trkpt>
      <trkpt lat="52.27326" lon="10.515985">
        <time>2026-08-09T07:50:12.529000Z</time>
      </trkpt>
      <trkpt lat="52.273258" lon="10.515812">
        <time>2026-08-09T07:50:18.529000Z</time>
      </trkpt>
      <trkpt lat="52.273228" lon="10.515727">
        <time>2026-08-09T07:50:21.529000Z</time>
      </trkpt>
      <trkpt lat="52.27317" lon="10.515698">
        <time>2026-08-09T07:50:24.529000Z</time>
      </trkpt>
      <trkpt lat="52.273144" lon="10.515622">
        <time>2026-08-09T07:50:27.529000Z</time>
      </trkpt>
      <trkpt lat="52.273227" lon="10.515164">
        <time>2026-08-09T07:50:42.529000Z</time>
      </trkpt>
      <trkpt lat="52.273358" lon="10.514709">
        <time>2026-08-09T07:50:57.529000Z</time>
      </trkpt>
      <trkpt lat="52.273424" lon="10.514544">
        <time>2026-08-09T07:51:03.529000Z</time>
      </trkpt>
      <trkpt lat="52.273667" lon="10.51419">
        <time>2026-08-09T07:51:30.529000Z</time>
      </trkpt>
      <trkpt lat="52.273829" lon="10.514037">
        <time>2026-08-09T07:51:48.529000Z</time>
      </trkpt>
      <trkpt lat="52.273896" lon="10.514016">
        <time>2026-08-09T07:51:54.529000Z</time>
      </trkpt>
      <trkpt lat="52.273965" lon="10.514053">
        <time>2026-08-09T07:52:00.529000Z</time>
      </trkpt>
      <trkpt lat="52.274209" lon="10.513844">
        <time>2026-08-09T07:52:12.529000Z</time>
      </trkpt>
      <trkpt lat="52.274405" lon="10.513738">
        <time>2026-08-09T07:52:30.529000Z</time>
      </trkpt>
      <trkpt lat="52.27453" lon="10.513774">
        <time>2026-08-09T07:52:42.529000Z</time>
      </trkpt>
      <trkpt lat="52.274635" lon="10.513862">
        <time>2026-08-09T07:52:54.529000Z</time>
      </trkpt>
      <trkpt lat="52.274944" lon="10.513698">
        <time>2026-08-09T07:53:12.529000Z</time>
      </trkpt>
      <trkpt lat="52.275268" lon="10.513532">
        <time>2026-08-09T07:53:24.529000Z</time>
      </trkpt>
      <trkpt lat="52.27545" lon="10.513457">
        <time>2026-08-09T07:53:30.529000Z</time>
      </trkpt>
      <trkpt lat="52.275571" lon="10.513338">
        <time>2026-08-09T07:53:39.529000Z</time>
      </trkpt>
      <trkpt lat="52.275823" lon="10.513226">
        <time>2026-08-09T07:53:48.529000Z</time>
      </trkpt>
      <trkpt lat="52.276104" lon="10.513209">
        <time>2026-08-09T07:54:00.529000Z</time>
      </trkpt>
      <trkpt lat="52.276351" lon="10.513244">
        <time>2026-08-09T07:54:12.529000Z</time>
      </trkpt>
      <trkpt lat="52.276484" lon="10.513211">
        <time>2026-08-09T07:54:18.529000Z</time>
      </trkpt>
      <trkpt lat="52.276592" lon="10.513251">
        <time>2026-08-09T07:54:24.529000Z</time>
      </trkpt>
      <trkpt lat="52.276862" lon="10.513216">
        <time>2026-08-09T07:54:36.529000Z</time>
      </trkpt>
      <trkpt lat="52.277173" lon="10.513205">
        <time>2026-08-09T07:54:51.529000Z</time>
      </trkpt>
      <trkpt lat="52.277477" lon="10.513163">
        <time>2026-08-09T07:55:06.529000Z</time>
      </trkpt>
      <trkpt lat="52.277795" lon="10.513129">
        <time>2026-08-09T07:55:21.629000Z</time>
      </trkpt>
      <trkpt lat="52.277972" lon="10.51318">
        <time>2026-08-09T07:55:30.629000Z</time>
      </trkpt>
      <trkpt lat="52.278246" lon="10.513139">
        <time>2026-08-09T07:55:42.629000Z</time>
      </trkpt>
      <trkpt lat="52.2784" lon="10.513116">
        <time>2026-08-09T07:55:48.629000Z</time>
      </trkpt>
      <trkpt lat="52.278679" lon="10.51321">
        <time>2026-08-09T07:56:00.629000Z</time>
      </trkpt>
      <trkpt lat="52.278829" lon="10.513172">
        <time>2026-08-09T07:56:06.629000Z</time>
      </trkpt>
      <trkpt lat="52.279103" lon="10.513147">
        <time>2026-08-09T07:56:18.629000Z</time>
      </trkpt>
      <trkpt lat="52.279339" lon="10.513132">
        <time>2026-08-09T07:56:27.629000Z</time>
      </trkpt>
      <trkpt lat="52.279468" lon="10.513173">
        <time>2026-08-09T07:56:33.629000Z</time>
      </trkpt>
      <trkpt lat="52.279608" lon="10.513133">
        <time>2026-08-09T07:56:39.629000Z</time>
      </trkpt>
      <trkpt lat="52.279939" lon="10.513116">
        <time>2026-08-09T07:56:54.629000Z</time>
      </trkpt>
      <trkpt lat="52.280115" lon="10.513141">
        <time>2026-08-09T07:57:03.629000Z</time>
      </trkpt>
      <trkpt lat="52.280452" lon="10.513123">
        <time>2026-08-09T07:57:18.629000Z</time>
      </trkpt>
      <trkpt lat="52.280726" lon="10.513124">
        <time>2026-08-09T07:57:30.629000Z</time>
      </trkpt>
      <trkpt lat="52.28106" lon="10.513098">
        <time>2026-08-09T07:57:45.629000Z</time>
      </trkpt>
      <trkpt lat="52.281208" lon="10.513077">
        <time>2026-08-09T07:57:51.629000Z</time>
      </trkpt>
      <trkpt lat="52.281507" lon="10.513104">
        <time>2026-08-09T07:58:03.629000Z</time>
      </trkpt>
      <trkpt lat="52.281645385260234" lon="10.513074077478702">
        <time>2026-08-09T07:58:15.629000Z</time>
      </trkpt>
      <trkpt lat="52.281948" lon="10.513108">
        <time>2026-08-09T07:58:24.629000Z</time>
      </trkpt>
      <trkpt lat="52.282012" lon="10.513108">
        <time>2026-08-09T07:58:27.629000Z</time>
      </trkpt>
      <trkpt lat="52.282321" lon="10.513101">
        <time>2026-08-09T07:58:42.629000Z</time>
      </trkpt>
      <trkpt lat="52.282618" lon="10.513082">
        <time>2026-08-09T07:58:57.629000Z</time>
      </trkpt>
      <trkpt lat="52.282897" lon="10.513072">
        <time>2026-08-09T07:59:09.629000Z</time>
      </trkpt>
      <trkpt lat="52.283221" lon="10.513074">
        <time>2026-08-09T07:59:24.629000Z</time>
      </trkpt>
      <trkpt lat="52.283528" lon="10.513075">
        <time>2026-08-09T07:59:39.629000Z</time>
      </trkpt>
      <trkpt lat="52.283818" lon="10.513069">
        <time>2026-08-09T07:59:54.729000Z</time>
      </trkpt>
      <trkpt lat="52.28411" lon="10.513062">
        <time>2026-08-09T08:00:09.729000Z</time>
      </trkpt>
      <trkpt lat="52.284409" lon="10.513072">
        <time>2026-08-09T08:00:24.729000Z</time>
      </trkpt>
      <trkpt lat="52.284696" lon="10.513058">
        <time>2026-08-09T08:00:39.729000Z</time>
      </trkpt>
      <trkpt lat="52.285021" lon="10.513043">
        <time>2026-08-09T08:00:54.729000Z</time>
      </trkpt>
      <trkpt lat="52.285361" lon="10.513048">
        <time>2026-08-09T08:01:09.729000Z</time>
      </trkpt>
      <trkpt lat="52.285497" lon="10.513042">
        <time>2026-08-09T08:01:15.729000Z</time>
      </trkpt>
      <trkpt lat="52.28577" lon="10.513056">
        <time>2026-08-09T08:01:30.729000Z</time>
      </trkpt>
      <trkpt lat="52.286028" lon="10.512993">
        <time>2026-08-09T08:01:42.729000Z</time>
      </trkpt>
      <trkpt lat="52.286228" lon="10.513017">
        <time>2026-08-09T08:01:51.729000Z</time>
      </trkpt>
      <trkpt lat="52.286282" lon="10.513048">
        <time>2026-08-09T08:01:54.729000Z</time>
      </trkpt>
      <trkpt lat="52.286413" lon="10.513008">
        <time>2026-08-09T08:02:00.729000Z</time>
      </trkpt>
      <trkpt lat="52.286697" lon="10.513017">
        <time>2026-08-09T08:02:12.729000Z</time>
      </trkpt>
      <trkpt lat="52.286798" lon="10.513048">
        <time>2026-08-09T08:02:18.729000Z</time>
      </trkpt>
      <trkpt lat="52.286953" lon="10.513021">
        <time>2026-08-09T08:02:24.729000Z</time>
      </trkpt>
      <trkpt lat="52.287303" lon="10.513071">
        <time>2026-08-09T08:02:39.729000Z</time>
      </trkpt>
      <trkpt lat="52.287582" lon="10.513085">
        <time>2026-08-09T08:02:51.729000Z</time>
      </trkpt>
      <trkpt lat="52.287978" lon="10.513133">
        <time>2026-08-09T08:03:10.529000Z</time>
      </trkpt>
      <trkpt lat="52.288262" lon="10.513164">
        <time>2026-08-09T08:03:22.529000Z</time>
      </trkpt>
      <trkpt lat="52.28858" lon="10.513162">
        <time>2026-08-09T08:03:37.529000Z</time>
      </trkpt>
      <trkpt lat="52.288755" lon="10.513121">
        <time>2026-08-09T08:03:46.529000Z</time>
      </trkpt>
      <trkpt lat="52.288807" lon="10.513071">
        <time>2026-08-09T08:03:49.529000Z</time>
      </trkpt>
      <trkpt lat="52.288985" lon="10.512767">
        <time>2026-08-09T08:04:01.529000Z</time>
      </trkpt>
      <trkpt lat="52.289054" lon="10.512309">
        <time>2026-08-09T08:04:16.529000Z</time>
      </trkpt>
      <trkpt lat="52.289083" lon="10.511805">
        <time>2026-08-09T08:04:31.529000Z</time>
      </trkpt>
      <trkpt lat="52.289079" lon="10.511314">
        <time>2026-08-09T08:04:46.529000Z</time>
      </trkpt>
      <trkpt lat="52.289075" lon="10.51112">
        <time>2026-08-09T08:04:52.529000Z</time>
      </trkpt>
      <trkpt lat="52.289131" lon="10.510818">
        <time>2026-08-09T08:05:01.529000Z</time>
      </trkpt>
      <trkpt lat="52.289111" lon="10.510348">
        <time>2026-08-09T08:05:13.529000Z</time>
      </trkpt>
      <trkpt lat="52.289093" lon="10.509891">
        <time>2026-08-09T08:05:25.529000Z</time>
      </trkpt>
      <trkpt lat="52.289066" lon="10.509342">
        <time>2026-08-09T08:05:40.529000Z</time>
      </trkpt>
      <trkpt lat="52.289055" lon="10.50889">
        <time>2026-08-09T08:05:52.529000Z</time>
      </trkpt>
      <trkpt lat="52.289097" lon="10.508445">
        <time>2026-08-09T08:06:04.529000Z</time>
      </trkpt>
      <trkpt lat="52.289159" lon="10.508015">
        <time>2026-08-09T08:06:16.529000Z</time>
      </trkpt>
      <trkpt lat="52.28923" lon="10.507509">
        <time>2026-08-09T08:06:31.529000Z</time>
      </trkpt>
      <trkpt lat="52.289314" lon="10.506989">
        <time>2026-08-09T08:06:46.529000Z</time>
      </trkpt>
      <trkpt lat="52.289368" lon="10.506549">
        <time>2026-08-09T08:06:58.529000Z</time>
      </trkpt>
      <trkpt lat="52.289513" lon="10.506171">
        <time>2026-08-09T08:07:10.529000Z</time>
      </trkpt>
      <trkpt lat="52.289586" lon="10.505977">
        <time>2026-08-09T08:07:16.529000Z</time>
      </trkpt>
      <trkpt lat="52.289661" lon="10.505613">
        <time>2026-08-09T08:07:25.529000Z</time>
      </trkpt>
      <trkpt lat="52.289797" lon="10.505322">
        <time>2026-08-09T08:07:34.529000Z</time>
      </trkpt>
      <trkpt lat="52.289863" lon="10.505241">
        <time>2026-08-09T08:07:37.529000Z</time>
      </trkpt>
      <trkpt lat="52.290102" lon="10.505082">
        <time>2026-08-09T08:07:46.529000Z</time>
      </trkpt>
      <trkpt lat="52.290284" lon="10.504858">
        <time>2026-08-09T08:07:55.529000Z</time>
      </trkpt>
      <trkpt lat="52.290484" lon="10.504535">
        <time>2026-08-09T08:08:07.529000Z</time>
      </trkpt>
      <trkpt lat="52.29066" lon="10.504223">
        <time>2026-08-09T08:08:19.629000Z</time>
      </trkpt>
      <trkpt lat="52.290675" lon="10.504108">
        <time>2026-08-09T08:08:22.629000Z</time>
      </trkpt>
      <trkpt lat="52.290662" lon="10.503878">
        <time>2026-08-09T08:08:28.629000Z</time>
      </trkpt>
      <trkpt lat="52.290671" lon="10.503785">
        <time>2026-08-09T08:08:31.629000Z</time>
      </trkpt>
      <trkpt lat="52.290567" lon="10.503508">
        <time>2026-08-09T08:08:40.629000Z</time>
      </trkpt>
      <trkpt lat="52.290469" lon="10.503346">
        <time>2026-08-09T08:08:46.629000Z</time>
      </trkpt>
      <trkpt lat="52.290202" lon="10.503058">
        <time>2026-08-09T08:09:01.629000Z</time>
      </trkpt>
      <trkpt lat="52.289976" lon="10.502828">
        <time>2026-08-09T08:09:13.629000Z</time>
      </trkpt>
      <trkpt lat="52.289822" lon="10.502626">
        <time>2026-08-09T08:09:22.629000Z</time>
      </trkpt>
      <trkpt lat="52.289756" lon="10.502577">
        <time>2026-08-09T08:09:25.629000Z</time>
      </trkpt>
      <trkpt lat="52.289676" lon="10.502564">
        <time>2026-08-09T08:09:28.629000Z</time>
      </trkpt>
      <trkpt lat="52.289399" lon="10.502642">
        <time>2026-08-09T08:09:40.629000Z</time>
      </trkpt>
      <trkpt lat="52.289177" lon="10.502664">
        <time>2026-08-09T08:09:49.629000Z</time>
      </trkpt>
      <trkpt lat="52.28907" lon="10.502387">
        <time>2026-08-09T08:10:04.629000Z</time>
      </trkpt>
      <trkpt lat="52.288985" lon="10.502122">
        <time>2026-08-09T08:10:13.629000Z</time>
      </trkpt>
      <trkpt lat="52.288803" lon="10.501706">
        <time>2026-08-09T08:10:25.629000Z</time>
      </trkpt>
      <trkpt lat="52.288605" lon="10.501355">
        <time>2026-08-09T08:10:37.629000Z</time>
      </trkpt>
      <trkpt lat="52.288423" lon="10.50113">
        <time>2026-08-09T08:10:46.629000Z</time>
      </trkpt>
      <trkpt lat="52.28816" lon="10.501005">
        <time>2026-08-09T08:10:58.629000Z</time>
      </trkpt>
      <trkpt lat="52.287945" lon="10.50093">
        <time>2026-08-09T08:11:10.629000Z</time>
      </trkpt>
      <trkpt lat="52.287888" lon="10.500929">
        <time>2026-08-09T08:11:13.629000Z</time>
      </trkpt>
      <trkpt lat="52.287623" lon="10.501245">
        <time>2026-08-09T08:11:28.629000Z</time>
      </trkpt>
      <trkpt lat="52.287424" lon="10.501564">
        <time>2026-08-09T08:11:40.629000Z</time>
      </trkpt>
      <trkpt lat="52.287245" lon="10.50195">
        <time>2026-08-09T08:11:55.629000Z</time>
      </trkpt>
      <trkpt lat="52.287132" lon="10.502384">
        <time>2026-08-09T08:12:10.629000Z</time>
      </trkpt>
      <trkpt lat="52.287062" lon="10.502818">
        <time>2026-08-09T08:12:25.629000Z</time>
      </trkpt>
      <trkpt lat="52.286963" lon="10.503231">
        <time>2026-08-09T08:12:40.729000Z</time>
      </trkpt>
      <trkpt lat="52.286877" lon="10.50367">
        <time>2026-08-09T08:12:52.729000Z</time>
      </trkpt>
      <trkpt lat="52.28678" lon="10.504145">
        <time>2026-08-09T08:13:07.729000Z</time>
      </trkpt>
      <trkpt lat="52.286739" lon="10.504382">
        <time>2026-08-09T08:13:16.729000Z</time>
      </trkpt>
      <trkpt lat="52.286748" lon="10.504738">
        <time>2026-08-09T08:13:28.729000Z</time>
      </trkpt>
      <trkpt lat="52.286754" lon="10.505258">
        <time>2026-08-09T08:13:43.729000Z</time>
      </trkpt>
      <trkpt lat="52.286787" lon="10.505682">
        <time>2026-08-09T08:13:55.729000Z</time>
      </trkpt>
      <trkpt lat="52.28678910640947" lon="10.506128924706694">
        <time>2026-08-09T08:14:07.729000Z</time>
      </trkpt>
      <trkpt lat="52.28679497105612" lon="10.506584856453022">
        <time>2026-08-09T08:14:19.729000Z</time>
      </trkpt>
      <trkpt lat="52.28677795594254" lon="10.507053900184403">
        <time>2026-08-09T08:14:31.729000Z</time>
      </trkpt>
      <trkpt lat="52.286773" lon="10.507495">
        <time>2026-08-09T08:14:43.729000Z</time>
      </trkpt>
      <trkpt lat="52.286756" lon="10.50759">
        <time>2026-08-09T08:14:46.829000Z</time>
      </trkpt>
      <trkpt lat="52.286615" lon="10.508">
        <time>2026-08-09T08:15:01.729000Z</time>
      </trkpt>
      <trkpt lat="52.286501" lon="10.508487">
        <time>2026-08-09T08:15:16.729000Z</time>
      </trkpt>
      <trkpt lat="52.286477" lon="10.508682">
        <time>2026-08-09T08:15:22.729000Z</time>
      </trkpt>
      <trkpt lat="52.286494" lon="10.509194">
        <time>2026-08-09T08:15:37.729000Z</time>
      </trkpt>
      <trkpt lat="52.286532" lon="10.509657">
        <time>2026-08-09T08:15:49.729000Z</time>
      </trkpt>
      <trkpt lat="52.286574" lon="10.510163">
        <time>2026-08-09T08:16:04.729000Z</time>
      </trkpt>
      <trkpt lat="52.286582" lon="10.510369">
        <time>2026-08-09T08:16:10.729000Z</time>
      </trkpt>
      <trkpt lat="52.286606" lon="10.510468">
        <time>2026-08-09T08:16:13.729000Z</time>
      </trkpt>
      <trkpt lat="52.286641" lon="10.510408">
        <time>2026-08-09T08:16:16.729000Z</time>
      </trkpt>
      <trkpt lat="52.286587" lon="10.509917">
        <time>2026-08-09T08:16:28.729000Z</time>
      </trkpt>
      <trkpt lat="52.286546" lon="10.509459">
        <time>2026-08-09T08:16:40.829000Z</time>
      </trkpt>
      <trkpt lat="52.28652" lon="10.509119">
        <time>2026-08-09T08:16:49.829000Z</time>
      </trkpt>
      <trkpt lat="52.286556" lon="10.508999">
        <time>2026-08-09T08:16:55.829000Z</time>
      </trkpt>
      <trkpt lat="52.286538" lon="10.508759">
        <time>2026-08-09T08:17:04.829000Z</time>
      </trkpt>
      <trkpt lat="52.286556" lon="10.508409">
        <time>2026-08-09T08:17:13.829000Z</time>
      </trkpt>
      <trkpt lat="52.28672" lon="10.50795">
        <time>2026-08-09T08:17:28.829000Z</time>
      </trkpt>
      <trkpt lat="52.28679" lon="10.507743">
        <time>2026-08-09T08:17:34.829000Z</time>
      </trkpt>
      <trkpt lat="52.286781" lon="10.507225">
        <time>2026-08-09T08:17:49.829000Z</time>
      </trkpt>
      <trkpt lat="52.286805" lon="10.506764">
        <time>2026-08-09T08:18:04.829000Z</time>
      </trkpt>
      <trkpt lat="52.286807" lon="10.5065">
        <time>2026-08-09T08:18:13.829000Z</time>
      </trkpt>
      <trkpt lat="52.286793" lon="10.506424">
        <time>2026-08-09T08:18:16.829000Z</time>
      </trkpt>
      <trkpt lat="52.286796" lon="10.5059">
        <time>2026-08-09T08:18:31.829000Z</time>
      </trkpt>
      <trkpt lat="52.286796" lon="10.505455">
        <time>2026-08-09T08:18:43.829000Z</time>
      </trkpt>
      <trkpt lat="52.286762" lon="10.504914">
        <time>2026-08-09T08:18:58.829000Z</time>
      </trkpt>
      <trkpt lat="52.286753" lon="10.504622">
        <time>2026-08-09T08:19:07.829000Z</time>
      </trkpt>
      <trkpt lat="52.28677" lon="10.504498">
        <time>2026-08-09T08:19:10.829000Z</time>
      </trkpt>
      <trkpt lat="52.286819" lon="10.504302">
        <time>2026-08-09T08:19:16.829000Z</time>
      </trkpt>
      <trkpt lat="52.286857" lon="10.503919">
        <time>2026-08-09T08:19:28.829000Z</time>
      </trkpt>
      <trkpt lat="52.286953" lon="10.50365">
        <time>2026-08-09T08:19:37.829000Z</time>
      </trkpt>
      <trkpt lat="52.286985" lon="10.503382">
        <time>2026-08-09T08:19:43.829000Z</time>
      </trkpt>
      <trkpt lat="52.28697869399078" lon="10.50329403381282">
        <time>2026-08-09T08:19:46.829000Z</time>
      </trkpt>
      <trkpt lat="52.287051" lon="10.502938">
        <time>2026-08-09T08:19:52.829000Z</time>
      </trkpt>
      <trkpt lat="52.28709" lon="10.502828">
        <time>2026-08-09T08:19:55.829000Z</time>
      </trkpt>
      <trkpt lat="52.287172" lon="10.502324">
        <time>2026-08-09T08:20:07.829000Z</time>
      </trkpt>
      <trkpt lat="52.287297" lon="10.501965">
        <time>2026-08-09T08:20:19.829000Z</time>
      </trkpt>
      <trkpt lat="52.287423" lon="10.501752">
        <time>2026-08-09T08:20:28.829000Z</time>
      </trkpt>
      <trkpt lat="52.287505" lon="10.501478">
        <time>2026-08-09T08:20:37.829000Z</time>
      </trkpt>
      <trkpt lat="52.287734" lon="10.501141">
        <time>2026-08-09T08:20:52.929000Z</time>
      </trkpt>
      <trkpt lat="52.287824" lon="10.501004">
        <time>2026-08-09T08:20:58.929000Z</time>
      </trkpt>
      <trkpt lat="52.287866" lon="10.500977">
        <time>2026-08-09T08:21:01.929000Z</time>
      </trkpt>
      <trkpt lat="52.288095" lon="10.501002">
        <time>2026-08-09T08:21:13.929000Z</time>
      </trkpt>
      <trkpt lat="52.288367" lon="10.501126">
        <time>2026-08-09T08:21:25.929000Z</time>
      </trkpt>
      <trkpt lat="52.288493" lon="10.501199">
        <time>2026-08-09T08:21:31.929000Z</time>
      </trkpt>
      <trkpt lat="52.288693" lon="10.501473">
        <time>2026-08-09T08:21:43.929000Z</time>
      </trkpt>
      <trkpt lat="52.288872" lon="10.501904">
        <time>2026-08-09T08:21:58.929000Z</time>
      </trkpt>
      <trkpt lat="52.288899" lon="10.501992">
        <time>2026-08-09T08:22:01.929000Z</time>
      </trkpt>
      <trkpt lat="52.289009" lon="10.502171">
        <time>2026-08-09T08:22:10.929000Z</time>
      </trkpt>
      <trkpt lat="52.289058" lon="10.502371">
        <time>2026-08-09T08:22:16.929000Z</time>
      </trkpt>
      <trkpt lat="52.289159" lon="10.502585">
        <time>2026-08-09T08:22:25.929000Z</time>
      </trkpt>
      <trkpt lat="52.289259" lon="10.502686">
        <time>2026-08-09T08:22:31.929000Z</time>
      </trkpt>
      <trkpt lat="52.289366" lon="10.502698">
        <time>2026-08-09T08:22:40.929000Z</time>
      </trkpt>
      <trkpt lat="52.289614" lon="10.502551">
        <time>2026-08-09T08:22:55.929000Z</time>
      </trkpt>
      <trkpt lat="52.289721" lon="10.502563">
        <time>2026-08-09T08:22:58.929000Z</time>
      </trkpt>
      <trkpt lat="52.289871" lon="10.50268">
        <time>2026-08-09T08:23:04.929000Z</time>
      </trkpt>
      <trkpt lat="52.29009" lon="10.502953">
        <time>2026-08-09T08:23:19.929000Z</time>
      </trkpt>
      <trkpt lat="52.290378" lon="10.503211">
        <time>2026-08-09T08:23:34.929000Z</time>
      </trkpt>
      <trkpt lat="52.290493" lon="10.503327">
        <time>2026-08-09T08:23:40.929000Z</time>
      </trkpt>
      <trkpt lat="52.290616" lon="10.503611">
        <time>2026-08-09T08:23:49.929000Z</time>
      </trkpt>
      <trkpt lat="52.290665" lon="10.504075">
        <time>2026-08-09T08:24:04.929000Z</time>
      </trkpt>
      <trkpt lat="52.290669" lon="10.504173">
        <time>2026-08-09T08:24:08.029000Z</time>
      </trkpt>
      <trkpt lat="52.290449" lon="10.504539">
        <time>2026-08-09T08:24:23.029000Z</time>
      </trkpt>
      <trkpt lat="52.290269" lon="10.504843">
        <time>2026-08-09T08:24:35.029000Z</time>
      </trkpt>
      <trkpt lat="52.290007" lon="10.505052">
        <time>2026-08-09T08:24:47.029000Z</time>
      </trkpt>
      <trkpt lat="52.289791" lon="10.505197">
        <time>2026-08-09T08:24:56.029000Z</time>
      </trkpt>
      <trkpt lat="52.289688" lon="10.505399">
        <time>2026-08-09T08:25:02.029000Z</time>
      </trkpt>
      <trkpt lat="52.289551" lon="10.505877">
        <time>2026-08-09T08:25:17.029000Z</time>
      </trkpt>
      <trkpt lat="52.289503" lon="10.506073">
        <time>2026-08-09T08:25:23.029000Z</time>
      </trkpt>
      <trkpt lat="52.289374" lon="10.506493">
        <time>2026-08-09T08:25:35.029000Z</time>
      </trkpt>
      <trkpt lat="52.289317" lon="10.507">
        <time>2026-08-09T08:25:50.029000Z</time>
      </trkpt>
      <trkpt lat="52.289219" lon="10.507506">
        <time>2026-08-09T08:26:08.029000Z</time>
      </trkpt>
      <trkpt lat="52.289129" lon="10.508023">
        <time>2026-08-09T08:26:26.029000Z</time>
      </trkpt>
      <trkpt lat="52.289058" lon="10.508525">
        <time>2026-08-09T08:26:41.029000Z</time>
      </trkpt>
      <trkpt lat="52.289037" lon="10.509">
        <time>2026-08-09T08:26:56.029000Z</time>
      </trkpt>
      <trkpt lat="52.289048" lon="10.509511">
        <time>2026-08-09T08:27:11.029000Z</time>
      </trkpt>
      <trkpt lat="52.28908" lon="10.510021">
        <time>2026-08-09T08:27:26.029000Z</time>
      </trkpt>
      <trkpt lat="52.289116" lon="10.510516">
        <time>2026-08-09T08:27:41.029000Z</time>
      </trkpt>
      <trkpt lat="52.28912" lon="10.510705">
        <time>2026-08-09T08:27:47.029000Z</time>
      </trkpt>
      <trkpt lat="52.28906" lon="10.510998">
        <time>2026-08-09T08:27:56.129000Z</time>
      </trkpt>
      <trkpt lat="52.289075" lon="10.511508">
        <time>2026-08-09T08:28:11.129000Z</time>
      </trkpt>
      <trkpt lat="52.289082" lon="10.511721">
        <time>2026-08-09T08:28:17.129000Z</time>
      </trkpt>
      <trkpt lat="52.289023" lon="10.512228">
        <time>2026-08-09T08:28:32.129000Z</time>
      </trkpt>
      <trkpt lat="52.288948" lon="10.512714">
        <time>2026-08-09T08:28:47.129000Z</time>
      </trkpt>
      <trkpt lat="52.288889" lon="10.512892">
        <time>2026-08-09T08:28:53.129000Z</time>
      </trkpt>
      <trkpt lat="52.288746" lon="10.513087">
        <time>2026-08-09T08:29:02.129000Z</time>
      </trkpt>
      <trkpt lat="52.288437" lon="10.51315">
        <time>2026-08-09T08:29:17.129000Z</time>
      </trkpt>
      <trkpt lat="52.288109" lon="10.513131">
        <time>2026-08-09T08:29:32.129000Z</time>
      </trkpt>
      <trkpt lat="52.287794" lon="10.513103">
        <time>2026-08-09T08:29:47.129000Z</time>
      </trkpt>
      <trkpt lat="52.287509" lon="10.513084">
        <time>2026-08-09T08:30:02.129000Z</time>
      </trkpt>
      <trkpt lat="52.287211" lon="10.513088">
        <time>2026-08-09T08:30:17.129000Z</time>
      </trkpt>
      <trkpt lat="52.286918" lon="10.513013">
        <time>2026-08-09T08:30:32.129000Z</time>
      </trkpt>
      <trkpt lat="52.286632" lon="10.512984">
        <time>2026-08-09T08:30:47.129000Z</time>
      </trkpt>
      <trkpt lat="52.286361" lon="10.512964">
        <time>2026-08-09T08:31:02.129000Z</time>
      </trkpt>
      <trkpt lat="52.286049" lon="10.512979">
        <time>2026-08-09T08:31:17.129000Z</time>
      </trkpt>
      <trkpt lat="52.285731" lon="10.512966">
        <time>2026-08-09T08:31:32.129000Z</time>
      </trkpt>
      <trkpt lat="52.285392" lon="10.512981">
        <time>2026-08-09T08:31:47.129000Z</time>
      </trkpt>
      <trkpt lat="52.285063" lon="10.512987">
        <time>2026-08-09T08:32:02.229000Z</time>
      </trkpt>
      <trkpt lat="52.284793" lon="10.512981">
        <time>2026-08-09T08:32:14.229000Z</time>
      </trkpt>
      <trkpt lat="52.28448" lon="10.513019">
        <time>2026-08-09T08:32:29.229000Z</time>
      </trkpt>
      <trkpt lat="52.284136" lon="10.512999">
        <time>2026-08-09T08:32:44.229000Z</time>
      </trkpt>
      <trkpt lat="52.283806" lon="10.513002">
        <time>2026-08-09T08:32:59.229000Z</time>
      </trkpt>
      <trkpt lat="52.283485" lon="10.512996">
        <time>2026-08-09T08:33:14.229000Z</time>
      </trkpt>
      <trkpt lat="52.283163" lon="10.513015">
        <time>2026-08-09T08:33:29.229000Z</time>
      </trkpt>
      <trkpt lat="52.282854" lon="10.513037">
        <time>2026-08-09T08:33:47.229000Z</time>
      </trkpt>
      <trkpt lat="52.282575" lon="10.513015">
        <time>2026-08-09T08:34:02.229000Z</time>
      </trkpt>
      <trkpt lat="52.282271" lon="10.513019">
        <time>2026-08-09T08:34:17.229000Z</time>
      </trkpt>
      <trkpt lat="52.281944" lon="10.513037">
        <time>2026-08-09T08:34:32.229000Z</time>
      </trkpt>
      <trkpt lat="52.281643" lon="10.51302">
        <time>2026-08-09T08:34:47.229000Z</time>
      </trkpt>
      <trkpt lat="52.281362" lon="10.513039">
        <time>2026-08-09T08:34:59.229000Z</time>
      </trkpt>
      <trkpt lat="52.281067" lon="10.513047">
        <time>2026-08-09T08:35:11.229000Z</time>
      </trkpt>
      <trkpt lat="52.280732" lon="10.513049">
        <time>2026-08-09T08:35:26.229000Z</time>
      </trkpt>
      <trkpt lat="52.280401" lon="10.513066">
        <time>2026-08-09T08:35:41.229000Z</time>
      </trkpt>
      <trkpt lat="52.280129" lon="10.513085">
        <time>2026-08-09T08:35:53.229000Z</time>
      </trkpt>
      <trkpt lat="52.279832" lon="10.513112">
        <time>2026-08-09T08:36:05.329000Z</time>
      </trkpt>
      <trkpt lat="52.279552" lon="10.513136">
        <time>2026-08-09T08:36:20.329000Z</time>
      </trkpt>
      <trkpt lat="52.279261" lon="10.513113">
        <time>2026-08-09T08:36:35.329000Z</time>
      </trkpt>
      <trkpt lat="52.279096" lon="10.513125">
        <time>2026-08-09T08:36:44.329000Z</time>
      </trkpt>
      <trkpt lat="52.278806" lon="10.51312">
        <time>2026-08-09T08:36:59.329000Z</time>
      </trkpt>
      <trkpt lat="52.2785" lon="10.51312">
        <time>2026-08-09T08:37:14.329000Z</time>
      </trkpt>
      <trkpt lat="52.278176" lon="10.513124">
        <time>2026-08-09T08:37:29.329000Z</time>
      </trkpt>
      <trkpt lat="52.277838" lon="10.513126">
        <time>2026-08-09T08:37:44.329000Z</time>
      </trkpt>
      <trkpt lat="52.27751" lon="10.513114">
        <time>2026-08-09T08:37:59.329000Z</time>
      </trkpt>
      <trkpt lat="52.277202" lon="10.513132">
        <time>2026-08-09T08:38:14.329000Z</time>
      </trkpt>
      <trkpt lat="52.276917" lon="10.513166">
        <time>2026-08-09T08:38:29.329000Z</time>
      </trkpt>
      <trkpt lat="52.276628" lon="10.513166">
        <time>2026-08-09T08:38:44.329000Z</time>
      </trkpt>
      <trkpt lat="52.276303" lon="10.513164">
        <time>2026-08-09T08:38:59.329000Z</time>
      </trkpt>
      <trkpt lat="52.276032" lon="10.51318">
        <time>2026-08-09T08:39:14.329000Z</time>
      </trkpt>
      <trkpt lat="52.275704" lon="10.513235">
        <time>2026-08-09T08:39:29.329000Z</time>
      </trkpt>
      <trkpt lat="52.275429" lon="10.513409">
        <time>2026-08-09T08:39:44.429000Z</time>
      </trkpt>
      <trkpt lat="52.275153" lon="10.513556">
        <time>2026-08-09T08:40:02.429000Z</time>
      </trkpt>
      <trkpt lat="52.274888" lon="10.513677">
        <time>2026-08-09T08:40:17.429000Z</time>
      </trkpt>
      <trkpt lat="52.274675" lon="10.51378">
        <time>2026-08-09T08:40:29.429000Z</time>
      </trkpt>
      <trkpt lat="52.274621" lon="10.513779">
        <time>2026-08-09T08:40:32.429000Z</time>
      </trkpt>
      <trkpt lat="52.274499" lon="10.513694">
        <time>2026-08-09T08:40:38.429000Z</time>
      </trkpt>
      <trkpt lat="52.274366" lon="10.5137">
        <time>2026-08-09T08:40:44.429000Z</time>
      </trkpt>
      <trkpt lat="52.274096" lon="10.513872">
        <time>2026-08-09T08:40:59.429000Z</time>
      </trkpt>
      <trkpt lat="52.273796" lon="10.51398">
        <time>2026-08-09T08:41:14.429000Z</time>
      </trkpt>
      <trkpt lat="52.273648" lon="10.514114">
        <time>2026-08-09T08:41:23.429000Z</time>
      </trkpt>
      <trkpt lat="52.273469" lon="10.514382">
        <time>2026-08-09T08:41:35.429000Z</time>
      </trkpt>
      <trkpt lat="52.273389" lon="10.514535">
        <time>2026-08-09T08:41:41.429000Z</time>
      </trkpt>
      <trkpt lat="52.273269" lon="10.514967">
        <time>2026-08-09T08:41:56.429000Z</time>
      </trkpt>
      <trkpt lat="52.273196" lon="10.515206">
        <time>2026-08-09T08:42:05.429000Z</time>
      </trkpt>
      <trkpt lat="52.27316" lon="10.515576">
        <time>2026-08-09T08:42:17.429000Z</time>
      </trkpt>
      <trkpt lat="52.273239" lon="10.515773">
        <time>2026-08-09T08:42:26.429000Z</time>
      </trkpt>
      <trkpt lat="52.273269" lon="10.516285">
        <time>2026-08-09T08:42:41.429000Z</time>
      </trkpt>
      <trkpt lat="52.273276" lon="10.516554">
        <time>2026-08-09T08:42:47.429000Z</time>
      </trkpt>
      <trkpt lat="52.273244" lon="10.516935">
        <time>2026-08-09T08:42:59.429000Z</time>
      </trkpt>
      <trkpt lat="52.273206" lon="10.517425">
        <time>2026-08-09T08:43:11.429000Z</time>
      </trkpt>
      <trkpt lat="52.273161" lon="10.517918">
        <time>2026-08-09T08:43:26.429000Z</time>
      </trkpt>
      <trkpt lat="52.273102" lon="10.518432">
        <time>2026-08-09T08:43:41.429000Z</time>
      </trkpt>
      <trkpt lat="52.273067" lon="10.518782">
        <time>2026-08-09T08:43:50.429000Z</time>
      </trkpt>
      <trkpt lat="52.273174" lon="10.519303">
        <time>2026-08-09T08:44:05.429000Z</time>
      </trkpt>
      <trkpt lat="52.273186" lon="10.519406">
        <time>2026-08-09T08:44:08.429000Z</time>
      </trkpt>
      <trkpt lat="52.273041" lon="10.5198">
        <time>2026-08-09T08:44:20.429000Z</time>
      </trkpt>
      <trkpt lat="52.272883" lon="10.520229">
        <time>2026-08-09T08:44:35.429000Z</time>
      </trkpt>
      <trkpt lat="52.272841" lon="10.520288">
        <time>2026-08-09T08:44:38.429000Z</time>
      </trkpt>
      <trkpt lat="52.272695" lon="10.520744">
        <time>2026-08-09T08:44:53.429000Z</time>
      </trkpt>
      <trkpt lat="52.272613" lon="10.521094">
        <time>2026-08-09T08:45:05.429000Z</time>
      </trkpt>
      <trkpt lat="52.272459" lon="10.521483">
        <time>2026-08-09T08:45:17.429000Z</time>
      </trkpt>
      <trkpt lat="52.272363" lon="10.521752">
        <time>2026-08-09T08:45:26.429000Z</time>
      </trkpt>
      <trkpt lat="52.272171" lon="10.52219">
        <time>2026-08-09T08:45:44.429000Z</time>
      </trkpt>
      <trkpt lat="52.272072" lon="10.522286">
        <time>2026-08-09T08:45:50.429000Z</time>
      </trkpt>
      <trkpt lat="52.271954" lon="10.522309">
        <time>2026-08-09T08:45:56.429000Z</time>
      </trkpt>
      <trkpt lat="52.271791" lon="10.522266">
        <time>2026-08-09T08:46:05.429000Z</time>
      </trkpt>
      <trkpt lat="52.271709" lon="10.522188">
        <time>2026-08-09T08:46:11.429000Z</time>
      </trkpt>
      <trkpt lat="52.271625" lon="10.522054">
        <time>2026-08-09T08:46:17.429000Z</time>
      </trkpt>
      <trkpt lat="52.271573" lon="10.522009">
        <time>2026-08-09T08:46:20.429000Z</time>
      </trkpt>
      <trkpt lat="52.271503" lon="10.522012">
        <time>2026-08-09T08:46:23.429000Z</time>
      </trkpt>
      <trkpt lat="52.271253" lon="10.522291">
        <time>2026-08-09T08:46:38.429000Z</time>
      </trkpt>
      <trkpt lat="52.27097" lon="10.522433">
        <time>2026-08-09T08:46:53.529000Z</time>
      </trkpt>
      <trkpt lat="52.270688" lon="10.522595">
        <time>2026-08-09T08:47:08.529000Z</time>
      </trkpt>
      <trkpt lat="52.270423" lon="10.522873">
        <time>2026-08-09T08:47:23.529000Z</time>
      </trkpt>
      <trkpt lat="52.270155" lon="10.523071">
        <time>2026-08-09T08:47:38.529000Z</time>
      </trkpt>
      <trkpt lat="52.270051" lon="10.523114">
        <time>2026-08-09T08:47:44.529000Z</time>
      </trkpt>
      <trkpt lat="52.269996" lon="10.5231">
        <time>2026-08-09T08:47:47.529000Z</time>
      </trkpt>
      <trkpt lat="52.269924" lon="10.523039">
        <time>2026-08-09T08:47:53.529000Z</time>
      </trkpt>
      <trkpt lat="52.269856" lon="10.522881">
        <time>2026-08-09T08:48:02.629000Z</time>
      </trkpt>
      <trkpt lat="52.269793" lon="10.522869">
        <time>2026-08-09T08:48:08.629000Z</time>
      </trkpt>
    </trkseg>
  </trk>
</gpx>