<?xml version="1.0" encoding="UTF-8"?>
<gpx xmlns="http://www.topografix.com/GPX/1/1" xmlns:gpxtpx="http://www.garmin.com/xmlschemas/TrackPointExtension/v1" xmlns:xsi="http://www.w3.org/2001/XMLSchema-instance" xsi:schemaLocation="http://www.topografix.com/GPX/1/1 http://www.topografix.com/GPX/1/1/gpx.xsd" version="1.1" creator="gpx.py -- https://github.com/tkrajina/gpxpy">
  <trk>
    <name>gpx from keep</name>
    <type>Run</type>
    <trkseg>
      <trkpt lat="52.2701" lon="10.523127">
        <time>2026-08-06T05:34:47.442000Z</time>
      </trkpt>
      <trkpt lat="52.270224" lon="10.523064">
        <time>2026-08-06T05:34:53.742000Z</time>
      </trkpt>
      <trkpt lat="52.27039" lon="10.522913">
        <time>2026-08-06T05:35:05.442000Z</time>
      </trkpt>
      <trkpt lat="52.270398" lon="10.522795">
        <time>2026-08-06T05:35:08.442000Z</time>
      </trkpt>
      <trkpt lat="52.270477" lon="10.522718">
        <time>2026-08-06T05:35:11.442000Z</time>
      </trkpt>
      <trkpt lat="52.270629" lon="10.522645">
        <time>2026-08-06T05:35:17.442000Z</time>
      </trkpt>
      <trkpt lat="52.270801" lon="10.522486">
        <time>2026-08-06T05:35:23.442000Z</time>
      </trkpt>
      <trkpt lat="52.271074" lon="10.52241">
        <time>2026-08-06T05:35:32.442000Z</time>
      </trkpt>
      <trkpt lat="52.271233" lon="10.522309">
        <time>2026-08-06T05:35:38.442000Z</time>
      </trkpt>
      <trkpt lat="52.271337" lon="10.522197">
        <time>2026-08-06T05:35:44.442000Z</time>
      </trkpt>
      <trkpt lat="52.271471" lon="10.521989">
        <time>2026-08-06T05:35:53.442000Z</time>
      </trkpt>
      <trkpt lat="52.271582" lon="10.521986">
        <time>2026-08-06T05:35:59.442000Z</time>
      </trkpt>
      <trkpt lat="52.271643" lon="10.522035">
        <time>2026-08-06T05:36:02.442000Z</time>
      </trkpt>
      <trkpt lat="52.271793" lon="10.522268">
        <time>2026-08-06T05:36:11.542000Z</time>
      </trkpt>
      <trkpt lat="52.27184" lon="10.522309">
        <time>2026-08-06T05:36:14.542000Z</time>
      </trkpt>
      <trkpt lat="52.271966" lon="10.522299">
        <time>2026-08-06T05:36:20.542000Z</time>
      </trkpt>
      <trkpt lat="52.272025" lon="10.522269">
        <time>2026-08-06T05:36:23.542000Z</time>
      </trkpt>
      <trkpt lat="52.272167" lon="10.522068">
        <time>2026-08-06T05:36:32.542000Z</time>
      </trkpt>
      <trkpt lat="52.272362" lon="10.521583">
        <time>2026-08-06T05:36:47.542000Z</time>
      </trkpt>
      <trkpt lat="52.272539" lon="10.521134">
        <time>2026-08-06T05:37:02.542000Z</time>
      </trkpt>
      <trkpt lat="52.272696" lon="10.520687">
        <time>2026-08-06T05:37:14.542000Z</time>
      </trkpt>
      <trkpt lat="52.272849" lon="10.520303">
        <time>2026-08-06T05:37:26.542000Z</time>
      </trkpt>
      <trkpt lat="52.27298" lon="10.519911">
        <time>2026-08-06T05:37:41.542000Z</time>
      </trkpt>
      <trkpt lat="52.273123" lon="10.519478">
        <time>2026-08-06T05:37:56.542000Z</time>
      </trkpt>
      <trkpt lat="52.273159" lon="10.51937">
        <time>2026-08-06T05:37:59.542000Z</time>
      </trkpt>
      <trkpt lat="52.273028" lon="10.518922">
        <time>2026-08-06T05:38:14.542000Z</time>
      </trkpt>
      <trkpt lat="52.272999" lon="10.518616">
        <time>2026-08-06T05:38:23.542000Z</time>
      </trkpt>
      <trkpt lat="52.273049" lon="10.518173">
        <time>2026-08-06T05:38:35.542000Z</time>
      </trkpt>
      <trkpt lat="52.27308" lon="10.517852">
        <time>2026-08-06T05:38:44.542000Z</time>
      </trkpt>
      <trkpt lat="52.273125" lon="10.517684">
        <time>2026-08-06T05:38:50.542000Z</time>
      </trkpt>
      <trkpt lat="52.273159" lon="10.517196">
        <time>2026-08-06T05:39:05.542000Z</time>
      </trkpt>
      <trkpt lat="52.273196" lon="10.516811">
        <time>2026-08-06T05:39:14.542000Z</time>
      </trkpt>
      <trkpt lat="52.273217" lon="10.516735">
        <time>2026-08-06T05:39:17.542000Z</time>
      </trkpt>
      <trkpt lat="52.273211" lon="10.516497">
        <time>2026-08-06T05:39:23.542000Z</time>
      </trkpt>
      <trkpt lat="52.273245" lon="10.516313">
        <time>2026-08-06T05:39:29.542000Z</time>
      </trkpt>
      <trkpt lat="52.273298" lon="10.516148">
        <time>2026-08-06T05:39:35.542000Z</time>
      </trkpt>
      <trkpt lat="52.273265" lon="10.515813">
        <time>2026-08-06T05:39:44.542000Z</time>
      </trkpt>
      <trkpt lat="52.273211" lon="10.515764">
        <time>2026-08-06T05:39:47.542000Z</time>
      </trkpt>
      <trkpt lat="52.273176" lon="10.515678">
        <time>2026-08-06T05:39:50.542000Z</time>
      </trkpt>
      <trkpt lat="52.273175" lon="10.515587">
        <time>2026-08-06T05:39:53.542000Z</time>
      </trkpt>
      <trkpt lat="52.273247" lon="10.515112">
        <time>2026-08-06T05:40:08.542000Z</time>
      </trkpt>
      <trkpt lat="52.27328" lon="10.514936">
        <time>2026-08-06T05:40:14.542000Z</time>
      </trkpt>
      <trkpt lat="52.273386" lon="10.514659">
        <time>2026-08-06T05:40:23.542000Z</time>
      </trkpt>
      <trkpt lat="52.273611" lon="10.514303">
        <time>2026-08-06T05:40:38.542000Z</time>
      </trkpt>
      <trkpt lat="52.273706" lon="10.514156">
        <time>2026-08-06T05:40:44.542000Z</time>
      </trkpt>
      <trkpt lat="52.273877" lon="10.514042">
        <time>2026-08-06T05:40:53.542000Z</time>
      </trkpt>
      <trkpt lat="52.27393832230878" lon="10.514020283954196">
        <time>2026-08-06T05:40:56.542000Z</time>
      </trkpt>
      <trkpt lat="52.274112" lon="10.51386">
        <time>2026-08-06T05:41:05.542000Z</time>
      </trkpt>
      <trkpt lat="52.274389" lon="10.513725">
        <time>2026-08-06T05:41:17.542000Z</time>
      </trkpt>
      <trkpt lat="52.274509" lon="10.513774">
        <time>2026-08-06T05:41:23.542000Z</time>
      </trkpt>
      <trkpt lat="52.274603" lon="10.513866">
        <time>2026-08-06T05:41:29.542000Z</time>
      </trkpt>
      <trkpt lat="52.274778" lon="10.513811">
        <time>2026-08-06T05:41:41.542000Z</time>
      </trkpt>
      <trkpt lat="52.274902" lon="10.513724">
        <time>2026-08-06T05:41:47.542000Z</time>
      </trkpt>
      <trkpt lat="52.275174" lon="10.513602">
        <time>2026-08-06T05:41:59.542000Z</time>
      </trkpt>
      <trkpt lat="52.275325" lon="10.513472">
        <time>2026-08-06T05:42:11.542000Z</time>
      </trkpt>
      <trkpt lat="52.275552" lon="10.513388">
        <time>2026-08-06T05:42:23.542000Z</time>
      </trkpt>
      <trkpt lat="52.275683" lon="10.513302">
        <time>2026-08-06T05:42:29.542000Z</time>
      </trkpt>
      <trkpt lat="52.275998" lon="10.513258">
        <time>2026-08-06T05:42:41.542000Z</time>
      </trkpt>
      <trkpt lat="52.276318" lon="10.513234">
        <time>2026-08-06T05:42:59.542000Z</time>
      </trkpt>
      <trkpt lat="52.276637" lon="10.513214">
        <time>2026-08-06T05:43:14.642000Z</time>
      </trkpt>
      <trkpt lat="52.276907" lon="10.513222">
        <time>2026-08-06T05:43:26.642000Z</time>
      </trkpt>
      <trkpt lat="52.277225" lon="10.513201">
        <time>2026-08-06T05:43:41.642000Z</time>
      </trkpt>
      <trkpt lat="52.27752" lon="10.513158">
        <time>2026-08-06T05:43:56.642000Z</time>
      </trkpt>
      <trkpt lat="52.277631" lon="10.513147">
        <time>2026-08-06T05:44:02.642000Z</time>
      </trkpt>
      <trkpt lat="52.277718" lon="10.513169">
        <time>2026-08-06T05:44:08.642000Z</time>
      </trkpt>
      <trkpt lat="52.277851" lon="10.513151">
        <time>2026-08-06T05:44:14.642000Z</time>
      </trkpt>
      <trkpt lat="52.278083" lon="10.513194">
        <time>2026-08-06T05:44:26.642000Z</time>
      </trkpt>
      <trkpt lat="52.278382" lon="10.513206">
        <time>2026-08-06T05:44:41.642000Z</time>
      </trkpt>
      <trkpt lat="52.278627" lon="10.513202">
        <time>2026-08-06T05:44:53.642000Z</time>
      </trkpt>
      <trkpt lat="52.27882" lon="10.513135">
        <time>2026-08-06T05:45:02.642000Z</time>
      </trkpt>
      <trkpt lat="52.279151" lon="10.513128">
        <time>2026-08-06T05:45:17.642000Z</time>
      </trkpt>
      <trkpt lat="52.279428" lon="10.513127">
        <time>2026-08-06T05:45:29.642000Z</time>
      </trkpt>
      <trkpt lat="52.27972" lon="10.513153">
        <time>2026-08-06T05:45:44.642000Z</time>
      </trkpt>
      <trkpt lat="52.280035" lon="10.513153">
        <time>2026-08-06T05:46:02.642000Z</time>
      </trkpt>
      <trkpt lat="52.280343" lon="10.513131">
        <time>2026-08-06T05:46:17.642000Z</time>
      </trkpt>
      <trkpt lat="52.28067" lon="10.513133">
        <time>2026-08-06T05:46:32.642000Z</time>
      </trkpt>
      <trkpt lat="52.280953" lon="10.513136">
        <time>2026-08-06T05:46:47.642000Z</time>
      </trkpt>
      <trkpt lat="52.281262" lon="10.513119">
        <time>2026-08-06T05:47:02.642000Z</time>
      </trkpt>
      <trkpt lat="52.281482" lon="10.513116">
        <time>2026-08-06T05:47:14.642000Z</time>
      </trkpt>
      <trkpt lat="52.281543" lon="10.51314">
        <time>2026-08-06T05:47:17.642000Z</time>
      </trkpt>
      <trkpt lat="52.2815969832491" lon="10.513129205895117">
        <time>2026-08-06T05:47:20.642000Z</time>
      </trkpt>
      <trkpt lat="52.2816520593348" lon="10.513084271256464">
        <time>2026-08-06T05:47:23.642000Z</time>
      </trkpt>
      <trkpt lat="52.281833" lon="10.513058">
        <time>2026-08-06T05:47:32.642000Z</time>
      </trkpt>
      <trkpt lat="52.282163" lon="10.513101">
        <time>2026-08-06T05:47:47.642000Z</time>
      </trkpt>
      <trkpt lat="52.282439" lon="10.513112">
        <time>2026-08-06T05:48:02.642000Z</time>
      </trkpt>
      <trkpt lat="52.282557" lon="10.513107">
        <time>2026-08-06T05:48:08.642000Z</time>
      </trkpt>
      <trkpt lat="52.282676" lon="10.513136">
        <time>2026-08-06T05:48:14.642000Z</time>
      </trkpt>
      <trkpt lat="52.282973" lon="10.513093">
        <time>2026-08-06T05:48:26.642000Z</time>
      </trkpt>
      <trkpt lat="52.283246" lon="10.513081">
        <time>2026-08-06T05:48:38.742000Z</time>
      </trkpt>
      <trkpt lat="52.28357" lon="10.513077">
        <time>2026-08-06T05:48:53.742000Z</time>
      </trkpt>
      <trkpt lat="52.283871" lon="10.51308">
        <time>2026-08-06T05:49:08.742000Z</time>
      </trkpt>
      <trkpt lat="52.284109" lon="10.513023">
        <time>2026-08-06T05:49:20.742000Z</time>
      </trkpt>
      <trkpt lat="52.284344" lon="10.513102">
        <time>2026-08-06T05:49:32.742000Z</time>
      </trkpt>
      <trkpt lat="52.284655" lon="10.513104">
        <time>2026-08-06T05:49:50.742000Z</time>
      </trkpt>
      <trkpt lat="52.284955" lon="10.513066">
        <time>2026-08-06T05:50:02.742000Z</time>
      </trkpt>
      <trkpt lat="52.285247" lon="10.51308">
        <time>2026-08-06T05:50:14.742000Z</time>
      </trkpt>
      <trkpt lat="52.285546" lon="10.513037">
        <time>2026-08-06T05:50:26.742000Z</time>
      </trkpt>
      <trkpt lat="52.285843" lon="10.513052">
        <time>2026-08-06T05:50:47.742000Z</time>
      </trkpt>
      <trkpt lat="52.286131" lon="10.513037">
        <time>2026-08-06T05:51:02.742000Z</time>
      </trkpt>
      <trkpt lat="52.286458" lon="10.513044">
        <time>2026-08-06T05:51:17.742000Z</time>
      </trkpt>
      <trkpt lat="52.286759" lon="10.513038">
        <time>2026-08-06T05:51:32.742000Z</time>
      </trkpt>
      <trkpt lat="52.287084" lon="10.513074">
        <time>2026-08-06T05:51:50.742000Z</time>
      </trkpt>
      <trkpt lat="52.287356" lon="10.513084">
        <time>2026-08-06T05:52:02.742000Z</time>
      </trkpt>
      <trkpt lat="52.287673" lon="10.513108">
        <time>2026-08-06T05:52:17.742000Z</time>
      </trkpt>
      <trkpt lat="52.287989" lon="10.513146">
        <time>2026-08-06T05:52:35.742000Z</time>
      </trkpt>
      <trkpt lat="52.288302" lon="10.513175">
        <time>2026-08-06T05:52:50.842000Z</time>
      </trkpt>
      <trkpt lat="52.288604" lon="10.513156">
        <time>2026-08-06T05:53:05.842000Z</time>
      </trkpt>
      <trkpt lat="52.288724" lon="10.513138">
        <time>2026-08-06T05:53:11.842000Z</time>
      </trkpt>
      <trkpt lat="52.288784" lon="10.513102">
        <time>2026-08-06T05:53:14.842000Z</time>
      </trkpt>
      <trkpt lat="52.288943" lon="10.512894">
        <time>2026-08-06T05:53:23.842000Z</time>
      </trkpt>
      <trkpt lat="52.289047" lon="10.512382">
        <time>2026-08-06T05:53:38.842000Z</time>
      </trkpt>
      <trkpt lat="52.289084" lon="10.511834">
        <time>2026-08-06T05:53:53.842000Z</time>
      </trkpt>
      <trkpt lat="52.289095" lon="10.511333">
        <time>2026-08-06T05:54:08.842000Z</time>
      </trkpt>
      <trkpt lat="52.289086" lon="10.510944">
        <time>2026-08-06T05:54:20.842000Z</time>
      </trkpt>
      <trkpt lat="52.289147" lon="10.510679">
        <time>2026-08-06T05:54:29.842000Z</time>
      </trkpt>
      <trkpt lat="52.289117" lon="10.510225">
        <time>2026-08-06T05:54:44.842000Z</time>
      </trkpt>
      <trkpt lat="52.289089" lon="10.509762">
        <time>2026-08-06T05:54:59.842000Z</time>
      </trkpt>
      <trkpt lat="52.289075" lon="10.509272">
        <time>2026-08-06T05:55:14.842000Z</time>
      </trkpt>
      <trkpt lat="52.289069" lon="10.508777">
        <time>2026-08-06T05:55:29.842000Z</time>
      </trkpt>
      <trkpt lat="52.289129" lon="10.508284">
        <time>2026-08-06T05:55:44.842000Z</time>
      </trkpt>
      <trkpt lat="52.289216" lon="10.507778">
        <time>2026-08-06T05:55:59.842000Z</time>
      </trkpt>
      <trkpt lat="52.289285" lon="10.507301">
        <time>2026-08-06T05:56:14.842000Z</time>
      </trkpt>
      <trkpt lat="52.289359" lon="10.506833">
        <time>2026-08-06T05:56:29.842000Z</time>
      </trkpt>
      <trkpt lat="52.289445" lon="10.506369">
        <time>2026-08-06T05:56:44.942000Z</time>
      </trkpt>
      <trkpt lat="52.289584" lon="10.505918">
        <time>2026-08-06T05:56:59.942000Z</time>
      </trkpt>
      <trkpt lat="52.289722" lon="10.505464">
        <time>2026-08-06T05:57:14.942000Z</time>
      </trkpt>
      <trkpt lat="52.2898" lon="10.5053">
        <time>2026-08-06T05:57:20.942000Z</time>
      </trkpt>
      <trkpt lat="52.290096" lon="10.505092">
        <time>2026-08-06T05:57:35.942000Z</time>
      </trkpt>
      <trkpt lat="52.290326" lon="10.504845">
        <time>2026-08-06T05:57:47.942000Z</time>
      </trkpt>
      <trkpt lat="52.290533" lon="10.504478">
        <time>2026-08-06T05:58:02.942000Z</time>
      </trkpt>
      <trkpt lat="52.290663" lon="10.504211">
        <time>2026-08-06T05:58:14.942000Z</time>
      </trkpt>
      <trkpt lat="52.29068" lon="10.504121">
        <time>2026-08-06T05:58:17.942000Z</time>
      </trkpt>
      <trkpt lat="52.290659" lon="10.50367">
        <time>2026-08-06T05:58:29.942000Z</time>
      </trkpt>
      <trkpt lat="52.290647" lon="10.503592">
        <time>2026-08-06T05:58:32.942000Z</time>
      </trkpt>
      <trkpt lat="52.290527" lon="10.503359">
        <time>2026-08-06T05:58:41.942000Z</time>
      </trkpt>
      <trkpt lat="52.290306" lon="10.5031">
        <time>2026-08-06T05:58:53.942000Z</time>
      </trkpt>
      <trkpt lat="52.290029" lon="10.50286">
        <time>2026-08-06T05:59:08.942000Z</time>
      </trkpt>
      <trkpt lat="52.289889" lon="10.502697">
        <time>2026-08-06T05:59:17.942000Z</time>
      </trkpt>
      <trkpt lat="52.289823" lon="10.50259">
        <time>2026-08-06T05:59:23.942000Z</time>
      </trkpt>
      <trkpt lat="52.289774" lon="10.502545">
        <time>2026-08-06T05:59:26.942000Z</time>
      </trkpt>
      <trkpt lat="52.289666" lon="10.502539">
        <time>2026-08-06T05:59:32.942000Z</time>
      </trkpt>
      <trkpt lat="52.289479" lon="10.502675">
        <time>2026-08-06T05:59:41.942000Z</time>
      </trkpt>
      <trkpt lat="52.289259" lon="10.502717">
        <time>2026-08-06T05:59:50.942000Z</time>
      </trkpt>
      <trkpt lat="52.289192" lon="10.502701">
        <time>2026-08-06T05:59:53.942000Z</time>
      </trkpt>
      <trkpt lat="52.289153" lon="10.502664">
        <time>2026-08-06T05:59:56.942000Z</time>
      </trkpt>
      <trkpt lat="52.289134" lon="10.502541">
        <time>2026-08-06T06:00:02.942000Z</time>
      </trkpt>
      <trkpt lat="52.288968" lon="10.502121">
        <time>2026-08-06T06:00:17.942000Z</time>
      </trkpt>
      <trkpt lat="52.288921" lon="10.501955">
        <time>2026-08-06T06:00:23.942000Z</time>
      </trkpt>
      <trkpt lat="52.288756" lon="10.501583">
        <time>2026-08-06T06:00:35.942000Z</time>
      </trkpt>
      <trkpt lat="52.288675" lon="10.501424">
        <time>2026-08-06T06:00:41.942000Z</time>
      </trkpt>
      <trkpt lat="52.288426" lon="10.501113">
        <time>2026-08-06T06:00:57.042000Z</time>
      </trkpt>
      <trkpt lat="52.288157" lon="10.501015">
        <time>2026-08-06T06:01:09.042000Z</time>
      </trkpt>
      <trkpt lat="52.287885" lon="10.500957">
        <time>2026-08-06T06:01:21.042000Z</time>
      </trkpt>
      <trkpt lat="52.287828" lon="10.500991">
        <time>2026-08-06T06:01:24.042000Z</time>
      </trkpt>
      <trkpt lat="52.287609" lon="10.501259">
        <time>2026-08-06T06:01:39.042000Z</time>
      </trkpt>
      <trkpt lat="52.287446" lon="10.501501">
        <time>2026-08-06T06:01:51.042000Z</time>
      </trkpt>
      <trkpt lat="52.287305" lon="10.501884">
        <time>2026-08-06T06:02:03.042000Z</time>
      </trkpt>
      <trkpt lat="52.287176" lon="10.502281">
        <time>2026-08-06T06:02:15.042000Z</time>
      </trkpt>
      <trkpt lat="52.287069" lon="10.502739">
        <time>2026-08-06T06:02:30.042000Z</time>
      </trkpt>
      <trkpt lat="52.286974" lon="10.503256">
        <time>2026-08-06T06:02:48.042000Z</time>
      </trkpt>
      <trkpt lat="52.28687" lon="10.503739">
        <time>2026-08-06T06:03:09.042000Z</time>
      </trkpt>
      <trkpt lat="52.286767" lon="10.504205">
        <time>2026-08-06T06:03:24.042000Z</time>
      </trkpt>
      <trkpt lat="52.286708" lon="10.504718">
        <time>2026-08-06T06:03:39.042000Z</time>
      </trkpt>
      <trkpt lat="52.286732" lon="10.505217">
        <time>2026-08-06T06:03:54.042000Z</time>
      </trkpt>
      <trkpt lat="52.286757" lon="10.50572">
        <time>2026-08-06T06:04:09.042000Z</time>
      </trkpt>
      <trkpt lat="52.286766" lon="10.506165">
        <time>2026-08-06T06:04:21.042000Z</time>
      </trkpt>
      <trkpt lat="52.286777" lon="10.506706">
        <time>2026-08-06T06:04:36.042000Z</time>
      </trkpt>
      <trkpt lat="52.286757" lon="10.50725">
        <time>2026-08-06T06:04:51.142000Z</time>
      </trkpt>
      <trkpt lat="52.286762" lon="10.507633">
        <time>2026-08-06T06:05:03.142000Z</time>
      </trkpt>
      <trkpt lat="52.286612" lon="10.508129">
        <time>2026-08-06T06:05:21.142000Z</time>
      </trkpt>
      <trkpt lat="52.286515" lon="10.508451">
        <time>2026-08-06T06:05:30.142000Z</time>
      </trkpt>
      <trkpt lat="52.286487" lon="10.508784">
        <time>2026-08-06T06:05:39.142000Z</time>
      </trkpt>
      <trkpt lat="52.286523" lon="10.509306">
        <time>2026-08-06T06:05:54.142000Z</time>
      </trkpt>
      <trkpt lat="52.286576" lon="10.509833">
        <time>2026-08-06T06:06:09.142000Z</time>
      </trkpt>
      <trkpt lat="52.286615" lon="10.510317">
        <time>2026-08-06T06:06:24.142000Z</time>
      </trkpt>
      <trkpt lat="52.286639" lon="10.510591">
        <time>2026-08-06T06:06:33.142000Z</time>
      </trkpt>
      <trkpt lat="52.286586" lon="10.510809">
        <time>2026-08-06T06:06:42.142000Z</time>
      </trkpt>
      <trkpt lat="52.286512" lon="10.511014">
        <time>2026-08-06T06:06:51.142000Z</time>
      </trkpt>
      <trkpt lat="52.286416" lon="10.511448">
        <time>2026-08-06T06:07:06.142000Z</time>
      </trkpt>
      <trkpt lat="52.286261" lon="10.511901">
        <time>2026-08-06T06:07:21.142000Z</time>
      </trkpt>
      <trkpt lat="52.286057" lon="10.512308">
        <time>2026-08-06T06:07:36.142000Z</time>
      </trkpt>
      <trkpt lat="52.285835" lon="10.512697">
        <time>2026-08-06T06:07:54.142000Z</time>
      </trkpt>
      <trkpt lat="52.285644" lon="10.512988">
        <time>2026-08-06T06:08:06.142000Z</time>
      </trkpt>
      <trkpt lat="52.285576" lon="10.513028">
        <time>2026-08-06T06:08:09.142000Z</time>
      </trkpt>
      <trkpt lat="52.285304" lon="10.51302">
        <time>2026-08-06T06:08:21.242000Z</time>
      </trkpt>
      <trkpt lat="52.284995" lon="10.51303">
        <time>2026-08-06T06:08:36.242000Z</time>
      </trkpt>
      <trkpt lat="52.284701" lon="10.513041">
        <time>2026-08-06T06:08:51.242000Z</time>
      </trkpt>
      <trkpt lat="52.284393" lon="10.513038">
        <time>2026-08-06T06:09:06.242000Z</time>
      </trkpt>
      <trkpt lat="52.284096" lon="10.51305">
        <time>2026-08-06T06:09:21.242000Z</time>
      </trkpt>
      <trkpt lat="52.283797" lon="10.513046">
        <time>2026-08-06T06:09:36.242000Z</time>
      </trkpt>
      <trkpt lat="52.283497" lon="10.513058">
        <time>2026-08-06T06:09:51.242000Z</time>
      </trkpt>
      <trkpt lat="52.283191" lon="10.513064">
        <time>2026-08-06T06:10:06.242000Z</time>
      </trkpt>
      <trkpt lat="52.282872" lon="10.513045">
        <time>2026-08-06T06:10:24.242000Z</time>
      </trkpt>
      <trkpt lat="52.282596" lon="10.513052">
        <time>2026-08-06T06:10:39.242000Z</time>
      </trkpt>
      <trkpt lat="52.282275" lon="10.513079">
        <time>2026-08-06T06:10:54.242000Z</time>
      </trkpt>
      <trkpt lat="52.281966" lon="10.513075">
        <time>2026-08-06T06:11:09.242000Z</time>
      </trkpt>
      <trkpt lat="52.28172820523867" lon="10.51309204713743">
        <time>2026-08-06T06:11:21.342000Z</time>
      </trkpt>
      <trkpt lat="52.28164712203879" lon="10.513046246931426">
        <time>2026-08-06T06:11:27.342000Z</time>
      </trkpt>
      <trkpt lat="52.281329" lon="10.513103">
        <time>2026-08-06T06:11:39.342000Z</time>
      </trkpt>
      <trkpt lat="52.28104" lon="10.513113">
        <time>2026-08-06T06:11:51.342000Z</time>
      </trkpt>
      <trkpt lat="52.280735" lon="10.513133">
        <time>2026-08-06T06:12:03.342000Z</time>
      </trkpt>
      <trkpt lat="52.280437" lon="10.513156">
        <time>2026-08-06T06:12:18.342000Z</time>
      </trkpt>
      <trkpt lat="52.280157" lon="10.51316">
        <time>2026-08-06T06:12:33.342000Z</time>
      </trkpt>
      <trkpt lat="52.280031" lon="10.513198">
        <time>2026-08-06T06:12:42.542000Z</time>
      </trkpt>
      <trkpt lat="52.279924" lon="10.513148">
        <time>2026-08-06T06:12:54.342000Z</time>
      </trkpt>
      <trkpt lat="52.279646" lon="10.51315">
        <time>2026-08-06T06:13:09.342000Z</time>
      </trkpt>
      <trkpt lat="52.279354" lon="10.513155">
        <time>2026-08-06T06:13:21.342000Z</time>
      </trkpt>
      <trkpt lat="52.279049" lon="10.513137">
        <time>2026-08-06T06:13:36.342000Z</time>
      </trkpt>
      <trkpt lat="52.278749" lon="10.513165">
        <time>2026-08-06T06:13:51.342000Z</time>
      </trkpt>
      <trkpt lat="52.278426" lon="10.5132">
        <time>2026-08-06T06:14:06.342000Z</time>
      </trkpt>
      <trkpt lat="52.278109" lon="10.513166">
        <time>2026-08-06T06:14:21.342000Z</time>
      </trkpt>
      <trkpt lat="52.277806" lon="10.513172">
        <time>2026-08-06T06:14:36.342000Z</time>
      </trkpt>
      <trkpt lat="52.277511" lon="10.513173">
        <time>2026-08-06T06:14:51.342000Z</time>
      </trkpt>
      <trkpt lat="52.277328" lon="10.513156">
        <time>2026-08-06T06:15:00.342000Z</time>
      </trkpt>
      <trkpt lat="52.277037" lon="10.51319">
        <time>2026-08-06T06:15:15.442000Z</time>
      </trkpt>
      <trkpt lat="52.276736" lon="10.513148">
        <time>2026-08-06T06:15:30.442000Z</time>
      </trkpt>
      <trkpt lat="52.276461" lon="10.513162">
        <time>2026-08-06T06:15:45.442000Z</time>
      </trkpt>
      <trkpt lat="52.276117" lon="10.513169">
        <time>2026-08-06T06:15:57.442000Z</time>
      </trkpt>
      <trkpt lat="52.275916" lon="10.513223">
        <time>2026-08-06T06:16:03.442000Z</time>
      </trkpt>
      <trkpt lat="52.275801" lon="10.513207">
        <time>2026-08-06T06:16:09.442000Z</time>
      </trkpt>
      <trkpt lat="52.275543" lon="10.513299">
        <time>2026-08-06T06:16:21.442000Z</time>
      </trkpt>
      <trkpt lat="52.275429" lon="10.513378">
        <time>2026-08-06T06:16:27.442000Z</time>
      </trkpt>
      <trkpt lat="52.275366" lon="10.513394">
        <time>2026-08-06T06:16:30.442000Z</time>
      </trkpt>
      <trkpt lat="52.275087" lon="10.513599">
        <time>2026-08-06T06:16:42.442000Z</time>
      </trkpt>
      <trkpt lat="52.274781" lon="10.513771">
        <time>2026-08-06T06:16:57.442000Z</time>
      </trkpt>
      <trkpt lat="52.274662" lon="10.513821">
        <time>2026-08-06T06:17:03.442000Z</time>
      </trkpt>
      <trkpt lat="52.274439" lon="10.513715">
        <time>2026-08-06T06:17:15.442000Z</time>
      </trkpt>
      <trkpt lat="52.274378" lon="10.513713">
        <time>2026-08-06T06:17:18.442000Z</time>
      </trkpt>
      <trkpt lat="52.27405" lon="10.513898">
        <time>2026-08-06T06:17:33.442000Z</time>
      </trkpt>
      <trkpt lat="52.273979" lon="10.514029">
        <time>2026-08-06T06:17:42.442000Z</time>
      </trkpt>
      <trkpt lat="52.27379" lon="10.514055">
        <time>2026-08-06T06:17:48.442000Z</time>
      </trkpt>
      <trkpt lat="52.273725" lon="10.51409">
        <time>2026-08-06T06:17:51.442000Z</time>
      </trkpt>
      <trkpt lat="52.273488" lon="10.514404">
        <time>2026-08-06T06:18:06.442000Z</time>
      </trkpt>
      <trkpt lat="52.273414" lon="10.514505">
        <time>2026-08-06T06:18:12.442000Z</time>
      </trkpt>
      <trkpt lat="52.273266" lon="10.514993">
        <time>2026-08-06T06:18:27.442000Z</time>
      </trkpt>
      <trkpt lat="52.273214" lon="10.515208">
        <time>2026-08-06T06:18:33.442000Z</time>
      </trkpt>
      <trkpt lat="52.273164" lon="10.515516">
        <time>2026-08-06T06:18:45.442000Z</time>
      </trkpt>
      <trkpt lat="52.273163" lon="10.515657">
        <time>2026-08-06T06:18:48.442000Z</time>
      </trkpt>
      <trkpt lat="52.273232" lon="10.515964">
        <time>2026-08-06T06:19:00.642000Z</time>
      </trkpt>
      <trkpt lat="52.273208" lon="10.516301">
        <time>2026-08-06T06:19:09.542000Z</time>
      </trkpt>
      <trkpt lat="52.273235" lon="10.516512">
        <time>2026-08-06T06:19:18.542000Z</time>
      </trkpt>
      <trkpt lat="52.27319332127844" lon="10.517046103873435">
        <time>2026-08-06T06:19:33.542000Z</time>
      </trkpt>
      <trkpt lat="52.273156" lon="10.51759">
        <time>2026-08-06T06:19:48.542000Z</time>
      </trkpt>
      <trkpt lat="52.273168" lon="10.517693">
        <time>2026-08-06T06:19:51.542000Z</time>
      </trkpt>
      <trkpt lat="52.27316" lon="10.518165">
        <time>2026-08-06T06:20:06.542000Z</time>
      </trkpt>
      <trkpt lat="52.273138" lon="10.518242">
        <time>2026-08-06T06:20:09.542000Z</time>
      </trkpt>
      <trkpt lat="52.27313" lon="10.518707">
        <time>2026-08-06T06:20:21.542000Z</time>
      </trkpt>
      <trkpt lat="52.273246" lon="10.519236">
        <time>2026-08-06T06:20:39.542000Z</time>
      </trkpt>
      <trkpt lat="52.273242" lon="10.519336">
        <time>2026-08-06T06:20:42.542000Z</time>
      </trkpt>
      <trkpt lat="52.273129" lon="10.519518">
        <time>2026-08-06T06:20:48.542000Z</time>
      </trkpt>
      <trkpt lat="52.272954" lon="10.519973">
        <time>2026-08-06T06:21:03.542000Z</time>
      </trkpt>
      <trkpt lat="52.272803" lon="10.520406">
        <time>2026-08-06T06:21:18.542000Z</time>
      </trkpt>
      <trkpt lat="52.272654058469136" lon="10.520841807161045">
        <time>2026-08-06T06:21:30.542000Z</time>
      </trkpt>
      <trkpt lat="52.272523903013074" lon="10.521249160764638">
        <time>2026-08-06T06:21:42.542000Z</time>
      </trkpt>
      <trkpt lat="52.272469" lon="10.521414">
        <time>2026-08-06T06:21:48.542000Z</time>
      </trkpt>
      <trkpt lat="52.272393" lon="10.521535">
        <time>2026-08-06T06:21:57.542000Z</time>
      </trkpt>
      <trkpt lat="52.272237" lon="10.521984">
        <time>2026-08-06T06:22:12.542000Z</time>
      </trkpt>
      <trkpt lat="52.27210608756151" lon="10.52226920128482">
        <time>2026-08-06T06:22:24.542000Z</time>
      </trkpt>
      <trkpt lat="52.271999" lon="10.522369">
        <time>2026-08-06T06:22:30.542000Z</time>
      </trkpt>
      <trkpt lat="52.271769" lon="10.522334">
        <time>2026-08-06T06:22:42.642000Z</time>
      </trkpt>
      <trkpt lat="52.271724" lon="10.522294">
        <time>2026-08-06T06:22:45.542000Z</time>
      </trkpt>
      <trkpt lat="52.271563" lon="10.522022">
        <time>2026-08-06T06:22:57.642000Z</time>
      </trkpt>
      <trkpt lat="52.271452" lon="10.522052">
        <time>2026-08-06T06:23:03.542000Z</time>
      </trkpt>
      <trkpt lat="52.271223" lon="10.522336">
        <time>2026-08-06T06:23:12.542000Z</time>
      </trkpt>
      <trkpt lat="52.27112218076558" lon="10.522408845024456">
        <time>2026-08-06T06:23:15.542000Z</time>
      </trkpt>
      <trkpt lat="52.27079473342104" lon="10.522562586352063">
        <time>2026-08-06T06:23:24.542000Z</time>
      </trkpt>
      <trkpt lat="52.270545" lon="10.522782">
        <time>2026-08-06T06:23:33.542000Z</time>
      </trkpt>
      <trkpt lat="52.270478" lon="10.522818">
        <time>2026-08-06T06:23:36.642000Z</time>
      </trkpt>
      <trkpt lat="52.270237" lon="10.523022">
        <time>2026-08-06T06:23:45.642000Z</time>
      </trkpt>
      <trkpt lat="52.270077" lon="10.523131">
        <time>2026-08-06T06:23:57.642000Z</time>
      </trkpt>
      <trkpt lat="52.270077" lon="10.523131">
        <time>2026-08-06T06:23:59.642000Z</time>
      </trkpt>
    </trkseg>
  </trk>
</gpx>